<?xml version="1.0" encoding="UTF-8"?>
<kml xmlns="http://www.opengis.net/kml/2.2">
  <Document>
    <name>DART Line</name>
    <Style id="lineStyle">
      <LineStyle>
        <color>ffff0000</color>
        <width>4</width>
      </LineStyle>
    </Style>
    <Placemark>
      <name>DART Route</name>
      <styleUrl>#lineStyle</styleUrl>
      <LineString>
        <coordinates>
          -6.074211,53.388893,0 -6.115952,53.391905,0 -6.136925,53.391242,0 -6.155434,53.391496,0 -6.16089,53.387472,0 -6.175818,53.381423,0 -6.19131,53.378643,0 -6.204046,53.372884,0 -6.226784,53.363077,0 -6.247731,53.352586,0 -6.254359,53.347264,0 -6.248048,53.343252,0 -6.237351,53.339446,0 -6.229191,53.333963,0 -6.220843,53.32784,0 -6.211644,53.320956,0 -6.19498,53.309921,0 -6.16512,53.299128,0 -6.15233,53.29526,0 -6.134575,53.294776,0 -6.126937,53.288125,0 -6.122893,53.281196,0 -6.103358,53.275854,0 -6.113167,53.25571,0 -6.117228,53.236522,0 -6.100194,53.203712,0 -6.178846,53.302716,0
        </coordinates>
      </LineString>
    </Placemark>
  </Document>
</kml>