<?xml version="1.0" encoding="UTF-8"?>
<kml xmlns="http://www.opengis.net/kml/2.2">
  <Document>
    <name>DART</name>
    <Style id="pointStyle">
      <IconStyle>
        <Icon>
          <href>http://maps.google.com/mapfiles/kml/paddle/red-circle.png</href>
        </Icon>
      </IconStyle>
    </Style>
    <Placemark>
      <name>Sydney Parade (DART)</name>
      <styleUrl>#pointStyle</styleUrl>
      <Point>
        <coordinates>-6.211644,53.320956,0</coordinates>
      </Point>
    </Placemark>
    <Placemark>
      <name>Raheny (DART)</name>
      <styleUrl>#pointStyle</styleUrl>
      <Point>
        <coordinates>-6.175818,53.381423,0</coordinates>
      </Point>
    </Placemark>
    <Placemark>
      <name>Killester (DART)</name>
      <styleUrl>#pointStyle</styleUrl>
      <Point>
        <coordinates>-6.204046,53.372884,0</coordinates>
      </Point>
    </Placemark>
    <Placemark>
      <name>Shankill (DART)</name>
      <styleUrl>#pointStyle</styleUrl>
      <Point>
        <coordinates>-6.117228,53.236522,0</coordinates>
      </Point>
    </Placemark>
    <Placemark>
      <name>Booterstown (DART)</name>
      <styleUrl>#pointStyle</styleUrl>
      <Point>
        <coordinates>-6.19498,53.309921,0</coordinates>
      </Point>
    </Placemark>
    <Placemark>
      <name>Salthill and Monkstown (DART)</name>
      <styleUrl>#pointStyle</styleUrl>
      <Point>
        <coordinates>-6.15233,53.29526,0</coordinates>
      </Point>
    </Placemark>
    <Placemark>
      <name>Dun Laoghaire (Mallin) (DART)</name>
      <styleUrl>#pointStyle</styleUrl>
      <Point>
        <coordinates>-6.134575,53.294776,0</coordinates>
      </Point>
    </Placemark>
    <Placemark>
      <name>Tara Street (DART)</name>
      <styleUrl>#pointStyle</styleUrl>
      <Point>
        <coordinates>-6.254359,53.347264,0</coordinates>
      </Point>
    </Placemark>
    <Placemark>
      <name>Clontarf Road (DART)</name>
      <styleUrl>#pointStyle</styleUrl>
      <Point>
        <coordinates>-6.226784,53.363077,0</coordinates>
      </Point>
    </Placemark>
    <Placemark>
      <name>Harmonstown (DART)</name>
      <styleUrl>#pointStyle</styleUrl>
      <Point>
        <coordinates>-6.19131,53.378643,0</coordinates>
      </Point>
    </Placemark>
    <Placemark>
      <name>Dublin Pearse (DART)</name>
      <styleUrl>#pointStyle</styleUrl>
      <Point>
        <coordinates>-6.248048,53.343252,0</coordinates>
      </Point>
    </Placemark>
    <Placemark>
      <name>Killiney (DART)</name>
      <styleUrl>#pointStyle</styleUrl>
      <Point>
        <coordinates>-6.113167,53.25571,0</coordinates>
      </Point>
    </Placemark>
    <Placemark>
      <name>Grand Canal Dock (DART)</name>
      <styleUrl>#pointStyle</styleUrl>
      <Point>
        <coordinates>-6.237351,53.339446,0</coordinates>
      </Point>
    </Placemark>
    <Placemark>
      <name>Howth (DART)</name>
      <styleUrl>#pointStyle</styleUrl>
      <Point>
        <coordinates>-6.074211,53.388893,0</coordinates>
      </Point>
    </Placemark>
    <Placemark>
      <name>Sutton (DART)</name>
      <styleUrl>#pointStyle</styleUrl>
      <Point>
        <coordinates>-6.115952,53.391905,0</coordinates>
      </Point>
    </Placemark>
    <Placemark>
      <name>Bray (Daly) (DART)</name>
      <styleUrl>#pointStyle</styleUrl>
      <Point>
        <coordinates>-6.100194,53.203712,0</coordinates>
      </Point>
    </Placemark>
    <Placemark>
      <name>Sandycove and Glasthule (DART)</name>
      <styleUrl>#pointStyle</styleUrl>
      <Point>
        <coordinates>-6.126937,53.288125,0</coordinates>
      </Point>
    </Placemark>
    <Placemark>
      <name>Dublin Connolly (DART)</name>
      <styleUrl>#pointStyle</styleUrl>
      <Point>
        <coordinates>-6.247731,53.352586,0</coordinates>
      </Point>
    </Placemark>
    <Placemark>
      <name>Sandymount (DART)</name>
      <styleUrl>#pointStyle</styleUrl>
      <Point>
        <coordinates>-6.220843,53.32784,0</coordinates>
      </Point>
    </Placemark>
    <Placemark>
      <name>Lansdowne Road (DART)</name>
      <styleUrl>#pointStyle</styleUrl>
      <Point>
        <coordinates>-6.229191,53.333963,0</coordinates>
      </Point>
    </Placemark>
    <Placemark>
      <name>Kilbarrack (DART)</name>
      <styleUrl>#pointStyle</styleUrl>
      <Point>
        <coordinates>-6.16089,53.387472,0</coordinates>
      </Point>
    </Placemark>
    <Placemark>
      <name>Howth Junction and Donaghmede (DART)</name>
      <styleUrl>#pointStyle</styleUrl>
      <Point>
        <coordinates>-6.155434,53.391496,0</coordinates>
      </Point>
    </Placemark>
    <Placemark>
      <name>Bayside (DART)</name>
      <styleUrl>#pointStyle</styleUrl>
      <Point>
        <coordinates>-6.136925,53.391242,0</coordinates>
      </Point>
    </Placemark>
    <Placemark>
      <name>Dalkey (DART)</name>
      <styleUrl>#pointStyle</styleUrl>
      <Point>
        <coordinates>-6.103358,53.275854,0</coordinates>
      </Point>
    </Placemark>
    <Placemark>
      <name>Seapoint (DART)</name>
      <styleUrl>#pointStyle</styleUrl>
      <Point>
        <coordinates>-6.16512,53.299128,0</coordinates>
      </Point>
    </Placemark>
    <Placemark>
      <name>Blackrock (DART)</name>
      <styleUrl>#pointStyle</styleUrl>
      <Point>
        <coordinates>-6.178846,53.302716,0</coordinates>
      </Point>
    </Placemark>
    <Placemark>
      <name>Glenageary (DART)</name>
      <styleUrl>#pointStyle</styleUrl>
      <Point>
        <coordinates>-6.122893,53.281196,0</coordinates>
      </Point>
    </Placemark>
  </Document>
</kml>