<?xml version="1.0" encoding="UTF-8"?>
<kml xmlns="http://www.opengis.net/kml/2.2">
  <Document>
    <name>Dublin Villages</name>
    <description>Dublin Villages</description>
    
    <!-- Style for the route -->
    <Style id="routeStyle">
      <LineStyle>
        <color>ff0000ff</color>
        <width>4</width>
      </LineStyle>
    </Style>
    
    <!-- Style for the points -->
    <Style id="pointStyle">
      <IconStyle>
        <scale>1.0</scale>
        <Icon>
          <href>http://maps.google.com/mapfiles/kml/paddle/red-blank.png</href>
        </Icon>
      </IconStyle>
      <LabelStyle>
        <scale>0.8</scale>
      </LabelStyle>
    </Style>

    <!-- Style for the circles -->
    <Style id="circleStyle">
      <LineStyle>
        <color>7f0000ff</color>
        <width>2</width>
      </LineStyle>
      <PolyStyle>
        <color>1f0000ff</color>
        <fill>1</fill>
        <outline>1</outline>
      </PolyStyle>
    </Style>
    
    <!-- Folder for points and circles -->
    <Folder>
      <name>Villages</name>
      <Placemark>
        <name>1. Rathmines</name>
        <description>ID: dublin/rathmines</description>
        <styleUrl>#pointStyle</styleUrl>
        <Point>
          <coordinates>-6.265480063026553,53.32352423360366,0</coordinates>
        </Point>
      </Placemark>
        <Placemark>
          <name>Rathmines 400m Circle</name>
          <styleUrl>#circleStyle</styleUrl>
          <Polygon>
            <outerBoundaryIs>
              <LinearRing>
                <coordinates>-6.265480063026553,53.32712152002734,0 -6.264889693481188,53.32710419665304,0 -6.26430501094395,53.327052393405644,0 -6.263731647599125,53.326966609303064,0 -6.263175126513411,53.326847670694896,0 -6.262640808397165,53.3266967232966,0 -6.2621338399352515,53.326515221145044,0 -6.261659104186687,53.32630491258278,0 -6.2612211735321655,53.326067823405886,0 -6.260824265623551,53.325806237338796,0 -6.260472202760202,53.325522674024306,0 -6.260168375083568,53.32521986474181,0 -6.259915707944282,53.324900726087705,0 -6.259716633755443,53.32456833187256,0 -6.259573068602109,53.32422588350584,0 -6.25948639383096,53.32387667915424,0 -6.259457442795763,53.323524081970724,0 -6.259486492884445,53.32317148770078,0 -6.259573262902511,53.32282229197797,0 -6.259716915835904,53.32247985762363,0 -6.2599160669646094,53.32214748226599,0 -6.260168797246811,53.32182836658983,0 -6.260472671842868,53.321525583522664,0 -6.260824763599052,53.32124204865348,0 -6.261221681263584,53.320980492168495,0 -6.261659602162188,53.32074343257373,0 -6.2621343090179185,53.320533152456754,0 -6.262641230560413,53.320351676520545,0 -6.263175485533742,53.32020075210017,0 -6.26373192967959,53.32008183234951,0 -6.264305205244353,53.31999606225931,0 -6.2648897925346745,53.319944267640714,0 -6.265480063026553,53.31992694717999,0 -6.266070333518431,53.319944267640714,0 -6.266654920808753,53.31999606225931,0 -6.267228196373517,53.32008183234951,0 -6.267784640519364,53.32020075210017,0 -6.268318895492692,53.320351676520545,0 -6.268825817035188,53.320533152456754,0 -6.269300523890917,53.32074343257373,0 -6.269738444789522,53.320980492168495,0 -6.270135362454053,53.32124204865348,0 -6.2704874542102385,53.321525583522664,0 -6.270791328806295,53.32182836658983,0 -6.271044059088497,53.32214748226599,0 -6.271243210217203,53.32247985762363,0 -6.271386863150596,53.32282229197797,0 -6.27147363316866,53.32317148770078,0 -6.271502683257342,53.323524081970724,0 -6.271473732222145,53.32387667915424,0 -6.271387057450996,53.32422588350584,0 -6.271243492297662,53.32456833187256,0 -6.271044418108824,53.324900726087705,0 -6.270791750969538,53.32521986474181,0 -6.270487923292903,53.325522674024306,0 -6.270135860429554,53.325806237338796,0 -6.26973895252094,53.326067823405886,0 -6.26930102186642,53.32630491258278,0 -6.2688262861178545,53.326515221145044,0 -6.26831931765594,53.3266967232966,0 -6.267784999539695,53.326847670694896,0 -6.267228478453982,53.326966609303064,0 -6.266655115109156,53.327052393405644,0 -6.266070432571917,53.32710419665304,0 -6.265480063026553,53.32712152002734,0 </coordinates>
              </LinearRing>
            </outerBoundaryIs>
          </Polygon>
        </Placemark>
      <Placemark>
        <name>2. Liberties</name>
        <description>ID: dublin/liberties</description>
        <styleUrl>#pointStyle</styleUrl>
        <Point>
          <coordinates>-6.277696417819648,53.34261331671519,0</coordinates>
        </Point>
      </Placemark>
        <Placemark>
          <name>Liberties 400m Circle</name>
          <styleUrl>#circleStyle</styleUrl>
          <Polygon>
            <outerBoundaryIs>
              <LinearRing>
                <coordinates>-6.277696417819648,53.346210603138864,0 -6.2771057839802,53.346193279763554,0 -6.276520839695807,53.34614147651317,0 -6.275947219673092,53.3460556924057,0 -6.275390449452148,53.34593675379097,0 -6.274855892143911,53.34578580638466,0 -6.274348696737828,53.34560430422401,0 -6.273873748479291,53.34539399565185,0 -6.2734356217960565,53.34515690646465,0 -6.273038536228009,53.34489532038726,0 -6.272686315785306,53.344611757062886,0 -6.272382352126494,53.344308947771275,0 -6.272129571911016,53.34398980910918,0 -6.271930408639918,53.34365741488747,0 -6.2717867792548985,53.34331496651587,0 -6.271700065719778,53.34296576216126,0 -6.271671101760075,53.34261316497673,0 -6.271700164886553,53.34226057070783,0 -6.271786973777525,53.34191137498801,0 -6.271930691042999,53.34156894063856,0 -6.272129931341963,53.34123656528747,0 -6.272382774772574,53.3409174496193,0 -6.272686785404471,53.34061466656125,0 -6.273039034773056,53.340331131701966,0 -6.273436130108179,53.340069575227275,0 -6.273874247024341,53.3398325156428,0 -6.2743491663569975,53.339622235535714,0 -6.2748563147899965,53.33944075960863,0 -6.2753908088831,53.339289835196254,0 -6.275947502076178,53.33917091545215,0 -6.276521034218436,53.33908514536682,0 -6.277105883146976,53.33903335075123,0 -6.277696417819648,53.339016030291525,0 -6.278286952492319,53.33903335075123,0 -6.278871801420861,53.33908514536682,0 -6.279445333563118,53.33917091545215,0 -6.280002026756196,53.339289835196254,0 -6.2805365208493,53.33944075960863,0 -6.281043669282299,53.339622235535714,0 -6.281518588614955,53.3398325156428,0 -6.281956705531116,53.340069575227275,0 -6.28235380086624,53.340331131701966,0 -6.282706050234825,53.34061466656125,0 -6.283010060866722,53.3409174496193,0 -6.283262904297333,53.34123656528747,0 -6.283462144596296,53.34156894063856,0 -6.283605861861772,53.34191137498801,0 -6.283692670752743,53.34226057070783,0 -6.283721733879222,53.34261316497673,0 -6.283692769919519,53.34296576216126,0 -6.283606056384398,53.34331496651587,0 -6.283462426999379,53.34365741488747,0 -6.28326326372828,53.34398980910918,0 -6.283010483512803,53.344308947771275,0 -6.282706519853991,53.344611757062886,0 -6.282354299411287,53.34489532038726,0 -6.28195721384324,53.34515690646465,0 -6.281519087160006,53.34539399565185,0 -6.281044138901468,53.34560430422401,0 -6.2805369434953855,53.34578580638466,0 -6.280002386187148,53.34593675379097,0 -6.279445615966205,53.3460556924057,0 -6.27887199594349,53.34614147651317,0 -6.278287051659097,53.346193279763554,0 -6.277696417819648,53.346210603138864,0 </coordinates>
              </LinearRing>
            </outerBoundaryIs>
          </Polygon>
        </Placemark>
      <Placemark>
        <name>3. Sandymount</name>
        <description>ID: dublin/sandymount</description>
        <styleUrl>#pointStyle</styleUrl>
        <Point>
          <coordinates>-6.21567335058748,53.33258229914048,0</coordinates>
        </Point>
      </Placemark>
        <Placemark>
          <name>Sandymount 400m Circle</name>
          <styleUrl>#circleStyle</styleUrl>
          <Polygon>
            <outerBoundaryIs>
              <LinearRing>
                <coordinates>-6.21567335058748,53.336179585564174,0 -6.215082855668147,53.33616226218938,0 -6.214498048965135,53.33611045894057,0 -6.213924563859258,53.33602467483567,0 -6.213367924590526,53.3359057362244,0 -6.212833493008066,53.33575478882229,0 -6.212326416889973,53.33557328666643,0 -6.211851580332421,53.33536297809946,0 -6.211413556687177,53.33512588891768,0 -6.211016564501729,53.334864302845695,0 -6.210664426886992,53.33458073952653,0 -6.210360534704085,53.33427793023971,0 -6.210107813924509,53.33395879158182,0 -6.209908697477451,53.33362639736355,0 -6.20976510185434,53.33328394899451,0 -6.209678408694607,53.33293474464149,0 -6.209649451528371,53.332582147457494,0 -6.209678507801829,53.33222955318806,0 -6.209765296260147,53.33188035746665,0 -6.209908979710939,53.33153792311463,0 -6.210108173139602,53.33120554776009,0 -6.210360957096351,53.330886432087716,0 -6.210664896224132,53.33058364902489,0 -6.211017062747379,53.3303001141604,0 -6.211414064694036,53.33003855768031,0 -6.211852078578072,53.32980149809042,0 -6.212326886227116,53.329591217978134,0 -6.212833915400337,53.329409742046245,0 -6.213368283805625,53.329258817629665,0 -6.21392484609275,53.32913989788213,0 -6.2144982433709455,53.32905412779423,0 -6.21508295477537,53.329002333177066,0 -6.21567335058748,53.32898501271682,0 -6.21626374639959,53.329002333177066,0 -6.216848457804013,53.32905412779423,0 -6.2174218550822085,53.32913989788213,0 -6.217978417369333,53.329258817629665,0 -6.218512785774624,53.329409742046245,0 -6.219019814947844,53.329591217978134,0 -6.219494622596886,53.32980149809042,0 -6.219932636480922,53.33003855768031,0 -6.220329638427581,53.3303001141604,0 -6.220681804950828,53.33058364902489,0 -6.220985744078608,53.330886432087716,0 -6.221238528035356,53.33120554776009,0 -6.22143772146402,53.33153792311463,0 -6.221581404914812,53.33188035746665,0 -6.22166819337313,53.33222955318806,0 -6.2216972496465885,53.332582147457494,0 -6.221668292480352,53.33293474464149,0 -6.221581599320619,53.33328394899451,0 -6.221438003697507,53.33362639736355,0 -6.22123888725045,53.33395879158182,0 -6.220986166470873,53.33427793023971,0 -6.2206822742879675,53.33458073952653,0 -6.220330136673231,53.334864302845695,0 -6.219933144487783,53.33512588891768,0 -6.219495120842538,53.33536297809946,0 -6.219020284284986,53.33557328666643,0 -6.218513208166892,53.33575478882229,0 -6.217978776584433,53.3359057362244,0 -6.2174221373157,53.33602467483567,0 -6.2168486522098245,53.33611045894057,0 -6.216263845506812,53.33616226218938,0 -6.21567335058748,53.336179585564174,0 </coordinates>
              </LinearRing>
            </outerBoundaryIs>
          </Polygon>
        </Placemark>
      <Placemark>
        <name>4. Stoneybatter</name>
        <description>ID: dublin/stoneybatter</description>
        <styleUrl>#pointStyle</styleUrl>
        <Point>
          <coordinates>-6.283952270563642,53.3523705510358,0</coordinates>
        </Point>
      </Placemark>
        <Placemark>
          <name>Stoneybatter 400m Circle</name>
          <styleUrl>#circleStyle</styleUrl>
          <Polygon>
            <outerBoundaryIs>
              <LinearRing>
                <coordinates>-6.283952270563642,53.355967837459474,0 -6.283361501515612,53.35595051408364,0 -6.282776423325606,53.35589871083171,0 -6.282202671990633,53.355812926721754,0 -6.281645774316134,53.35569398810368,0 -6.281111094641142,53.355543040693284,0 -6.280603783134095,53.35536153852796,0 -6.280128726158895,53.355151229950735,0 -6.279690499190546,53.35491414075828,0 -6.279293322734811,53.35465255467562,0 -6.278941021677065,53.354368991346185,0 -6.278636988451976,53.354066182049905,0 -6.278384150388558,53.353747043383734,0 -6.278184941544423,53.35341464915865,0 -6.278041279299521,53.35307220078457,0 -6.277954545933391,53.35272299642843,0 -6.277925575361728,53.352370399243384,0 -6.2779546451581405,53.352017804974984,0 -6.278041473935869,53.351668609256706,0 -6.278185224112604,53.351326174909744,0 -6.278384510029633,53.350993799562005,0 -6.278637411345144,53.35067468389793,0 -6.278941491570777,53.35037190084455,0 -6.279293821571316,53.35008836599033,0 -6.279691007799836,53.3498268095209,0 -6.280129224995402,53.34958974994168,0 -6.280604253027811,53.34937946983967,0 -6.281111517534314,53.349197993917244,0 -6.281646133957215,53.34904706950895,0 -6.282202954558818,53.34892814976821,0 -6.282776617961957,53.34884237968538,0 -6.283361600740363,53.34879058507132,0 -6.283952270563642,53.348773264612134,0 -6.28454294038692,53.34879058507132,0 -6.285127923165327,53.34884237968538,0 -6.285701586568467,53.34892814976821,0 -6.2862584071700685,53.34904706950895,0 -6.2867930235929705,53.349197993917244,0 -6.287300288099473,53.34937946983967,0 -6.2877753161318815,53.34958974994168,0 -6.288213533327448,53.3498268095209,0 -6.288610719555968,53.35008836599033,0 -6.288963049556506,53.35037190084455,0 -6.28926712978214,53.35067468389793,0 -6.28952003109765,53.350993799562005,0 -6.289719317014681,53.351326174909744,0 -6.289863067191414,53.351668609256706,0 -6.289949895969143,53.352017804974984,0 -6.289978965765556,53.352370399243384,0 -6.2899499951938935,53.35272299642843,0 -6.289863261827762,53.35307220078457,0 -6.2897195995828605,53.35341464915865,0 -6.289520390738727,53.353747043383734,0 -6.289267552675308,53.354066182049905,0 -6.288963519450218,53.354368991346185,0 -6.288611218392473,53.35465255467562,0 -6.2882140419367385,53.35491414075828,0 -6.287775814968388,53.355151229950735,0 -6.287300757993188,53.35536153852796,0 -6.286793446486141,53.355543040693284,0 -6.286258766811149,53.35569398810368,0 -6.285701869136651,53.355812926721754,0 -6.285128117801678,53.35589871083171,0 -6.2845430396116715,53.35595051408364,0 -6.283952270563642,53.355967837459474,0 </coordinates>
              </LinearRing>
            </outerBoundaryIs>
          </Polygon>
        </Placemark>
      <Placemark>
        <name>5. Kilmainham</name>
        <description>ID: dublin/kilmainham</description>
        <styleUrl>#pointStyle</styleUrl>
        <Point>
          <coordinates>-6.3077832095956525,53.340612480097455,0</coordinates>
        </Point>
      </Placemark>
        <Placemark>
          <name>Kilmainham 400m Circle</name>
          <styleUrl>#circleStyle</styleUrl>
          <Polygon>
            <outerBoundaryIs>
              <LinearRing>
                <coordinates>-6.3077832095956525,53.34420976652113,0 -6.307192603472565,53.34419244314592,0 -6.306607686637437,53.344140639895855,0 -6.306034093532378,53.3440548557889,0 -6.305477349438094,53.34393591717486,0 -6.304942817213775,53.34378496976939,0 -6.304435645607191,53.34360346760968,0 -6.303960719634445,53.34339315903856,0 -6.303522613508622,53.34315606985245,0 -6.303125546571611,53.34289448377614,0 -6.3027733426541594,53.34261092045279,0 -6.302469393255714,53.34230811116214,0 -6.302216624898467,53.34198897250089,0 -6.3020174709693695,53.341656578279874,0 -6.3018738483202865,53.34131412990878,0 -6.301787138850321,53.34096492555449,0 -6.301758176246001,53.34061232837007,0 -6.301787238005213,53.340259734101046,0 -6.3018740428196045,53.339910538380906,0 -6.302017753338613,53.33956810403094,0 -6.302216984286345,53.339235728679164,0 -6.302469815851151,53.338916613010156,0 -6.302773812217051,53.33861382995117,0 -6.30312604505692,53.338330295090856,0 -6.303523121759836,53.33806873861508,0 -6.303961218119756,53.33783167902952,0 -6.304436115170087,53.3376213989214,0 -6.3049432398092184,53.337439922993354,0 -6.305477708825976,53.337288998580135,0 -6.306034375901625,53.33717007883534,0 -6.306607881136758,53.3370843087495,0 -6.307192702627459,53.3370325141336,0 -6.3077832095956525,53.337015193673786,0 -6.308373716563846,53.3370325141336,0 -6.308958538054547,53.3370843087495,0 -6.30953204328968,53.33717007883534,0 -6.310088710365329,53.337288998580135,0 -6.3106231793820875,53.337439922993354,0 -6.31113030402122,53.3376213989214,0 -6.31160520107155,53.33783167902952,0 -6.31204329743147,53.33806873861508,0 -6.312440374134385,53.338330295090856,0 -6.312792606974254,53.33861382995117,0 -6.3130966033401545,53.338916613010156,0 -6.3133494349049615,53.339235728679164,0 -6.313548665852692,53.33956810403094,0 -6.3136923763717006,53.339910538380906,0 -6.313779181186093,53.340259734101046,0 -6.313808242945305,53.34061232837007,0 -6.313779280340985,53.34096492555449,0 -6.3136925708710185,53.34131412990878,0 -6.3135489482219365,53.341656578279874,0 -6.313349794292838,53.34198897250089,0 -6.313097025935592,53.34230811116214,0 -6.3127930765371465,53.34261092045279,0 -6.312440872619694,53.34289448377614,0 -6.312043805682683,53.34315606985245,0 -6.311605699556861,53.34339315903856,0 -6.311130773584115,53.34360346760968,0 -6.31062360197753,53.34378496976939,0 -6.310089069753212,53.34393591717486,0 -6.309532325658928,53.3440548557889,0 -6.308958732553868,53.344140639895855,0 -6.308373815718741,53.34419244314592,0 -6.3077832095956525,53.34420976652113,0 </coordinates>
              </LinearRing>
            </outerBoundaryIs>
          </Polygon>
        </Placemark>
      <Placemark>
        <name>6. Drumcondra</name>
        <description>ID: dublin/drumcondra</description>
        <styleUrl>#pointStyle</styleUrl>
        <Point>
          <coordinates>-6.25858473976338,53.3631165720114,0</coordinates>
        </Point>
      </Placemark>
        <Placemark>
          <name>Drumcondra 400m Circle</name>
          <styleUrl>#circleStyle</styleUrl>
          <Polygon>
            <outerBoundaryIs>
              <LinearRing>
                <coordinates>-6.258584739763381,53.36671385843507,0 -6.257993821713406,53.36669653505867,0 -6.257408595957346,53.36664473180505,0 -6.256834699914237,53.36655894769235,0 -6.256277661783954,53.36644000907057,0 -6.255742847258909,53.36628906165567,0 -6.25523540780681,53.3661075594852,0 -6.254760231024173,53.3658972509024,0 -6.25432189354008,53.36566016170415,0 -6.2539246169247145,53.365398575615686,0 -6.253572227027953,53.365115012280675,0 -6.25326811713976,53.36481220297925,0 -6.253015215327023,53.364493064308554,0 -6.252815956260708,53.3641606700798,0 -6.2526722578037175,53.36381822170297,0 -6.252585502583513,53.36346901734513,0 -6.252556524725375,53.363116420159514,0 -6.252585601872165,53.36276382589169,0 -6.252672452565413,53.36241463017511,0 -6.252816239010867,53.3620721958309,0 -6.253015575199714,53.36173982048687,0 -6.253268540305278,53.36142070482728,0 -6.253572697224284,53.36111792177904,0 -6.253925116082479,53.3608343869304,0 -6.254322402476922,53.36057283046678,0 -6.254760730181938,53.36033577089336,0 -6.255235878003144,53.36012549079692,0 -6.255743270424431,53.35994401487964,0 -6.256278021656648,53.359793090475854,0 -6.256834982664399,53.3596741707388,0 -6.257408790719045,53.359588400658716,0 -6.25799392100206,53.35953660604635,0 -6.258584739763381,53.35951928558772,0 -6.259175558524701,53.35953660604635,0 -6.259760688807716,53.359588400658716,0 -6.260334496862361,53.3596741707388,0 -6.2608914578701125,53.359793090475854,0 -6.26142620910233,53.35994401487964,0 -6.261933601523617,53.36012549079692,0 -6.262408749344822,53.36033577089336,0 -6.262847077049838,53.36057283046678,0 -6.263244363444281,53.3608343869304,0 -6.263596782302478,53.36111792177904,0 -6.263900939221482,53.36142070482728,0 -6.264153904327047,53.36173982048687,0 -6.264353240515894,53.3620721958309,0 -6.264497026961347,53.36241463017511,0 -6.264583877654597,53.36276382589169,0 -6.264612954801386,53.363116420159514,0 -6.264583976943249,53.36346901734513,0 -6.264497221723044,53.36381822170297,0 -6.2643535232660525,53.3641606700798,0 -6.264154264199739,53.364493064308554,0 -6.263901362387,53.36481220297925,0 -6.2635972524988075,53.365115012280675,0 -6.263244862602046,53.365398575615686,0 -6.262847585986682,53.36566016170415,0 -6.262409248502587,53.3658972509024,0 -6.261934071719951,53.3661075594852,0 -6.2614266322678525,53.36628906165567,0 -6.260891817742807,53.36644000907057,0 -6.260334779612524,53.36655894769235,0 -6.259760883569414,53.36664473180505,0 -6.259175657813355,53.36669653505867,0 -6.258584739763381,53.36671385843507,0 </coordinates>
              </LinearRing>
            </outerBoundaryIs>
          </Polygon>
        </Placemark>
      <Placemark>
        <name>7. Donnybrook</name>
        <description>ID: dublin/donnybrook</description>
        <styleUrl>#pointStyle</styleUrl>
        <Point>
          <coordinates>-6.238274459938508,53.32286264337584,0</coordinates>
        </Point>
      </Placemark>
        <Placemark>
          <name>Donnybrook 400m Circle</name>
          <styleUrl>#circleStyle</styleUrl>
          <Polygon>
            <outerBoundaryIs>
              <LinearRing>
                <coordinates>-6.238274459938508,53.32645992979951,0 -6.237684099547642,53.32644260642524,0 -6.237099426076685,53.326390803177965,0 -6.236526071622553,53.32630501907555,0 -6.235969559166272,53.32618608046761,0 -6.235435249335054,53.32603513306958,0 -6.234928288733928,53.32585363091835,0 -6.234453560346189,53.32564332235642,0 -6.234015636481623,53.32540623317989,0 -6.233618734726696,53.325144647113135,0 -6.233266677321511,53.32486108379901,0 -6.232962854354967,53.324558274516825,0 -6.232710191132363,53.32423913586301,0 -6.232511120029115,53.32390674164808,0 -6.232367557100611,53.323564293281535,0 -6.232280883672151,53.32321508893003,0 -6.232251933084629,53.32286249174654,0 -6.232280982721713,53.32250989747658,0 -6.232367751393316,53.32216070175366,0 -6.232511402098404,53.32181826739916,0 -6.23271055013847,53.321485892041274,0 -6.232963276501489,53.32116677636483,0 -6.233267146385596,53.32086399329736,0 -6.233619232682473,53.320580458427834,0 -6.234016144192932,53.32031890194249,0 -6.234454058301967,53.32008184234736,0 -6.234928757798016,53.31987156223005,0 -6.23543567148158,53.31969008629352,0 -6.235969918172384,53.31953916187288,0 -6.236526353691846,53.31942024212198,0 -6.237099620369394,53.31933447203162,0 -6.237684198597207,53.31928267741292,0 -6.238274459938508,53.31926535695216,0 -6.238864721279809,53.31928267741292,0 -6.239449299507623,53.31933447203162,0 -6.2400225661851705,53.31942024212198,0 -6.240579001704632,53.31953916187288,0 -6.241113248395435,53.31969008629352,0 -6.241620162078999,53.31987156223005,0 -6.2420948615750484,53.32008184234736,0 -6.242532775684085,53.32031890194249,0 -6.242929687194541,53.320580458427834,0 -6.243281773491421,53.32086399329736,0 -6.243585643375528,53.32116677636483,0 -6.243838369738546,53.321485892041274,0 -6.244037517778612,53.32181826739916,0 -6.2441811684837,53.32216070175366,0 -6.2442679371553025,53.32250989747658,0 -6.244296986792388,53.32286249174654,0 -6.244268036204865,53.32321508893003,0 -6.244181362776405,53.323564293281535,0 -6.2440377998479,53.32390674164808,0 -6.243838728744653,53.32423913586301,0 -6.2435860655220505,53.324558274516825,0 -6.243282242555504,53.32486108379901,0 -6.242930185150319,53.325144647113135,0 -6.242533283395393,53.32540623317989,0 -6.242095359530828,53.32564332235642,0 -6.241620631143087,53.32585363091835,0 -6.241113670541964,53.32603513306958,0 -6.240579360710743,53.32618608046761,0 -6.240022848254463,53.32630501907555,0 -6.239449493800331,53.326390803177965,0 -6.238864820329374,53.32644260642524,0 -6.238274459938508,53.32645992979951,0 </coordinates>
              </LinearRing>
            </outerBoundaryIs>
          </Polygon>
        </Placemark>
      <Placemark>
        <name>8. UCD</name>
        <description>ID: dublin/ucd</description>
        <styleUrl>#pointStyle</styleUrl>
        <Point>
          <coordinates>-6.22204646274071,53.3077382478846,0</coordinates>
        </Point>
      </Placemark>
        <Placemark>
          <name>UCD 400m Circle</name>
          <styleUrl>#circleStyle</styleUrl>
          <Polygon>
            <outerBoundaryIs>
              <LinearRing>
                <coordinates>-6.22204646274071,53.31133553430828,0 -6.221456311528977,53.311318210934814,0 -6.22087184522135,53.3112664076899,0 -6.22029869391841,53.31118062359135,0 -6.219742378643584,53.31106168498861,0 -6.219208258124111,53.31091073759689,0 -6.218701477141025,53.31072923545289,0 -6.21822691694719,53.31051892689881,0 -6.217789148232214,53.31028183773042,0 -6.217392387088264,53.31002025167181,0 -6.217040454401407,53.30973668836551,0 -6.216736739059814,53.309433879090555,0 -6.216484165332911,53.309114740443064,0 -6.2162851647350434,53.30878234623333,0 -6.216141652643595,53.308439897870635,0 -6.216055009895422,53.30809069352151,0 -6.216026069537191,53.307738096338824,0 -6.216055108855352,53.30738550206805,0 -6.216141846760479,53.30703630634276,0 -6.216285446549081,53.30669387198439,0 -6.216484524014147,53.30636149662133,0 -6.2167371608243265,53.30604238093856,0 -6.217040923041027,53.30573959786387,0 -6.217392884593431,53.3054560629865,0 -6.217789655484083,53.30519450649302,0 -6.2182274144523575,53.30495744688974,0 -6.218701945780648,53.3047471667646,0 -6.219208679888628,53.30456569082086,0 -6.219742737324823,53.30441476639387,0 -6.220298975732453,53.304295846637785,0 -6.2208720393382375,53.304210076543555,0 -6.2214564104889085,53.30415828192248,0 -6.22204646274071,53.30414096146093,0 -6.222636514992513,53.30415828192248,0 -6.223220886143183,53.304210076543555,0 -6.223793949748969,53.304295846637785,0 -6.224350188156599,53.30441476639387,0 -6.2248842455927935,53.30456569082086,0 -6.225390979700774,53.3047471667646,0 -6.225865511029064,53.30495744688974,0 -6.226303269997338,53.30519450649302,0 -6.226700040887991,53.3054560629865,0 -6.227052002440395,53.30573959786387,0 -6.227355764657094,53.30604238093856,0 -6.227608401467275,53.30636149662133,0 -6.22780747893234,53.30669387198439,0 -6.227951078720942,53.30703630634276,0 -6.22803781662607,53.30738550206805,0 -6.22806685594423,53.307738096338824,0 -6.2280379155859995,53.30809069352151,0 -6.227951272837828,53.308439897870635,0 -6.227807760746377,53.30878234623333,0 -6.22760876014851,53.309114740443064,0 -6.227356186421607,53.309433879090555,0 -6.227052471080015,53.30973668836551,0 -6.226700538393158,53.31002025167181,0 -6.226303777249207,53.31028183773042,0 -6.225866008534233,53.31051892689881,0 -6.225391448340396,53.31072923545289,0 -6.224884667357311,53.31091073759689,0 -6.224350546837838,53.31106168498861,0 -6.223794231563011,53.31118062359135,0 -6.223221080260071,53.3112664076899,0 -6.222636613952445,53.311318210934814,0 -6.22204646274071,53.31133553430828,0 </coordinates>
              </LinearRing>
            </outerBoundaryIs>
          </Polygon>
        </Placemark>
      <Placemark>
        <name>9. DCU</name>
        <description>ID: dublin/dcu</description>
        <styleUrl>#pointStyle</styleUrl>
        <Point>
          <coordinates>-6.258892378349267,53.385412447033374,0</coordinates>
        </Point>
      </Placemark>
        <Placemark>
          <name>DCU 400m Circle</name>
          <styleUrl>#circleStyle</styleUrl>
          <Polygon>
            <outerBoundaryIs>
              <LinearRing>
                <coordinates>-6.258892378349267,53.38900973345706,0 -6.258301150843388,53.38899241007945,0 -6.257715618613566,53.38894060682234,0 -6.257141422032185,53.38885482270392,0 -6.256584092195163,53.38873588407447,0 -6.256048997605694,53.388584936650204,0 -6.255541292429875,53.38840343446907,0 -6.255065866824196,53.38819312587467,0 -6.254627299814595,53.387956036664384,0 -6.254229815181904,53.38769445056388,0 -6.253877240779126,53.387410887217285,0 -6.253572971672564,53.38710807790519,0 -6.253319937461558,53.386788939225156,0 -6.253120574090922,53.38645654498871,0 -6.252976800426581,53.38611409660618,0 -6.252889999818592,53.38576489224482,0 -6.252861006827505,53.38541229505803,0 -6.252890099240005,53.385059700791395,0 -6.252976995448699,53.384710505078324,0 -6.2531208572191535,53.38436807073982,0 -6.253320297815442,53.38403569540346,0 -6.253573395403906,53.38371657975324,0 -6.253877711604168,53.383413796715686,0 -6.254230315007104,53.38313026187861,0 -6.254627809431951,53.38286870542703,0 -6.255066366649397,53.38263164586566,0 -6.255541763254921,53.3824213657808,0 -6.256049421337041,53.382239889874185,0 -6.256584452549053,53.38208896547974,0 -6.25714170516042,53.38197004575037,0 -6.257715813635686,53.381884275676,0 -6.258301250264803,53.38183248106713,0 -6.258892378349267,53.3818151606097,0 -6.25948350643373,53.38183248106713,0 -6.260068943062847,53.381884275676,0 -6.260643051538114,53.38197004575037,0 -6.261200304149481,53.38208896547974,0 -6.261735335361493,53.382239889874185,0 -6.262242993443612,53.3824213657808,0 -6.262718390049136,53.38263164586566,0 -6.263156947266583,53.38286870542703,0 -6.26355444169143,53.38313026187861,0 -6.263907045094367,53.383413796715686,0 -6.264211361294627,53.38371657975324,0 -6.264464458883091,53.38403569540346,0 -6.26466389947938,53.38436807073982,0 -6.264807761249834,53.384710505078324,0 -6.264894657458528,53.385059700791395,0 -6.264923749871028,53.38541229505803,0 -6.264894756879941,53.38576489224482,0 -6.264807956271952,53.38611409660618,0 -6.2646641826076115,53.38645654498871,0 -6.264464819236977,53.386788939225156,0 -6.264211785025969,53.38710807790519,0 -6.263907515919407,53.387410887217285,0 -6.26355494151663,53.38769445056388,0 -6.263157456883938,53.387956036664384,0 -6.262718889874337,53.38819312587467,0 -6.262243464268658,53.38840343446907,0 -6.26173575909284,53.388584936650204,0 -6.26120066450337,53.38873588407447,0 -6.26064333466635,53.38885482270392,0 -6.260069138084968,53.38894060682234,0 -6.259483605855145,53.38899241007945,0 -6.258892378349267,53.38900973345706,0 </coordinates>
              </LinearRing>
            </outerBoundaryIs>
          </Polygon>
        </Placemark>
      <Placemark>
        <name>10. Rathfarnham</name>
        <description>ID: dublin/rathfarnham</description>
        <styleUrl>#pointStyle</styleUrl>
        <Point>
          <coordinates>-6.285507356244741,53.29871237527471,0</coordinates>
        </Point>
      </Placemark>
        <Placemark>
          <name>Rathfarnham 400m Circle</name>
          <styleUrl>#circleStyle</styleUrl>
          <Polygon>
            <outerBoundaryIs>
              <LinearRing>
                <coordinates>-6.285507356244741,53.30230966169839,0 -6.284917329775846,53.3022923383254,0 -6.284332987008946,53.302240535081914,0 -6.283759956854118,53.302154750985665,0 -6.28320375916738,53.30203581238602,0 -6.282669751542939,53.30188486499809,0 -6.2821630776741,53.3017033628584,0 -6.281688617781787,53.30149305430898,0 -6.281250941589433,53.30125596514545,0 -6.28085426429808,53.300994379091705,0 -6.280502405986327,53.300710815790076,0 -6.280198754826295,53.300408006519426,0 -6.279946234469675,53.30008886787571,0 -6.279747275917313,53.29975647366906,0 -6.279603794142274,53.29941402530868,0 -6.279517169690132,53.299064820960965,0 -6.279488235432092,53.29871222377877,0 -6.279517268596624,53.298359629507516,0 -6.279603988154337,53.29801043378079,0 -6.279747557579172,53.297667999420135,0 -6.279946592957222,53.29733562405396,0 -6.280199176363056,53.29701650836741,0 -6.280502874372881,53.29671372528842,0 -6.280854761534593,53.296430190406376,0 -6.281251448567387,53.29616863390804,0 -6.281689115018304,53.2959315742999,0 -6.282163546060658,53.295721294170086,0 -6.282670173079706,53.295539818222025,0 -6.283204117654932,53.29538889379128,0 -6.28376023851598,53.295269974032095,0 -6.284333181021012,53.29518420393558,0 -6.28491742868234,53.295132409313084,0 -6.285507356244741,53.29511508885105,0 -6.286097283807143,53.295132409313084,0 -6.286681531468472,53.29518420393558,0 -6.287254473973503,53.295269974032095,0 -6.287810594834551,53.29538889379128,0 -6.288344539409778,53.295539818222025,0 -6.2888511664288265,53.295721294170086,0 -6.289325597471179,53.2959315742999,0 -6.289763263922096,53.29616863390804,0 -6.290159950954889,53.296430190406376,0 -6.290511838116603,53.29671372528842,0 -6.290815536126427,53.29701650836741,0 -6.2910681195322615,53.29733562405396,0 -6.291267154910312,53.297667999420135,0 -6.2914107243351465,53.29801043378079,0 -6.291497443892859,53.298359629507516,0 -6.291526477057391,53.29871222377877,0 -6.291497542799351,53.299064820960965,0 -6.291410918347209,53.29941402530868,0 -6.29126743657217,53.29975647366906,0 -6.291068478019809,53.30008886787571,0 -6.290815957663188,53.300408006519426,0 -6.290512306503157,53.300710815790076,0 -6.290160448191403,53.300994379091705,0 -6.28976377090005,53.30125596514545,0 -6.289326094707696,53.30149305430898,0 -6.288851634815384,53.3017033628584,0 -6.288344960946544,53.30188486499809,0 -6.287810953322103,53.30203581238602,0 -6.287254755635366,53.302154750985665,0 -6.286681725480538,53.302240535081914,0 -6.2860973827136375,53.3022923383254,0 -6.285507356244741,53.30230966169839,0 </coordinates>
              </LinearRing>
            </outerBoundaryIs>
          </Polygon>
        </Placemark>
      <Placemark>
        <name>11. Terenure</name>
        <description>ID: dublin/terenure</description>
        <styleUrl>#pointStyle</styleUrl>
        <Point>
          <coordinates>-6.283480335527292,53.30989629484159,0</coordinates>
        </Point>
      </Placemark>
        <Placemark>
          <name>Terenure 400m Circle</name>
          <styleUrl>#circleStyle</styleUrl>
          <Polygon>
            <outerBoundaryIs>
              <LinearRing>
                <coordinates>-6.283480335527293,53.31349358126526,0 -6.2828901544801035,53.313476257891686,0 -6.282305658624538,53.313424454646444,0 -6.2817324783459165,53.31333867054734,0 -6.281176134946877,53.31321973194385,0 -6.280641987425654,53.31306878455124,0 -6.280135180823447,53.312887282406216,0 -6.279660596639926,53.312676973851,0 -6.27922280579579,53.31243988468145,0 -6.278826024596337,53.31217829862169,0 -6.278474074120764,53.311894735314276,0 -6.278170343428502,53.31159192603829,0 -6.277917756936727,53.31127278738988,0 -6.277718746282595,53.3109403931794,0 -6.2775752269402,53.310597944816166,0 -6.277488579816062,53.3102487404667,0 -6.277459637998815,53.30989614328391,0 -6.2774886787887745,53.30954354901326,0 -6.277575421082158,53.30919435328829,0 -6.277719028133036,53.30885191893048,0 -6.277918115664291,53.30851954356815,0 -6.278170765247494,53.308200427886284,0 -6.278474542820917,53.30789764481261,0 -6.278826522165766,53.307614109936374,0 -6.279223313113181,53.30735255344404,0 -6.279661094209356,53.307115493841934,0 -6.280135649523603,53.306905213717904,0 -6.280642409244653,53.306723737775194,0 -6.281176493674446,53.30657281334911,0 -6.281732760196359,53.306453893593776,0 -6.2823058527665,53.3063681235001,0 -6.282890253452819,53.30631632887936,0 -6.283480335527293,53.30629900841793,0 -6.284070417601767,53.30631632887936,0 -6.284654818288084,53.3063681235001,0 -6.285227910858226,53.306453893593776,0 -6.285784177380139,53.30657281334911,0 -6.286318261809933,53.306723737775194,0 -6.286825021530982,53.306905213717904,0 -6.287299576845228,53.307115493841934,0 -6.287737357941405,53.30735255344404,0 -6.288134148888819,53.307614109936374,0 -6.288486128233669,53.30789764481261,0 -6.28878990580709,53.308200427886284,0 -6.289042555390293,53.30851954356815,0 -6.28924164292155,53.30885191893048,0 -6.289385249972427,53.30919435328829,0 -6.289471992265811,53.30954354901326,0 -6.28950103305577,53.30989614328391,0 -6.289472091238523,53.3102487404667,0 -6.2893854441143855,53.310597944816166,0 -6.289241924771989,53.3109403931794,0 -6.289042914117859,53.31127278738988,0 -6.288790327626082,53.31159192603829,0 -6.288486596933821,53.311894735314276,0 -6.288134646458248,53.31217829862169,0 -6.287737865258796,53.31243988468145,0 -6.28730007441466,53.312676973851,0 -6.286825490231139,53.312887282406216,0 -6.28631868362893,53.31306878455124,0 -6.285784536107709,53.31321973194385,0 -6.2852281927086695,53.31333867054734,0 -6.284655012430048,53.313424454646444,0 -6.284070516574482,53.313476257891686,0 -6.283480335527293,53.31349358126526,0 </coordinates>
              </LinearRing>
            </outerBoundaryIs>
          </Polygon>
        </Placemark>
      <Placemark>
        <name>12. Ballsbridge</name>
        <description>ID: dublin/ballsbridge</description>
        <styleUrl>#pointStyle</styleUrl>
        <Point>
          <coordinates>-6.230542576001011,53.328836227732324,0</coordinates>
        </Point>
      </Placemark>
        <Placemark>
          <name>Ballsbridge 400m Circle</name>
          <styleUrl>#circleStyle</styleUrl>
          <Polygon>
            <outerBoundaryIs>
              <LinearRing>
                <coordinates>-6.230542576001011,53.33243351415601,0 -6.22995213293983,53.332416190781416,0 -6.229367377595226,53.3323643875332,0 -6.228793942853099,53.332278603429245,0 -6.228237352468141,53.33215966481926,0 -6.2277029678184554,53.332008717418724,0 -6.227195936229943,53.331827215264646,0 -6.226721141369786,53.33161690669962,0 -6.226283156188083,53.331379817519874,0 -6.225886198861872,53.3311182314499,0 -6.225534092166383,53.33083466813266,0 -6.225230226665059,53.33053185884764,0 -6.224977528072593,53.33021272019132,0 -6.224778429104707,53.329880325974344,0 -6.22463484608474,53.329537877606256,0 -6.224548160531035,53.32918867325384,0 -6.224519205900767,53.32883607607003,0 -6.224548259616029,53.328483481800376,0 -6.224635040446946,53.3281342860784,0 -6.224778711274895,53.32779185172542,0 -6.224977887207122,53.32745947636959,0 -6.225230648962588,53.32714036069565,0 -6.225534561398257,53.32683757763104,0 -6.225886696995775,53.326554042764606,0 -6.2262836640810075,53.32629248628249,0 -6.2267216395036895,53.32605542669058,0 -6.2271964054618225,53.32584514657636,0 -6.22770339011599,53.32566367064269,0 -6.228237711602674,53.32551274622453,0 -6.228794225023291,53.325393826475704,0 -6.229367571957436,53.32530805638685,0 -6.229952232024826,53.32525626176909,0 -6.230542576001011,53.325238941308655,0 -6.231132919977198,53.32525626176909,0 -6.231717580044587,53.32530805638685,0 -6.232290926978733,53.325393826475704,0 -6.2328474403993495,53.32551274622453,0 -6.233381761886033,53.32566367064269,0 -6.233888746540201,53.32584514657636,0 -6.234363512498333,53.32605542669058,0 -6.2348014879210165,53.32629248628249,0 -6.235198455006249,53.326554042764606,0 -6.235550590603765,53.32683757763104,0 -6.235854503039434,53.32714036069565,0 -6.236107264794901,53.32745947636959,0 -6.236306440727128,53.32779185172542,0 -6.236450111555078,53.3281342860784,0 -6.2365368923859945,53.328483481800376,0 -6.2365659461012575,53.32883607607003,0 -6.236536991470989,53.32918867325384,0 -6.236450305917282,53.329537877606256,0 -6.236306722897316,53.329880325974344,0 -6.2361076239294295,53.33021272019132,0 -6.235854925336965,53.33053185884764,0 -6.2355510598356405,53.33083466813266,0 -6.235198953140151,53.3311182314499,0 -6.234801995813941,53.331379817519874,0 -6.2343640106322376,53.33161690669962,0 -6.233889215772079,53.331827215264646,0 -6.233382184183568,53.332008717418724,0 -6.232847799533881,53.33215966481926,0 -6.232291209148925,53.332278603429245,0 -6.231717774406796,53.3323643875332,0 -6.2311330190621925,53.332416190781416,0 -6.230542576001011,53.33243351415601,0 </coordinates>
              </LinearRing>
            </outerBoundaryIs>
          </Polygon>
        </Placemark>
      <Placemark>
        <name>13. Baggot St</name>
        <description>ID: dublin/baggot-st</description>
        <styleUrl>#pointStyle</styleUrl>
        <Point>
          <coordinates>-6.24511623530001,53.33404853409671,0</coordinates>
        </Point>
      </Placemark>
        <Placemark>
          <name>Baggot St 400m Circle</name>
          <styleUrl>#circleStyle</styleUrl>
          <Polygon>
            <outerBoundaryIs>
              <LinearRing>
                <coordinates>-6.24511623530001,53.337645820520386,0 -6.244525720079916,53.33762849714552,0 -6.243940893271776,53.33757669389648,0 -6.243367388450147,53.3374909097912,0 -6.242810730045025,53.33737197117942,0 -6.242276280089927,53.33722102377671,0 -6.241769186539965,53.33703952162014,0 -6.241294333659256,53.33682921305241,0 -6.2408562949567985,53.33659212386984,0 -6.240459289125106,53.33633053779707,0 -6.240107139406501,53.33604697447714,0 -6.239803236778632,53.335744165189624,0 -6.239550507313531,53.33542502653111,0 -6.239351384023953,53.335092632312346,0 -6.2392077834671245,53.33475018394294,0 -6.239121087329883,53.33440097958969,0 -6.2390921291709,53.33404838240561,0 -6.239121186445806,53.33369578813623,0 -6.239207977890001,53.333346592415076,0 -6.239351666282222,53.33300415806342,0 -6.239550866560165,53.332671782709404,0 -6.239803659207984,53.332352667037625,0 -6.24010760878485,53.3320498839755,0 -6.240459787414504,53.33176634911178,0 -6.240856803008263,53.331504792632465,0 -6.241294831948656,53.33126773304336,0 -6.2417696559183184,53.331057452931844,0 -6.242276702519284,53.330875977000666,0 -6.2428110892916635,53.330725052584704,0 -6.2433676707084205,53.33060613283766,0 -6.243941087694656,53.33052036275014,0 -6.24452581919584,53.330468568133206,0 -6.24511623530001,53.33045124767303,0 -6.245706651404179,53.330468568133206,0 -6.246291382905364,53.33052036275014,0 -6.246864799891599,53.33060613283766,0 -6.247421381308357,53.330725052584704,0 -6.247955768080736,53.330875977000666,0 -6.2484628146817025,53.331057452931844,0 -6.248937638651364,53.33126773304336,0 -6.249375667591756,53.331504792632465,0 -6.249772683185516,53.33176634911178,0 -6.250124861815171,53.3320498839755,0 -6.2504288113920365,53.332352667037625,0 -6.250681604039856,53.332671782709404,0 -6.250880804317799,53.33300415806342,0 -6.251024492710019,53.333346592415076,0 -6.251111284154215,53.33369578813623,0 -6.251140341429121,53.33404838240561,0 -6.251111383270137,53.33440097958969,0 -6.2510246871328965,53.33475018394294,0 -6.250881086576068,53.335092632312346,0 -6.250681963286489,53.33542502653111,0 -6.2504292338213885,53.335744165189624,0 -6.25012533119352,53.33604697447714,0 -6.249773181474915,53.33633053779707,0 -6.2493761756432225,53.33659212386984,0 -6.248938136940764,53.33682921305241,0 -6.248463284060055,53.33703952162014,0 -6.247956190510093,53.33722102377671,0 -6.247421740554995,53.33737197117942,0 -6.246865082149872,53.3374909097912,0 -6.246291577328244,53.33757669389648,0 -6.245706750520104,53.33762849714552,0 -6.24511623530001,53.337645820520386,0 </coordinates>
              </LinearRing>
            </outerBoundaryIs>
          </Polygon>
        </Placemark>
      <Placemark>
        <name>14. Stillorgan</name>
        <description>ID: dublin/stillorgan</description>
        <styleUrl>#pointStyle</styleUrl>
        <Point>
          <coordinates>-6.200198192024133,53.28931632500561,0</coordinates>
        </Point>
      </Placemark>
        <Placemark>
          <name>Stillorgan 400m Circle</name>
          <styleUrl>#circleStyle</styleUrl>
          <Polygon>
            <outerBoundaryIs>
              <LinearRing>
                <coordinates>-6.200198192024133,53.29291361142928,0 -6.199608295342587,53.29289628805679,0 -6.199024081112316,53.29284448481478,0 -6.198451177004742,53.292758700720924,0 -6.197895101661274,53.2926397621245,0 -6.197361211497263,53.292488814740494,0 -6.196854649074294,53.29230731260528,0 -6.196380293539631,53.29209700406073,0 -6.195942713611449,53.291859914902254,0 -6.195546123563637,53.29159832885357,0 -6.195194342634669,53.291314765556805,0 -6.194890758251662,53.29101195629064,0 -6.194638293423586,53.29069281765084,0 -6.194439378617028,53.29036042344743,0 -6.194295928384378,53.290017975089434,0 -6.194209322968151,53.28966877074319,0 -6.194180395056993,53.289316173561495,0 -6.194209421819054,53.28896357928974,0 -6.1942961222873985,53.288614383561544,0 -6.194439660120583,53.28827194919849,0 -6.194638651709651,53.2879395738291,0 -6.194891179551506,53.28762045813862,0 -6.195194810757974,53.28731767505514,0 -6.195546620520688,53.28703414016825,0 -6.195943220304466,53.286772583664835,0 -6.1963807904966846,53.28653552405166,0 -6.196855117197604,53.28632524391697,0 -6.197361632797111,53.28614376796445,0 -6.197895459947343,53.285992843529755,0 -6.1984514585083,53.285873923767355,0 -6.199024275015339,53.28578815366844,0 -6.199608394193492,53.28573635904447,0 -6.200198192024133,53.28571903858194,0 -6.200787989854772,53.28573635904447,0 -6.201372109032926,53.28578815366844,0 -6.201944925539965,53.285873923767355,0 -6.202500924100923,53.285992843529755,0 -6.203034751251155,53.28614376796445,0 -6.203541266850662,53.28632524391697,0 -6.20401559355158,53.28653552405166,0 -6.2044531637438,53.286772583664835,0 -6.204849763527577,53.28703414016825,0 -6.205201573290291,53.28731767505514,0 -6.205505204496759,53.28762045813862,0 -6.205757732338615,53.2879395738291,0 -6.205956723927683,53.28827194919849,0 -6.2061002617608665,53.288614383561544,0 -6.206186962229212,53.28896357928974,0 -6.206215988991271,53.289316173561495,0 -6.206187061080115,53.28966877074319,0 -6.206100455663887,53.290017975089434,0 -6.205957005431237,53.29036042344743,0 -6.20575809062468,53.29069281765084,0 -6.2055056257966035,53.29101195629064,0 -6.205202041413597,53.291314765556805,0 -6.204850260484628,53.29159832885357,0 -6.204453670436816,53.291859914902254,0 -6.204016090508635,53.29209700406073,0 -6.203541734973971,53.29230731260528,0 -6.203035172551003,53.292488814740494,0 -6.202501282386992,53.2926397621245,0 -6.201945207043524,53.292758700720924,0 -6.20137230293595,53.29284448481478,0 -6.2007880887056785,53.29289628805679,0 -6.200198192024133,53.29291361142928,0 </coordinates>
              </LinearRing>
            </outerBoundaryIs>
          </Polygon>
        </Placemark>
    </Folder>
  </Document>
</kml>