<?xml version="1.0" encoding="UTF-8"?>
<kml xmlns="http://www.opengis.net/kml/2.2">
  <Document>
    <name>Luas Red Line</name>
    <Style id="pointStyle">
      <IconStyle>
        <Icon>
          <href>http://maps.google.com/mapfiles/kml/paddle/red-circle.png</href>
        </Icon>
      </IconStyle>
    </Style>
    <Placemark>
      <name>Bluebell (Luas Red Line)</name>
      <styleUrl>#pointStyle</styleUrl>
      <Point>
        <coordinates>-6.333778,53.32924,0</coordinates>
      </Point>
    </Placemark>
    <Placemark>
      <name>Drimnagh (Luas Red Line)</name>
      <styleUrl>#pointStyle</styleUrl>
      <Point>
        <coordinates>-6.318256,53.335305,0</coordinates>
      </Point>
    </Placemark>
    <Placemark>
      <name>Fatima (Luas Red Line)</name>
      <styleUrl>#pointStyle</styleUrl>
      <Point>
        <coordinates>-6.292756,53.338362,0</coordinates>
      </Point>
    </Placemark>
    <Placemark>
      <name>James's (Luas Red Line)</name>
      <styleUrl>#pointStyle</styleUrl>
      <Point>
        <coordinates>-6.293237662,53.34181261,0</coordinates>
      </Point>
    </Placemark>
    <Placemark>
      <name>Abbey Street (Luas Red Line)</name>
      <styleUrl>#pointStyle</styleUrl>
      <Point>
        <coordinates>-6.25845,53.348504,0</coordinates>
      </Point>
    </Placemark>
    <Placemark>
      <name>Busáras (Luas Red Line)</name>
      <styleUrl>#pointStyle</styleUrl>
      <Point>
        <coordinates>-6.251598,53.350045,0</coordinates>
      </Point>
    </Placemark>
    <Placemark>
      <name>The Point (Luas Red Line)</name>
      <styleUrl>#pointStyle</styleUrl>
      <Point>
        <coordinates>-6.22918668,53.34827635,0</coordinates>
      </Point>
    </Placemark>
    <Placemark>
      <name>Hospital (Luas Red Line)</name>
      <styleUrl>#pointStyle</styleUrl>
      <Point>
        <coordinates>-6.378766,53.289374,0</coordinates>
      </Point>
    </Placemark>
    <Placemark>
      <name>Goldenbridge (Luas Red Line)</name>
      <styleUrl>#pointStyle</styleUrl>
      <Point>
        <coordinates>-6.313299,53.335879,0</coordinates>
      </Point>
    </Placemark>
    <Placemark>
      <name>Suir Road (Luas Red Line)</name>
      <styleUrl>#pointStyle</styleUrl>
      <Point>
        <coordinates>-6.307231258,53.33659218,0</coordinates>
      </Point>
    </Placemark>
    <Placemark>
      <name>Cookstown (Luas Red Line)</name>
      <styleUrl>#pointStyle</styleUrl>
      <Point>
        <coordinates>-6.384038,53.293311,0</coordinates>
      </Point>
    </Placemark>
    <Placemark>
      <name>Kylemore (Luas Red Line)</name>
      <styleUrl>#pointStyle</styleUrl>
      <Point>
        <coordinates>-6.343697,53.32652,0</coordinates>
      </Point>
    </Placemark>
    <Placemark>
      <name>Blackhorse (Luas Red Line)</name>
      <styleUrl>#pointStyle</styleUrl>
      <Point>
        <coordinates>-6.327515,53.334196,0</coordinates>
      </Point>
    </Placemark>
    <Placemark>
      <name>Rialto (Luas Red Line)</name>
      <styleUrl>#pointStyle</styleUrl>
      <Point>
        <coordinates>-6.297369,53.337846,0</coordinates>
      </Point>
    </Placemark>
    <Placemark>
      <name>Heuston (Luas Red Line)</name>
      <styleUrl>#pointStyle</styleUrl>
      <Point>
        <coordinates>-6.291618,53.346697,0</coordinates>
      </Point>
    </Placemark>
    <Placemark>
      <name>Museum (Luas Red Line)</name>
      <styleUrl>#pointStyle</styleUrl>
      <Point>
        <coordinates>-6.286936,53.347835,0</coordinates>
      </Point>
    </Placemark>
    <Placemark>
      <name>Smithfield (Luas Red Line)</name>
      <styleUrl>#pointStyle</styleUrl>
      <Point>
        <coordinates>-6.278080805,53.3471135,0</coordinates>
      </Point>
    </Placemark>
    <Placemark>
      <name>Jervis (Luas Red Line)</name>
      <styleUrl>#pointStyle</styleUrl>
      <Point>
        <coordinates>-6.265275464,53.34768301,0</coordinates>
      </Point>
    </Placemark>
    <Placemark>
      <name>George's Dock (Luas Red Line)</name>
      <styleUrl>#pointStyle</styleUrl>
      <Point>
        <coordinates>-6.247569832,53.34942861,0</coordinates>
      </Point>
    </Placemark>
    <Placemark>
      <name>Mayor Square - NCI (Luas Red Line)</name>
      <styleUrl>#pointStyle</styleUrl>
      <Point>
        <coordinates>-6.243269507,53.34916764,0</coordinates>
      </Point>
    </Placemark>
    <Placemark>
      <name>Belgard (Luas Red Line)</name>
      <styleUrl>#pointStyle</styleUrl>
      <Point>
        <coordinates>-6.374808,53.299145,0</coordinates>
      </Point>
    </Placemark>
    <Placemark>
      <name>Kingswood (Luas Red Line)</name>
      <styleUrl>#pointStyle</styleUrl>
      <Point>
        <coordinates>-6.365409,53.303586,0</coordinates>
      </Point>
    </Placemark>
    <Placemark>
      <name>Red Cow (Luas Red Line)</name>
      <styleUrl>#pointStyle</styleUrl>
      <Point>
        <coordinates>-6.369780553,53.31674596,0</coordinates>
      </Point>
    </Placemark>
    <Placemark>
      <name>Four Courts (Luas Red Line)</name>
      <styleUrl>#pointStyle</styleUrl>
      <Point>
        <coordinates>-6.273660411,53.34685189,0</coordinates>
      </Point>
    </Placemark>
    <Placemark>
      <name>Spencer Dock (Luas Red Line)</name>
      <styleUrl>#pointStyle</styleUrl>
      <Point>
        <coordinates>-6.237126865,53.34878043,0</coordinates>
      </Point>
    </Placemark>
    <Placemark>
      <name>Tallaght (Luas Red Line)</name>
      <styleUrl>#pointStyle</styleUrl>
      <Point>
        <coordinates>-6.374685,53.287523,0</coordinates>
      </Point>
    </Placemark>
  </Document>
</kml>