<?xml version="1.0" encoding="UTF-8"?>
<kml xmlns="http://www.opengis.net/kml/2.2">
  <Document>
    <name>Luas Green Line</name>
    <Style id="pointStyle">
      <IconStyle>
        <Icon>
          <href>http://maps.google.com/mapfiles/kml/paddle/red-circle.png</href>
        </Icon>
      </IconStyle>
    </Style>
    <Placemark>
      <name>Dawson (Luas Green Line)</name>
      <styleUrl>#pointStyle</styleUrl>
      <Point>
        <coordinates>-6.25801984,53.34217543,0</coordinates>
      </Point>
    </Placemark>
    <Placemark>
      <name>St. Stephen's Green (Luas Green Line)</name>
      <styleUrl>#pointStyle</styleUrl>
      <Point>
        <coordinates>-6.261319,53.339197,0</coordinates>
      </Point>
    </Placemark>
    <Placemark>
      <name>Ranelagh (Luas Green Line)</name>
      <styleUrl>#pointStyle</styleUrl>
      <Point>
        <coordinates>-6.256196436,53.32613194,0</coordinates>
      </Point>
    </Placemark>
    <Placemark>
      <name>Phibsborough (Luas Green Line)</name>
      <styleUrl>#pointStyle</styleUrl>
      <Point>
        <coordinates>-6.27902033,53.36033055,0</coordinates>
      </Point>
    </Placemark>
    <Placemark>
      <name>Broombridge (Luas Green Line)</name>
      <styleUrl>#pointStyle</styleUrl>
      <Point>
        <coordinates>-6.29752527,53.37215461,0</coordinates>
      </Point>
    </Placemark>
    <Placemark>
      <name>O'Connell Upper (Luas Green Line)</name>
      <styleUrl>#pointStyle</styleUrl>
      <Point>
        <coordinates>-6.261151,53.351612,0</coordinates>
      </Point>
    </Placemark>
    <Placemark>
      <name>Dominick (Luas Green Line)</name>
      <styleUrl>#pointStyle</styleUrl>
      <Point>
        <coordinates>-6.265573,53.351245,0</coordinates>
      </Point>
    </Placemark>
    <Placemark>
      <name>Kilmacud (Luas Green Line)</name>
      <styleUrl>#pointStyle</styleUrl>
      <Point>
        <coordinates>-6.224107001,53.28291052,0</coordinates>
      </Point>
    </Placemark>
    <Placemark>
      <name>Ballyogan Wood (Luas Green Line)</name>
      <styleUrl>#pointStyle</styleUrl>
      <Point>
        <coordinates>-6.184472,53.254982,0</coordinates>
      </Point>
    </Placemark>
    <Placemark>
      <name>Carrickmines (Luas Green Line)</name>
      <styleUrl>#pointStyle</styleUrl>
      <Point>
        <coordinates>-6.171624,53.254334,0</coordinates>
      </Point>
    </Placemark>
    <Placemark>
      <name>Cherrywood (Luas Green Line)</name>
      <styleUrl>#pointStyle</styleUrl>
      <Point>
        <coordinates>-6.145975,53.245317,0</coordinates>
      </Point>
    </Placemark>
    <Placemark>
      <name>Beechwood (Luas Green Line)</name>
      <styleUrl>#pointStyle</styleUrl>
      <Point>
        <coordinates>-6.25475,53.320929,0</coordinates>
      </Point>
    </Placemark>
    <Placemark>
      <name>Cowper (Luas Green Line)</name>
      <styleUrl>#pointStyle</styleUrl>
      <Point>
        <coordinates>-6.253499,53.316398,0</coordinates>
      </Point>
    </Placemark>
    <Placemark>
      <name>Harcourt (Luas Green Line)</name>
      <styleUrl>#pointStyle</styleUrl>
      <Point>
        <coordinates>-6.26283,53.333631,0</coordinates>
      </Point>
    </Placemark>
    <Placemark>
      <name>Dundrum (Luas Green Line)</name>
      <styleUrl>#pointStyle</styleUrl>
      <Point>
        <coordinates>-6.245234,53.292375,0</coordinates>
      </Point>
    </Placemark>
    <Placemark>
      <name>Balally (Luas Green Line)</name>
      <styleUrl>#pointStyle</styleUrl>
      <Point>
        <coordinates>-6.236791,53.286023,0</coordinates>
      </Point>
    </Placemark>
    <Placemark>
      <name>Central Park (Luas Green Line)</name>
      <styleUrl>#pointStyle</styleUrl>
      <Point>
        <coordinates>-6.20389942,53.27016803,0</coordinates>
      </Point>
    </Placemark>
    <Placemark>
      <name>Glencairn (Luas Green Line)</name>
      <styleUrl>#pointStyle</styleUrl>
      <Point>
        <coordinates>-6.210132292,53.2663249,0</coordinates>
      </Point>
    </Placemark>
    <Placemark>
      <name>The Gallops (Luas Green Line)</name>
      <styleUrl>#pointStyle</styleUrl>
      <Point>
        <coordinates>-6.205947,53.261063,0</coordinates>
      </Point>
    </Placemark>
    <Placemark>
      <name>Laughanstown (Luas Green Line)</name>
      <styleUrl>#pointStyle</styleUrl>
      <Point>
        <coordinates>-6.155087,53.250555,0</coordinates>
      </Point>
    </Placemark>
    <Placemark>
      <name>Broadstone - University (Luas Green Line)</name>
      <styleUrl>#pointStyle</styleUrl>
      <Point>
        <coordinates>-6.273733,53.354033,0</coordinates>
      </Point>
    </Placemark>
    <Placemark>
      <name>Windy Arbour (Luas Green Line)</name>
      <styleUrl>#pointStyle</styleUrl>
      <Point>
        <coordinates>-6.250841,53.301757,0</coordinates>
      </Point>
    </Placemark>
    <Placemark>
      <name>Stillorgan (Luas Green Line)</name>
      <styleUrl>#pointStyle</styleUrl>
      <Point>
        <coordinates>-6.21036734,53.27936144,0</coordinates>
      </Point>
    </Placemark>
    <Placemark>
      <name>Charlemont (Luas Green Line)</name>
      <styleUrl>#pointStyle</styleUrl>
      <Point>
        <coordinates>-6.258704,53.330585,0</coordinates>
      </Point>
    </Placemark>
    <Placemark>
      <name>Milltown (Luas Green Line)</name>
      <styleUrl>#pointStyle</styleUrl>
      <Point>
        <coordinates>-6.251749984,53.30967244,0</coordinates>
      </Point>
    </Placemark>
    <Placemark>
      <name>Westmoreland (Luas Green Line)</name>
      <styleUrl>#pointStyle</styleUrl>
      <Point>
        <coordinates>-6.259086,53.34637,0</coordinates>
      </Point>
    </Placemark>
    <Placemark>
      <name>O'Connell - GPO (Luas Green Line)</name>
      <styleUrl>#pointStyle</styleUrl>
      <Point>
        <coordinates>-6.259968,53.348839,0</coordinates>
      </Point>
    </Placemark>
    <Placemark>
      <name>Grangegorman (Luas Green Line)</name>
      <styleUrl>#pointStyle</styleUrl>
      <Point>
        <coordinates>-6.27747,53.357115,0</coordinates>
      </Point>
    </Placemark>
    <Placemark>
      <name>Cabra (Luas Green Line)</name>
      <styleUrl>#pointStyle</styleUrl>
      <Point>
        <coordinates>-6.282029723,53.36432866,0</coordinates>
      </Point>
    </Placemark>
    <Placemark>
      <name>Sandyford (Luas Green Line)</name>
      <styleUrl>#pointStyle</styleUrl>
      <Point>
        <coordinates>-6.204714,53.277533,0</coordinates>
      </Point>
    </Placemark>
    <Placemark>
      <name>Leopardstown Valley (Luas Green Line)</name>
      <styleUrl>#pointStyle</styleUrl>
      <Point>
        <coordinates>-6.198426,53.258206,0</coordinates>
      </Point>
    </Placemark>
    <Placemark>
      <name>Brides Glen (Luas Green Line)</name>
      <styleUrl>#pointStyle</styleUrl>
      <Point>
        <coordinates>-6.142842986,53.24187177,0</coordinates>
      </Point>
    </Placemark>
  </Document>
</kml>