<?xml version="1.0" encoding="UTF-8"?>
<kml xmlns="http://www.opengis.net/kml/2.2">
  <Document>
    <name>Luas Green Line Line</name>
    <Style id="lineStyle">
      <LineStyle>
        <color>ff00ff00</color>
        <width>4</width>
      </LineStyle>
    </Style>
    <Placemark>
      <name>Luas Green Line Route</name>
      <styleUrl>#lineStyle</styleUrl>
      <LineString>
        <coordinates>
          -6.29752527,53.37215461,0 -6.282029723,53.36432866,0 -6.27902033,53.36033055,0 -6.27747,53.357115,0 -6.273733,53.354033,0 -6.265573,53.351245,0 -6.261151,53.351612,0 -6.259968,53.348839,0 -6.259086,53.34637,0 -6.25801984,53.34217543,0 -6.261319,53.339197,0 -6.26283,53.333631,0 -6.258704,53.330585,0 -6.256196436,53.32613194,0 -6.25475,53.320929,0 -6.253499,53.316398,0 -6.251749984,53.30967244,0 -6.250841,53.301757,0 -6.245234,53.292375,0 -6.236791,53.286023,0 -6.224107001,53.28291052,0 -6.21036734,53.27936144,0 -6.20389942,53.27016803,0 -6.210132292,53.2663249,0 -6.205947,53.261063,0 -6.198426,53.258206,0 -6.184472,53.254982,0 -6.171624,53.254334,0 -6.155087,53.250555,0 -6.145975,53.245317,0 -6.142842986,53.24187177,0 -6.204714,53.277533,0
        </coordinates>
      </LineString>
    </Placemark>
  </Document>
</kml>