<?xml version="1.0" encoding="UTF-8"?>
<kml xmlns="http://www.opengis.net/kml/2.2">
  <Document>
    <name>Luas Red Line Line</name>
    <Style id="lineStyle">
      <LineStyle>
        <color>ff0000ff</color>
        <width>4</width>
      </LineStyle>
    </Style>
    <Placemark>
      <name>Luas Red Line Route</name>
      <styleUrl>#lineStyle</styleUrl>
      <LineString>
        <coordinates>
          -6.22918668,53.34827635,0 -6.237126865,53.34878043,0 -6.243269507,53.34916764,0 -6.247569832,53.34942861,0 -6.251598,53.350045,0 -6.25845,53.348504,0 -6.265275464,53.34768301,0 -6.273660411,53.34685189,0 -6.278080805,53.3471135,0 -6.286936,53.347835,0 -6.291618,53.346697,0 -6.293237662,53.34181261,0 -6.292756,53.338362,0 -6.297369,53.337846,0 -6.307231258,53.33659218,0 -6.313299,53.335879,0 -6.318256,53.335305,0 -6.327515,53.334196,0 -6.333778,53.32924,0 -6.369780553,53.31674596,0 -6.365409,53.303586,0 -6.374808,53.299145,0 -6.384038,53.293311,0 -6.378766,53.289374,0 -6.374685,53.287523,0 -6.343697,53.32652,0
        </coordinates>
      </LineString>
    </Placemark>
  </Document>
</kml>