<?xml version="1.0" encoding="UTF-8"?>
<kml xmlns="http://www.opengis.net/kml/2.2">
  <Document>
    <name>Villages</name>
    <Style id="pointStyle">
      <IconStyle>
        <Icon>
          <href>http://maps.google.com/mapfiles/kml/paddle/red-circle.png</href>
        </Icon>
      </IconStyle>
    </Style>
    <Placemark>
      <name>Rathmines</name>
      <styleUrl>#pointStyle</styleUrl>
      <Point>
        <coordinates>-6.265480063026553,53.32352423360366,0</coordinates>
      </Point>
    </Placemark>
    <Placemark>
      <name>Liberties</name>
      <styleUrl>#pointStyle</styleUrl>
      <Point>
        <coordinates>-6.277696417819648,53.34261331671519,0</coordinates>
      </Point>
    </Placemark>
    <Placemark>
      <name>Sandymount</name>
      <styleUrl>#pointStyle</styleUrl>
      <Point>
        <coordinates>-6.21567335058748,53.33258229914048,0</coordinates>
      </Point>
    </Placemark>
    <Placemark>
      <name>Stoneybatter</name>
      <styleUrl>#pointStyle</styleUrl>
      <Point>
        <coordinates>-6.283952270563642,53.3523705510358,0</coordinates>
      </Point>
    </Placemark>
    <Placemark>
      <name>Kilmainham</name>
      <styleUrl>#pointStyle</styleUrl>
      <Point>
        <coordinates>-6.3077832095956525,53.340612480097455,0</coordinates>
      </Point>
    </Placemark>
    <Placemark>
      <name>Drumcondra</name>
      <styleUrl>#pointStyle</styleUrl>
      <Point>
        <coordinates>-6.25858473976338,53.3631165720114,0</coordinates>
      </Point>
    </Placemark>
    <Placemark>
      <name>Donnybrook</name>
      <styleUrl>#pointStyle</styleUrl>
      <Point>
        <coordinates>-6.238274459938508,53.32286264337584,0</coordinates>
      </Point>
    </Placemark>
    <Placemark>
      <name>UCD</name>
      <styleUrl>#pointStyle</styleUrl>
      <Point>
        <coordinates>-6.22204646274071,53.3077382478846,0</coordinates>
      </Point>
    </Placemark>
    <Placemark>
      <name>DCU</name>
      <styleUrl>#pointStyle</styleUrl>
      <Point>
        <coordinates>-6.258892378349267,53.385412447033374,0</coordinates>
      </Point>
    </Placemark>
    <Placemark>
      <name>Rathfarnham</name>
      <styleUrl>#pointStyle</styleUrl>
      <Point>
        <coordinates>-6.285507356244741,53.29871237527471,0</coordinates>
      </Point>
    </Placemark>
    <Placemark>
      <name>Terenure</name>
      <styleUrl>#pointStyle</styleUrl>
      <Point>
        <coordinates>-6.283480335527292,53.30989629484159,0</coordinates>
      </Point>
    </Placemark>
    <Placemark>
      <name>Ballsbridge</name>
      <styleUrl>#pointStyle</styleUrl>
      <Point>
        <coordinates>-6.230542576001011,53.328836227732324,0</coordinates>
      </Point>
    </Placemark>
    <Placemark>
      <name>Baggot St</name>
      <styleUrl>#pointStyle</styleUrl>
      <Point>
        <coordinates>-6.24511623530001,53.33404853409671,0</coordinates>
      </Point>
    </Placemark>
    <Placemark>
      <name>Stillorgan</name>
      <styleUrl>#pointStyle</styleUrl>
      <Point>
        <coordinates>-6.200198192024133,53.28931632500561,0</coordinates>
      </Point>
    </Placemark>
  </Document>
</kml>