<?xml version="1.0" encoding="UTF-8"?>
<kml xmlns="http://www.opengis.net/kml/2.2">
  <Document>
    <name>DART</name>
    <description>DART</description>
    
    <!-- Style for the route -->
    <Style id="routeStyle">
      <LineStyle>
        <color>ff0000ff</color>
        <width>4</width>
      </LineStyle>
    </Style>
    
    <!-- Style for the points -->
    <Style id="pointStyle">
      <IconStyle>
        <scale>1.0</scale>
        <Icon>
          <href>http://maps.google.com/mapfiles/kml/paddle/blue-blank.png</href>
        </Icon>
      </IconStyle>
      <LabelStyle>
        <scale>0.8</scale>
      </LabelStyle>
    </Style>

    <!-- Style for the circles -->
    <Style id="circleStyle">
      <LineStyle>
        <color>7f0000ff</color>
        <width>2</width>
      </LineStyle>
      <PolyStyle>
        <color>1f0000ff</color>
        <fill>1</fill>
        <outline>1</outline>
      </PolyStyle>
    </Style>

    <!-- Folder for points -->
    <Folder>
      <name>DART Points</name>
      <description>DART Points</description>
      <styleUrl>#pointStyle</styleUrl>
      <Placemark>
        <name>Sydney Parade (DART)</name>
        <description></description>
        <Point>
          <coordinates>-6.211644,53.320956,0</coordinates>
        </Point>
      </Placemark>
      <Placemark>
        <name>Raheny (DART)</name>
        <description></description>
        <Point>
          <coordinates>-6.175818,53.381423,0</coordinates>
        </Point>
      </Placemark>
      <Placemark>
        <name>Killester (DART)</name>
        <description></description>
        <Point>
          <coordinates>-6.204046,53.372884,0</coordinates>
        </Point>
      </Placemark>
      <Placemark>
        <name>Booterstown (DART)</name>
        <description></description>
        <Point>
          <coordinates>-6.19498,53.309921,0</coordinates>
        </Point>
      </Placemark>
      <Placemark>
        <name>Salthill and Monkstown (DART)</name>
        <description></description>
        <Point>
          <coordinates>-6.15233,53.29526,0</coordinates>
        </Point>
      </Placemark>
      <Placemark>
        <name>Dun Laoghaire (Mallin) (DART)</name>
        <description></description>
        <Point>
          <coordinates>-6.134575,53.294776,0</coordinates>
        </Point>
      </Placemark>
      <Placemark>
        <name>Tara Street (DART)</name>
        <description></description>
        <Point>
          <coordinates>-6.254359,53.347264,0</coordinates>
        </Point>
      </Placemark>
      <Placemark>
        <name>Clontarf Road (DART)</name>
        <description></description>
        <Point>
          <coordinates>-6.226784,53.363077,0</coordinates>
        </Point>
      </Placemark>
      <Placemark>
        <name>Harmonstown (DART)</name>
        <description></description>
        <Point>
          <coordinates>-6.19131,53.378643,0</coordinates>
        </Point>
      </Placemark>
      <Placemark>
        <name>Dublin Pearse (DART)</name>
        <description></description>
        <Point>
          <coordinates>-6.248048,53.343252,0</coordinates>
        </Point>
      </Placemark>
      <Placemark>
        <name>Grand Canal Dock (DART)</name>
        <description></description>
        <Point>
          <coordinates>-6.237351,53.339446,0</coordinates>
        </Point>
      </Placemark>
      <Placemark>
        <name>Howth (DART)</name>
        <description></description>
        <Point>
          <coordinates>-6.074211,53.388893,0</coordinates>
        </Point>
      </Placemark>
      <Placemark>
        <name>Sutton (DART)</name>
        <description></description>
        <Point>
          <coordinates>-6.115952,53.391905,0</coordinates>
        </Point>
      </Placemark>
      <Placemark>
        <name>Dublin Connolly (DART)</name>
        <description></description>
        <Point>
          <coordinates>-6.247731,53.352586,0</coordinates>
        </Point>
      </Placemark>
      <Placemark>
        <name>Sandymount (DART)</name>
        <description></description>
        <Point>
          <coordinates>-6.220843,53.32784,0</coordinates>
        </Point>
      </Placemark>
      <Placemark>
        <name>Lansdowne Road (DART)</name>
        <description></description>
        <Point>
          <coordinates>-6.229191,53.333963,0</coordinates>
        </Point>
      </Placemark>
      <Placemark>
        <name>Kilbarrack (DART)</name>
        <description></description>
        <Point>
          <coordinates>-6.16089,53.387472,0</coordinates>
        </Point>
      </Placemark>
      <Placemark>
        <name>Howth Junction and Donaghmede (DART)</name>
        <description></description>
        <Point>
          <coordinates>-6.155434,53.391496,0</coordinates>
        </Point>
      </Placemark>
      <Placemark>
        <name>Bayside (DART)</name>
        <description></description>
        <Point>
          <coordinates>-6.136925,53.391242,0</coordinates>
        </Point>
      </Placemark>
      <Placemark>
        <name>Seapoint (DART)</name>
        <description></description>
        <Point>
          <coordinates>-6.16512,53.299128,0</coordinates>
        </Point>
      </Placemark>
      <Placemark>
        <name>Blackrock (DART)</name>
        <description></description>
        <Point>
          <coordinates>-6.178846,53.302716,0</coordinates>
        </Point>
      </Placemark>
    </Folder>
    <Folder>
      <name>DART Circles</name>
      <description>DART Circles</description>
      <styleUrl>#circleStyle</styleUrl>
      <Placemark>
        <name>Sydney Parade (DART) Circle</name>
        <Polygon>
          <outerBoundaryIs>
            <LinearRing>
              <coordinates>-6.211644,53.32545260802961,0 -6.210906067008756,53.32543095335658,0 -6.210175242944592,53.32536619794944,0 -6.2094585681860455,53.32525896563233,0 -6.20876294667801,53.32511028942644,0 -6.208095079367059,53.32492160158929,0 -6.207461399601101,53.32469471980498,0 -6.2068680111181385,53.32443182965907,0 -6.206320629223367,53.32413546356745,0 -6.205824525722699,53.32380847636326,0 -6.20538447814401,53.323454017777614,0 -6.205004723735402,53.32307550208045,0 -6.20468891868323,53.32267657517464,0 -6.204440102941646,53.322261079461235,0 -6.204260671010838,53.321833016815255,0 -6.204152348943233,53.32139651002909,0 -6.204116177796611,53.3209557630957,0 -6.204152503690508,53.32051502071435,0 -6.204260974558537,53.32007852740941,0 -6.204440543624602,53.31965048665573,0 -6.204689479566243,53.31923502040443,0 -6.205005383264057,53.31883612939827,0 -6.205385210972988,53.31845765465873,0 -6.205825303689793,53.31810324051471,0 -6.206321422431739,53.317776299528255,0 -6.206868789085238,53.31747997965437,0 -6.207462132430086,53.31721713395008,0 -6.208095738895722,53.3169902931234,0 -6.208763507561035,53.316801641185904,0 -6.209459008869011,53.31665299444211,0 -6.210175546492299,53.316545784017315,0 -6.2109062217560345,53.31648104209138,0 -6.211644,53.31645939197041,0 -6.212381778243964,53.31648104209138,0 -6.2131124535077,53.316545784017315,0 -6.213828991130988,53.31665299444211,0 -6.214524492438962,53.316801641185904,0 -6.215192261104277,53.3169902931234,0 -6.2158258675699125,53.31721713395008,0 -6.216419210914761,53.31747997965437,0 -6.21696657756826,53.317776299528255,0 -6.217462696310204,53.31810324051471,0 -6.21790278902701,53.31845765465873,0 -6.218282616735943,53.31883612939827,0 -6.218598520433757,53.31923502040443,0 -6.218847456375397,53.31965048665573,0 -6.219027025441463,53.32007852740941,0 -6.219135496309492,53.32051502071435,0 -6.219171822203388,53.3209557630957,0 -6.2191356510567655,53.32139651002909,0 -6.219027328989162,53.321833016815255,0 -6.218847897058352,53.322261079461235,0 -6.2185990813167695,53.32267657517464,0 -6.2182832762645965,53.32307550208045,0 -6.217903521855989,53.323454017777614,0 -6.2174634742773005,53.32380847636326,0 -6.216967370776633,53.32413546356745,0 -6.21641998888186,53.32443182965907,0 -6.215826600398898,53.32469471980498,0 -6.215192920632941,53.32492160158929,0 -6.214525053321989,53.32511028942644,0 -6.213829431813954,53.32525896563233,0 -6.2131127570554066,53.32536619794944,0 -6.212381932991243,53.32543095335658,0 -6.211644,53.32545260802961,0</coordinates>
            </LinearRing>
          </outerBoundaryIs>
        </Polygon>
      </Placemark>
      <Placemark>
        <name>Raheny (DART) Circle</name>
        <Polygon>
          <outerBoundaryIs>
            <LinearRing>
              <coordinates>-6.175818,53.38591960802959,0 -6.17507901933576,53.38589795335156,0 -6.174347157696356,53.38583319792954,0 -6.173629465460513,53.38572596558828,0 -6.172932856379165,53.38557728934988,0 -6.172264040916032,53.38538860147311,0 -6.171629461555405,53.38516171964363,0 -6.171035230702704,53.38489882944869,0 -6.170487071777961,53.38460246330609,0 -6.169990264071109,53.38427547605091,0 -6.169549591891116,53.38392101741624,0 -6.169169298498967,53.38354250167391,0 -6.168853045267894,53.383143574728486,0 -6.168603876463101,53.3827280789826,0 -6.16842418997868,53.38230001631248,0 -6.1683157143113805,53.38186350951146,0 -6.1682794919904556,53.38142276257305,0 -6.1683158696201925,53.380982020196726,0 -6.168424494627873,53.380545526906666,0 -6.168604318745179,53.38011748617716,0 -6.168853608186205,53.37970201995836,0 -6.169169960420877,53.3793031289918,0 -6.169550327379336,53.37892465429746,0 -6.169991044861245,53.37857024020245,0 -6.170487867864679,53.378243299266956,0 -6.171036011492842,53.37794697944407,0 -6.171630197043634,53.37768413378878,0 -6.172264702837952,53.37745729300728,0 -6.172933419297489,53.377268641109374,0 -6.173629907742603,53.377119994398065,0 -6.1743474623455565,53.37701278399741,0 -6.175079174644577,53.37694804208635,0 -6.175818,53.37692639197041,0 -6.176556825355423,53.37694804208635,0 -6.177288537654442,53.37701278399741,0 -6.178006092257396,53.377119994398065,0 -6.178702580702511,53.377268641109374,0 -6.179371297162047,53.37745729300728,0 -6.180005802956365,53.37768413378878,0 -6.180599988507157,53.37794697944407,0 -6.181148132135321,53.378243299266956,0 -6.181644955138755,53.37857024020245,0 -6.182085672620663,53.37892465429746,0 -6.182466039579121,53.3793031289918,0 -6.182782391813793,53.37970201995836,0 -6.183031681254819,53.38011748617716,0 -6.183211505372126,53.380545526906666,0 -6.1833201303798075,53.380982020196726,0 -6.183356508009544,53.38142276257305,0 -6.18332028568862,53.38186350951146,0 -6.18321181002132,53.38230001631248,0 -6.183032123536898,53.3827280789826,0 -6.182782954732105,53.383143574728486,0 -6.182466701501032,53.38354250167391,0 -6.182086408108884,53.38392101741624,0 -6.181645735928889,53.38427547605091,0 -6.181148928222039,53.38460246330609,0 -6.180600769297296,53.38489882944869,0 -6.180006538444595,53.38516171964363,0 -6.1793719590839675,53.38538860147311,0 -6.178703143620835,53.38557728934988,0 -6.1780065345394855,53.38572596558828,0 -6.1772888423036445,53.38583319792954,0 -6.176556980664238,53.38589795335156,0 -6.175818,53.38591960802959,0</coordinates>
            </LinearRing>
          </outerBoundaryIs>
        </Polygon>
      </Placemark>
      <Placemark>
        <name>Killester (DART) Circle</name>
        <Polygon>
          <outerBoundaryIs>
            <LinearRing>
              <coordinates>-6.204046,53.37738060802958,0 -6.2033071675158125,53.377358953352264,0 -6.202575452628259,53.377294197932336,0 -6.201857904301669,53.3771869655945,0 -6.2011614349000315,53.3770382893607,0 -6.200492753540987,53.37684960148954,0 -6.1998583014166035,53.37662271966643,0 -6.199264189706403,53.376359829478425,0 -6.198716140682675,53.37606346334303,0 -6.198219432576838,53.375736476095064,0 -6.197778848738753,53.37538201746733,0 -6.1973986315789675,53.375003501731385,0 -6.19708244173709,53.37460457479156,0 -6.196833322868586,53.37418907905027,0 -6.196653672387518,53.37376101638356,0 -6.196545218444923,53.373324509584634,0 -6.196509003361932,53.37288376264694,0 -6.19654537367427,53.37244302026992,0 -6.196653976880835,53.37200652697774,0 -6.196833764924367,53.37157848624482,0 -6.197083004367382,53.37116302002141,0 -6.1973992931622,53.37076412904926,0 -6.197779583850658,53.37038565434853,0 -6.198220212967476,53.37003124024658,0 -6.1987169363620716,53.3697042993039,0 -6.199264970097043,53.3694079794738,0 -6.199859036528515,53.369145133811585,0 -6.200493415124231,53.3689182930237,0 -6.201161997530333,53.3687296411202,0 -6.2018583463574615,53.3685809944043,0 -6.202575757121585,53.368473784000216,0 -6.2033073227451645,53.36840904208705,0 -6.204046,53.3683873919704,0 -6.204784677254836,53.36840904208705,0 -6.2055162428784145,53.368473784000216,0 -6.206233653642538,53.3685809944043,0 -6.206930002469667,53.3687296411202,0 -6.207598584875768,53.3689182930237,0 -6.208232963471484,53.369145133811585,0 -6.208827029902956,53.3694079794738,0 -6.209375063637928,53.3697042993039,0 -6.209871787032523,53.37003124024658,0 -6.210312416149342,53.37038565434853,0 -6.210692706837799,53.37076412904926,0 -6.211008995632619,53.37116302002141,0 -6.211258235075632,53.37157848624482,0 -6.211438023119165,53.37200652697774,0 -6.211546626325729,53.37244302026992,0 -6.211582996638067,53.37288376264694,0 -6.211546781555076,53.373324509584634,0 -6.211438327612483,53.37376101638356,0 -6.211258677131415,53.37418907905027,0 -6.2110095582629095,53.37460457479156,0 -6.2106933684210315,53.375003501731385,0 -6.210313151261246,53.37538201746733,0 -6.209872567423162,53.375736476095064,0 -6.209375859317324,53.37606346334303,0 -6.208827810293597,53.376359829478425,0 -6.2082336985833955,53.37662271966643,0 -6.207599246459013,53.37684960148954,0 -6.206930565099968,53.3770382893607,0 -6.20623409569833,53.3771869655945,0 -6.20551654737174,53.377294197932336,0 -6.204784832484187,53.377358953352264,0 -6.204046,53.37738060802958,0</coordinates>
            </LinearRing>
          </outerBoundaryIs>
        </Polygon>
      </Placemark>
      <Placemark>
        <name>Booterstown (DART) Circle</name>
        <Polygon>
          <outerBoundaryIs>
            <LinearRing>
              <coordinates>-6.19498,53.31441760802959,0 -6.194242257796085,53.31439595335749,0 -6.1935116226803935,53.31433119795306,0 -6.192795133210366,53.31422396564035,0 -6.192099691545165,53.314075289440375,0 -6.191431996898234,53.31388660161044,0 -6.1907984809537,53.31365971983437,0 -6.190205245871172,53.313396829697396,0 -6.189658005478088,53.31310046361506,0 -6.189162030217481,53.312773476420155,0 -6.188722096382345,53.31241901784344,0 -6.188342440125803,53.3120405021545,0 -6.188026716689648,53.31164157525591,0 -6.187777965242966,53.31122607954842,0 -6.187598579667888,53.310798016906844,0 -6.187490285571721,53.31036151012339,0 -6.187454123744276,53.30992076319091,0 -6.187490440216812,53.30948002080865,0 -6.187598883015147,53.30904352750099,0 -6.187778405634926,53.30861548674292,0 -6.188027277202296,53.308200020485685,0 -6.188343099218953,53.30780112947231,0 -6.188722828727417,53.307422654724554,0 -6.189162807670863,53.30706824057159,0 -6.189658798162684,53.30674129957585,0 -6.190206023324558,53.30644497969268,0 -6.190799213298777,53.30618213397945,0 -6.191432655991395,53.30595529314455,0 -6.192100252057825,53.30576664119985,0 -6.192795573602337,53.30561799445013,0 -6.193511926027659,53.305510784020925,0 -6.194242412441181,53.305446042092285,0 -6.19498,53.30542439197041,0 -6.195717587558819,53.305446042092285,0 -6.19644807397234,53.305510784020925,0 -6.197164426397664,53.30561799445013,0 -6.197859747942175,53.30576664119985,0 -6.198527344008606,53.30595529314455,0 -6.199160786701222,53.30618213397945,0 -6.199753976675441,53.30644497969268,0 -6.200301201837316,53.30674129957585,0 -6.200797192329137,53.30706824057159,0 -6.201237171272583,53.307422654724554,0 -6.2016169007810475,53.30780112947231,0 -6.201932722797705,53.308200020485685,0 -6.202181594365074,53.30861548674292,0 -6.202361116984853,53.30904352750099,0 -6.2024695597831885,53.30948002080865,0 -6.2025058762557235,53.30992076319091,0 -6.20246971442828,53.31036151012339,0 -6.202361420332112,53.310798016906844,0 -6.202182034757034,53.31122607954842,0 -6.2019332833103515,53.31164157525591,0 -6.2016175598741965,53.3120405021545,0 -6.201237903617654,53.31241901784344,0 -6.20079796978252,53.312773476420155,0 -6.200301994521913,53.31310046361506,0 -6.199754754128827,53.313396829697396,0 -6.199161519046301,53.31365971983437,0 -6.1985280031017655,53.31388660161044,0 -6.1978603084548345,53.314075289440375,0 -6.1971648667896355,53.31422396564035,0 -6.196448377319607,53.31433119795306,0 -6.1957177422039145,53.31439595335749,0 -6.19498,53.31441760802959,0</coordinates>
            </LinearRing>
          </outerBoundaryIs>
        </Polygon>
      </Placemark>
      <Placemark>
        <name>Salthill and Monkstown (DART) Circle</name>
        <Polygon>
          <outerBoundaryIs>
            <LinearRing>
              <coordinates>-6.152330000000001,53.2997566080296,0 -6.15159251107953,53.29973495335872,0 -6.15086212680607,53.29967019795788,0 -6.150145883319436,53.299562965651006,0 -6.149450680408107,53.2994142894589,0 -6.148783214984675,53.299225601638554,0 -6.148149916524473,53.29899871987341,0 -6.1475568850916975,53.29873582974828,0 -6.147009832551954,53.2984394636783,0 -6.146514027538957,53.29811247649572,0 -6.146074244706314,53.29775801793087,0 -6.145694718753482,53.29737950225286,0 -6.145379103668283,53.29698057536384,0 -6.145130437577571,53.29656507966421,0 -6.144951113542971,53.29613701702847,0 -6.144842856580851,53.29570051024861,0 -6.14480670712528,53.29525976331735,0 -6.144843011090322,53.29481902093387,0 -6.144951416624202,53.2943825276226,0 -6.145130877583318,53.293954486858695,0 -6.145379663689374,53.2935390205936,0 -6.145695377268622,53.29314012957065,0 -6.146074976409135,53.292761654811954,0 -6.14651480431053,53.29240724064713,0 -6.147010624541384,53.29208029963905,0 -6.147557661863274,53.29178397974357,0 -6.148150648227302,53.291521134018474,0 -6.148783873499824,53.29129429317265,0 -6.149451240429209,53.29110564121836,0 -6.150146323325194,53.290956994460785,0 -6.150862429887308,53.290849784025745,0 -6.151592665589004,53.2907850420935,0 -6.152330000000001,53.29076339197043,0 -6.153067334410995,53.2907850420935,0 -6.153797570112692,53.290849784025745,0 -6.1545136766748065,53.290956994460785,0 -6.155208759570792,53.29110564121836,0 -6.155876126500177,53.29129429317265,0 -6.1565093517727,53.291521134018474,0 -6.157102338136726,53.29178397974357,0 -6.157649375458616,53.29208029963905,0 -6.158145195689471,53.29240724064713,0 -6.158585023590866,53.292761654811954,0 -6.1589646227313795,53.29314012957065,0 -6.159280336310627,53.2935390205936,0 -6.159529122416683,53.293954486858695,0 -6.159708583375799,53.2943825276226,0 -6.159816988909679,53.29481902093387,0 -6.159853292874721,53.29525976331735,0 -6.159817143419149,53.29570051024861,0 -6.15970888645703,53.29613701702847,0 -6.15952956242243,53.29656507966421,0 -6.159280896331718,53.29698057536384,0 -6.158965281246519,53.29737950225286,0 -6.158585755293686,53.29775801793087,0 -6.158145972461044,53.29811247649572,0 -6.157650167448047,53.2984394636783,0 -6.1571031149083035,53.29873582974828,0 -6.156510083475527,53.29899871987341,0 -6.155876785015326,53.299225601638554,0 -6.155209319591894,53.2994142894589,0 -6.154514116680565,53.299562965651006,0 -6.1537978731939305,53.29967019795788,0 -6.153067488920471,53.29973495335872,0 -6.152330000000001,53.2997566080296,0</coordinates>
            </LinearRing>
          </outerBoundaryIs>
        </Polygon>
      </Placemark>
      <Placemark>
        <name>Dun Laoghaire (Mallin) (DART) Circle</name>
        <Polygon>
          <outerBoundaryIs>
            <LinearRing>
              <coordinates>-6.134575,53.29927260802959,0 -6.133837519437324,53.299250953358744,0 -6.133107143441106,53.29918619795803,0 -6.1323909080713825,53.29907896565135,0 -6.131695713038404,53.29893028945952,0 -6.131028255178842,53.29874160163947,0 -6.130394963895146,53.29851471987468,0 -6.129801939182363,53.298251829749965,0 -6.129254892841367,53.29795546368037,0 -6.128759093446165,53.2976284764982,0 -6.128319315596272,53.29727401793375,0 -6.127939793943176,53.2968955022561,0 -6.127624182433319,53.296496575367385,0 -6.127375519159167,53.29608107966803,0 -6.127196197155268,53.29565301703247,0 -6.12708794141849,53.295216510252736,0 -6.127051792371164,53.29477576332151,0 -6.127088095923486,53.29433502093799,0 -6.127196500227721,53.29389852762662,0 -6.127375959152172,53.2934704868625,0 -6.127624742438193,53.29305502059715,0 -6.127940452439245,53.292656129573885,0 -6.128320047277904,53.292277654814825,0 -6.1287598701952435,53.291923240649616,0 -6.129255684807861,53.291596299641135,0 -6.129802715931445,53.291299979745226,0 -6.130395695576785,53.29103713401976,0 -6.131028913674922,53.29081029317356,0 -6.131696273043289,53.290621641218955,0 -6.132391348064398,53.29047299446113,0 -6.133107446513567,53.290365784025894,0 -6.133837673942327,53.29030104209354,0 -6.134575,53.29027939197041,0 -6.135312326057673,53.29030104209354,0 -6.136042553486433,53.290365784025894,0 -6.136758651935602,53.29047299446113,0 -6.13745372695671,53.290621641218955,0 -6.138121086325077,53.29081029317356,0 -6.138754304423216,53.29103713401976,0 -6.139347284068554,53.291299979745226,0 -6.139894315192138,53.291596299641135,0 -6.140390129804757,53.291923240649616,0 -6.140829952722096,53.292277654814825,0 -6.141209547560754,53.292656129573885,0 -6.141525257561806,53.29305502059715,0 -6.141774040847827,53.2934704868625,0 -6.141953499772279,53.29389852762662,0 -6.142061904076513,53.29433502093799,0 -6.142098207628836,53.29477576332151,0 -6.1420620585815096,53.295216510252736,0 -6.141953802844731,53.29565301703247,0 -6.141774480840832,53.29608107966803,0 -6.14152581756668,53.296496575367385,0 -6.141210206056825,53.2968955022561,0 -6.140830684403727,53.29727401793375,0 -6.140390906553835,53.2976284764982,0 -6.139895107158634,53.29795546368037,0 -6.139348060817636,53.298251829749965,0 -6.138755036104855,53.29851471987468,0 -6.138121744821157,53.29874160163947,0 -6.137454286961595,53.29893028945952,0 -6.136759091928617,53.29907896565135,0 -6.136042856558893,53.29918619795803,0 -6.135312480562675,53.299250953358744,0 -6.134575,53.29927260802959,0</coordinates>
            </LinearRing>
          </outerBoundaryIs>
        </Polygon>
      </Placemark>
      <Placemark>
        <name>Tara Street (DART) Circle</name>
        <Polygon>
          <outerBoundaryIs>
            <LinearRing>
              <coordinates>-6.254359,53.35176060802959,0 -6.253620611653238,53.35173895335439,0 -6.252889336622392,53.35167419794078,0 -6.252172219632436,53.35156696561318,0 -6.251476168890309,53.351418289393145,0 -6.25080788947907,53.351229601538776,0 -6.250173818717625,53.35100271973482,0 -6.249580064111134,53.3507398295676,0 -6.249032344491789,53.35044346345382,0 -6.248535934918323,53.35011647622748,0 -6.248095615865907,53.349762017620506,0 -6.247715627196058,53.3493835019037,0 -6.247399627349533,53.34898457498067,0 -6.247150658154218,53.34856907925315,0 -6.246971115585409,53.34814101659668,0 -6.2468627267579295,53.34770450980406,0 -6.246826533369112,53.34726376286848,0 -6.246862881749182,53.346823020489325,0 -6.246971419611689,53.346386527190845,0 -6.247151099531963,53.34595848644768,0 -6.247400189116847,53.345543020210506,0 -6.247716287764539,53.34514412922156,0 -6.248096349850277,53.344765654501664,0 -6.248536714111976,53.344411240378946,0 -6.24903313895075,53.34408429941465,0 -6.249580843304793,53.34378797956293,0 -6.250174552702004,53.34352513387996,0 -6.250808550047561,53.34329829307291,0 -6.251476730657635,53.34310964115263,0 -6.25217266101019,53.34296099442296,0 -6.25288964064868,53.34285378400866,0 -6.253620766644493,53.342789042089194,0 -6.254359,53.342767391970405,0 -6.255097233355506,53.342789042089194,0 -6.255828359351321,53.34285378400866,0 -6.2565453389898105,53.34296099442296,0 -6.257241269342366,53.34310964115263,0 -6.257909449952439,53.34329829307291,0 -6.258543447297996,53.34352513387996,0 -6.259137156695207,53.34378797956293,0 -6.259684861049249,53.34408429941465,0 -6.260181285888025,53.344411240378946,0 -6.260621650149723,53.344765654501664,0 -6.261001712235461,53.34514412922156,0 -6.2613178108831535,53.345543020210506,0 -6.261566900468037,53.34595848644768,0 -6.261746580388312,53.346386527190845,0 -6.261855118250818,53.346823020489325,0 -6.261891466630889,53.34726376286848,0 -6.261855273242071,53.34770450980406,0 -6.261746884414592,53.34814101659668,0 -6.261567341845783,53.34856907925315,0 -6.261318372650468,53.34898457498067,0 -6.261002372803941,53.3493835019037,0 -6.260622384134094,53.349762017620506,0 -6.260182065081678,53.35011647622748,0 -6.259685655508212,53.35044346345382,0 -6.259137935888867,53.3507398295676,0 -6.258544181282375,53.35100271973482,0 -6.25791011052093,53.351229601538776,0 -6.257241831109692,53.351418289393145,0 -6.256545780367565,53.35156696561318,0 -6.255828663377608,53.35167419794078,0 -6.255097388346763,53.35173895335439,0 -6.254359,53.35176060802959,0</coordinates>
            </LinearRing>
          </outerBoundaryIs>
        </Polygon>
      </Placemark>
      <Placemark>
        <name>Clontarf Road (DART) Circle</name>
        <Polygon>
          <outerBoundaryIs>
            <LinearRing>
              <coordinates>-6.226783999999999,53.36757360802959,0 -6.226045337606343,53.36755195335307,0 -6.225313791169943,53.367487197935574,0 -6.224596408031586,53.36737996560165,0 -6.223900098963247,53.36723128937312,0 -6.223231571537448,53.367042601508395,0 -6.222597265462957,53.36681571969263,0 -6.222003290512134,53.36655282951257,0 -6.221455367639821,53.36625646338547,0 -6.220958773862397,53.365929476145766,0 -6.220518291428808,53.36557501752598,0 -6.2201381617734075,53.36519650179738,0 -6.219822044693709,53.36479757486398,0 -6.219572983145274,53.36438207912796,0 -6.219393373991167,53.363954016465165,0 -6.219284944985586,53.36351750966866,0 -6.219248738210767,53.36307676273178,0 -6.219285100123735,53.36263602035393,0 -6.219393678305595,53.36219952705935,0 -6.2195734249413475,53.361771486322496,0 -6.2198226069934535,53.36135602009382,0 -6.220138822967959,53.36095712911524,0 -6.220519026108834,53.36057865440718,0 -6.220959553794553,53.36022424029727,0 -6.221456162851753,53.35989729934631,0 -6.222004070444294,53.359600979507924,0 -6.222598000142988,53.35933813383776,0 -6.22323223273201,53.35911129304254,0 -6.223900661263002,53.35892264113262,0 -6.2245968498276705,53.358773994411436,0 -6.2253140954843795,53.358666784003454,0 -6.226045492744499,53.358602042087874,0 -6.226783999999999,53.358580391970406,0 -6.227522507255502,53.358602042087874,0 -6.228253904515621,53.358666784003454,0 -6.22897115017233,53.358773994411436,0 -6.2296673387369985,53.35892264113262,0 -6.230335767267991,53.35911129304254,0 -6.230969999857012,53.35933813383776,0 -6.231563929555707,53.359600979507924,0 -6.232111837148247,53.35989729934631,0 -6.232608446205448,53.36022424029727,0 -6.233048973891167,53.36057865440718,0 -6.233429177032042,53.36095712911524,0 -6.233745393006547,53.36135602009382,0 -6.233994575058653,53.361771486322496,0 -6.234174321694406,53.36219952705935,0 -6.234282899876265,53.36263602035393,0 -6.234319261789234,53.36307676273178,0 -6.234283055014415,53.36351750966866,0 -6.2341746260088335,53.363954016465165,0 -6.233995016854727,53.36438207912796,0 -6.233745955306292,53.36479757486398,0 -6.233429838226593,53.36519650179738,0 -6.233049708571192,53.36557501752598,0 -6.232609226137604,53.365929476145766,0 -6.232112632360179,53.36625646338547,0 -6.231564709487866,53.36655282951257,0 -6.230970734537044,53.36681571969263,0 -6.230336428462553,53.367042601508395,0 -6.229667901036754,53.36723128937312,0 -6.228971591968414,53.36737996560165,0 -6.228254208830058,53.367487197935574,0 -6.227522662393658,53.36755195335307,0 -6.226783999999999,53.36757360802959,0</coordinates>
            </LinearRing>
          </outerBoundaryIs>
        </Polygon>
      </Placemark>
      <Placemark>
        <name>Harmonstown (DART) Circle</name>
        <Polygon>
          <outerBoundaryIs>
            <LinearRing>
              <coordinates>-6.19131,53.383139608029595,0 -6.190571067586335,53.38311795335178,0 -6.18983925373245,53.383053197930444,0 -6.189121608356519,53.3829459655903,0 -6.188425044757852,53.382797289353405,0 -6.18775627296186,53.382608601478466,0 -6.187121735032057,53.38238171965105,0 -6.186527542974686,53.38211882945837,0 -6.185979419836047,53.38182246331812,0 -6.185482644561404,53.38149547606528,0 -6.185042001147411,53.381141017432874,0 -6.184661732578139,53.38076250169261,0 -6.184345499987934,53.380363574749026,0 -6.184096347443457,53.379948079004635,0 -6.183916672682491,53.379520016335626,0 -6.183808204089216,53.3790835095353,0 -6.183771984125117,53.37864276259711,0 -6.183808359372152,53.378202020220556,0 -6.183916977280925,53.37776552692982,0 -6.184096789651844,53.37733748619919,0 -6.1843460628124545,53.37692201997889,0 -6.184662394389761,53.37652312901052,0 -6.185042736513088,53.37614465431408,0 -6.185483425221444,53.37579024021682,0 -6.185980215790126,53.375463299278984,0 -6.186528323634731,53.375166979453745,0 -6.1871224703977425,53.3749041337962,0 -6.187756934773493,53.374677293012624,0 -6.188425607582384,53.3744886411129,0 -6.189122050564917,53.3743399944001,0 -6.189839558330893,53.37423278399834,0 -6.190571222869274,53.37416804208659,0 -6.19131,53.374146391970406,0 -6.192048777130727,53.37416804208659,0 -6.192780441669107,53.37423278399834,0 -6.193497949435082,53.3743399944001,0 -6.194194392417616,53.3744886411129,0 -6.194863065226507,53.374677293012624,0 -6.1954975296022585,53.3749041337962,0 -6.196091676365269,53.375166979453745,0 -6.196639784209875,53.375463299278984,0 -6.197136574778556,53.37579024021682,0 -6.197577263486912,53.37614465431408,0 -6.197957605610238,53.37652312901052,0 -6.198273937187545,53.37692201997889,0 -6.198523210348156,53.37733748619919,0 -6.198703022719076,53.37776552692982,0 -6.198811640627848,53.378202020220556,0 -6.198848015874883,53.37864276259711,0 -6.198811795910784,53.3790835095353,0 -6.19870332731751,53.379520016335626,0 -6.198523652556543,53.379948079004635,0 -6.198274500012066,53.380363574749026,0 -6.197958267421861,53.38076250169261,0 -6.19757799885259,53.381141017432874,0 -6.197137355438597,53.38149547606528,0 -6.196640580163953,53.38182246331812,0 -6.196092457025315,53.38211882945837,0 -6.195498264967942,53.38238171965105,0 -6.19486372703814,53.382608601478466,0 -6.194194955242147,53.382797289353405,0 -6.193498391643481,53.3829459655903,0 -6.192780746267549,53.383053197930444,0 -6.192048932413666,53.38311795335178,0 -6.19131,53.383139608029595,0</coordinates>
            </LinearRing>
          </outerBoundaryIs>
        </Polygon>
      </Placemark>
      <Placemark>
        <name>Dublin Pearse (DART) Circle</name>
        <Polygon>
          <outerBoundaryIs>
            <LinearRing>
              <coordinates>-6.248048,53.347748608029605,0 -6.247309681141846,53.34772695335473,0 -6.24657847492986,53.3476621979421,0 -6.245861425425733,53.34755496561609,0 -6.245165440186008,53.34740628939823,0 -6.2444972236625,53.34721760154649,0 -6.243863212568129,53.346990719745534,0 -6.243269513833177,53.34672782958156,0 -6.242721845751604,53.34643146347118,0 -6.242225482885757,53.34610447624819,0 -6.241785205261036,53.345750017644484,0 -6.241405252340147,53.34537150193068,0 -6.241089282219815,53.34497257501028,0 -6.240840336441992,53.34455707928491,0 -6.240660810756868,53.34412901663003,0 -6.240552432117139,53.34369250983839,0 -6.240516242122543,53.34325176290316,0 -6.240552587071152,53.34281102052366,0 -6.240661114710096,53.3423745272242,0 -6.240840777713686,53.34194648647943,0 -6.241089843852152,53.34153102024009,0 -6.241405912749911,53.341132129248535,0 -6.241785939069049,53.34075365452564,0 -6.242226261892191,53.340399240399655,0 -6.24272264001968,53.340072299431995,0 -6.2432702928396155,53.3397759795769,0 -6.24386394637615,53.33951313389066,0 -6.244497884072272,53.33928629308062,0 -6.245166001818355,53.33909764115772,0 -6.245861866697438,53.33894899442589,0 -6.246578778883097,53.338841784009986,0 -6.247309836095863,53.33877704208954,0 -6.248048,53.338755391970416,0 -6.248786163904137,53.33877704208954,0 -6.249517221116903,53.338841784009986,0 -6.250234133302563,53.33894899442589,0 -6.250929998181645,53.33909764115772,0 -6.251598115927727,53.33928629308062,0 -6.2522320536238505,53.33951313389066,0 -6.252825707160385,53.3397759795769,0 -6.253373359980321,53.340072299431995,0 -6.253869738107809,53.340399240399655,0 -6.25431006093095,53.34075365452564,0 -6.254690087250089,53.341132129248535,0 -6.255006156147848,53.34153102024009,0 -6.255255222286315,53.34194648647943,0 -6.255434885289905,53.3423745272242,0 -6.255543412928849,53.34281102052366,0 -6.255579757877459,53.34325176290316,0 -6.255543567882862,53.34369250983839,0 -6.2554351892431335,53.34412901663003,0 -6.2552556635580085,53.34455707928491,0 -6.255006717780185,53.34497257501028,0 -6.254690747659853,53.34537150193068,0 -6.254310794738964,53.345750017644484,0 -6.253870517114244,53.34610447624819,0 -6.253374154248396,53.34643146347118,0 -6.252826486166824,53.34672782958156,0 -6.252232787431873,53.346990719745534,0 -6.251598776337501,53.34721760154649,0 -6.250930559813993,53.34740628939823,0 -6.250234574574267,53.34755496561609,0 -6.24951752507014,53.3476621979421,0 -6.248786318858155,53.34772695335473,0 -6.248048,53.347748608029605,0</coordinates>
            </LinearRing>
          </outerBoundaryIs>
        </Polygon>
      </Placemark>
      <Placemark>
        <name>Grand Canal Dock (DART) Circle</name>
        <Polygon>
          <outerBoundaryIs>
            <LinearRing>
              <coordinates>-6.237351,53.34394260802959,0 -6.2366127470470625,53.34392095335504,0 -6.235881606105081,53.34385619794336,0 -6.23516462060667,53.34374896561887,0 -6.234468697491513,53.34360028940304,0 -6.233800540612739,53.34341160155379,0 -6.233166586108527,53.343184719755676,0 -6.232572940363929,53.342921829594786,0 -6.2320253211624275,53.3426254634876,0 -6.231529002595577,53.34229847626782,0 -6.231088764262208,53.34194401766721,0 -6.230708845246776,53.341565501956254,0 -6.230392903319716,53.34116657503833,0 -6.230143979751792,53.340751079315005,0 -6.229964470079694,53.34032301666166,0 -6.229856101102356,53.33988650987095,0 -6.2298199143269475,53.33944576293602,0 -6.22985625602105,53.33900502055622,0 -6.229964773963646,53.33856852725582,0 -6.230144420922912,53.33814048650952,0 -6.230393464824046,53.33772502026815,0 -6.230709505506018,53.33732612927409,0 -6.231089497902972,53.33694765454836,0 -6.23152978142446,53.336593240419305,0 -6.232026115249473,53.33626629944841,0 -6.232573719192817,53.335969979590125,0 -6.2331673197493,53.33570713390079,0 -6.2338012008719925,53.33548029308792,0 -6.234469258995855,53.33529164116252,0 -6.235165061777802,53.335142994428644,0 -6.235881909989041,53.33503578401122,0 -6.236612901965761,53.33497104208985,0 -6.237351,53.3349493919704,0 -6.238089098034238,53.33497104208985,0 -6.238820090010959,53.33503578401122,0 -6.239536938222199,53.335142994428644,0 -6.240232741004146,53.33529164116252,0 -6.240900799128008,53.33548029308792,0 -6.241534680250701,53.33570713390079,0 -6.242128280807183,53.335969979590125,0 -6.242675884750527,53.33626629944841,0 -6.243172218575539,53.336593240419305,0 -6.243612502097029,53.33694765454836,0 -6.243992494493982,53.33732612927409,0 -6.244308535175954,53.33772502026815,0 -6.244557579077089,53.33814048650952,0 -6.244737226036355,53.33856852725582,0 -6.244845743978949,53.33900502055622,0 -6.244882085673053,53.33944576293602,0 -6.244845898897645,53.33988650987095,0 -6.2447375299203065,53.34032301666166,0 -6.244558020248208,53.340751079315005,0 -6.2443090966802846,53.34116657503833,0 -6.243993154753225,53.341565501956254,0 -6.243613235737793,53.34194401766721,0 -6.243172997404423,53.34229847626782,0 -6.242676678837573,53.3426254634876,0 -6.2421290596360715,53.342921829594786,0 -6.241535413891474,53.343184719755676,0 -6.240901459387262,53.34341160155379,0 -6.240233302508486,53.34360028940304,0 -6.23953737939333,53.34374896561887,0 -6.23882039389492,53.34385619794336,0 -6.238089252952937,53.34392095335504,0 -6.237351,53.34394260802959,0</coordinates>
            </LinearRing>
          </outerBoundaryIs>
        </Polygon>
      </Placemark>
      <Placemark>
        <name>Howth (DART) Circle</name>
        <Polygon>
          <outerBoundaryIs>
            <LinearRing>
              <coordinates>-6.074211,53.393389608029594,0 -6.0734718896442,53.393367953350925,0 -6.072739899563235,53.393303197927075,0 -6.072022081373764,53.39319596558283,0 -6.071325350040604,53.393047289340416,0 -6.070656417205608,53.39285860145875,0 -6.070021726484063,53.392631719623665,0 -6.069427391354327,53.392368829422665,0 -6.068879136240969,53.39207246327376,0 -6.068382241360372,53.39174547601227,0 -6.067941491860931,53.39139101737153,0 -6.067561131747972,53.39101250162361,0 -6.067244823036807,53.39061357467328,0 -6.066995610526305,53.39019807892338,0 -6.0668158925306885,53.389770016250274,0 -6.066707397849294,53.38933350944741,0 -6.066671169193522,53.388892762508384,0 -6.066707553227668,53.388452020132696,0 -6.066816197316333,53.38801552684448,0 -6.066996053006479,53.38758748611795,0 -6.067245386207245,53.38717201990316,0 -6.067561793966352,53.38677312894151,0 -6.067942227678571,53.38639465425275,0 -6.068383022500217,53.3860402401638,0 -6.068879932684249,53.385713299234624,0 -6.069428172494175,53.38541697941805,0 -6.070022462301712,53.385154133768836,0 -6.070657079423998,53.38492729299291,0 -6.071325913211054,53.384738641099915,0 -6.0720225238539465,53.38458999439263,0 -6.0727402043488885,53.38448278399496,0 -6.073472045022577,53.38441804208575,0 -6.074211,53.38439639197041,0 -6.0749499549774235,53.38441804208575,0 -6.075681795651112,53.38448278399496,0 -6.076399476146054,53.38458999439263,0 -6.077096086788946,53.384738641099915,0 -6.077764920576002,53.38492729299291,0 -6.07839953769829,53.385154133768836,0 -6.078993827505826,53.38541697941805,0 -6.079542067315752,53.385713299234624,0 -6.080038977499785,53.3860402401638,0 -6.080479772321429,53.38639465425275,0 -6.080860206033648,53.38677312894151,0 -6.081176613792755,53.38717201990316,0 -6.081425946993522,53.38758748611795,0 -6.081605802683668,53.38801552684448,0 -6.081714446772334,53.388452020132696,0 -6.081750830806478,53.388892762508384,0 -6.081714602150706,53.38933350944741,0 -6.0816061074693115,53.389770016250274,0 -6.081426389473695,53.39019807892338,0 -6.081177176963193,53.39061357467328,0 -6.080860868252028,53.39101250162361,0 -6.08048050813907,53.39139101737153,0 -6.080039758639629,53.39174547601227,0 -6.079542863759032,53.39207246327376,0 -6.078994608645673,53.392368829422665,0 -6.078400273515937,53.392631719623665,0 -6.077765582794393,53.39285860145875,0 -6.077096649959396,53.393047289340416,0 -6.076399918626237,53.39319596558283,0 -6.075682100436766,53.393303197927075,0 -6.074950110355801,53.393367953350925,0 -6.074211,53.393389608029594,0</coordinates>
            </LinearRing>
          </outerBoundaryIs>
        </Polygon>
      </Placemark>
      <Placemark>
        <name>Sutton (DART) Circle</name>
        <Polygon>
          <outerBoundaryIs>
            <LinearRing>
              <coordinates>-6.115952000000001,53.3964016080296,0 -6.115212837334462,53.396379953350674,0 -6.114480795447935,53.39631519792608,0 -6.113762926456381,53.39620796558062,0 -6.11306614581423,53.39605928933658,0 -6.1123971656385185,53.39587060145294,0 -6.111762430000709,53.39564371961562,0 -6.11116805281192,53.39538082941217,0 -6.110619758901889,53.39508446326071,0 -6.110122828860672,53.39475747599668,0 -6.10968204817524,53.3944030173535,0 -6.109301661151141,53.39402450160332,0 -6.108985330062661,53.39362557465103,0 -6.10873609992392,53.39321007889949,0 -6.108556369218594,53.39278201622518,0 -6.108447866868063,53.392345509421574,0 -6.108411635657198,53.391904762482305,0 -6.108448022274496,53.39146402010686,0 -6.10855667405928,53.39102752681938,0 -6.108736542484,53.39059948609407,0 -6.108985893334803,53.3901840198809,0 -6.1093023234891115,53.389785128921226,0 -6.109682784125764,53.38940665423472,0 -6.110123610141583,53.38905224014822,0 -6.110620555488999,53.38872529922159,0 -6.111168834092834,53.38842897940754,0 -6.11176316595124,53.38816613376078,0 -6.112397827976499,53.38793929298712,0 -6.113066709086383,53.3877506410961,0 -6.113763369016472,53.38760199439044,0 -6.1144811002886295,53.38749478399396,0 -6.115212992740901,53.3874300420855,0 -6.115952000000001,53.38740839197042,0 -6.116691007259101,53.3874300420855,0 -6.117422899711372,53.38749478399396,0 -6.118140630983528,53.38760199439044,0 -6.118837290913619,53.3877506410961,0 -6.119506172023502,53.38793929298712,0 -6.120140834048761,53.38816613376078,0 -6.120735165907167,53.38842897940754,0 -6.121283444511002,53.38872529922159,0 -6.121780389858418,53.38905224014822,0 -6.122221215874238,53.38940665423472,0 -6.12260167651089,53.389785128921226,0 -6.122918106665198,53.3901840198809,0 -6.123167457516001,53.39059948609407,0 -6.123347325940721,53.39102752681938,0 -6.123455977725504,53.39146402010686,0 -6.123492364342803,53.391904762482305,0 -6.123456133131938,53.392345509421574,0 -6.123347630781407,53.39278201622518,0 -6.123167900076081,53.39321007889949,0 -6.122918669937339,53.39362557465103,0 -6.12260233884886,53.39402450160332,0 -6.12222195182476,53.3944030173535,0 -6.121781171139328,53.39475747599668,0 -6.121284241098112,53.39508446326071,0 -6.120735947188082,53.39538082941217,0 -6.1201415699992925,53.39564371961562,0 -6.1195068343614825,53.39587060145294,0 -6.118837854185771,53.39605928933658,0 -6.118141073543621,53.39620796558062,0 -6.1174232045520665,53.39631519792608,0 -6.116691162665539,53.396379953350674,0 -6.115952000000001,53.3964016080296,0</coordinates>
            </LinearRing>
          </outerBoundaryIs>
        </Polygon>
      </Placemark>
      <Placemark>
        <name>Dublin Connolly (DART) Circle</name>
        <Polygon>
          <outerBoundaryIs>
            <LinearRing>
              <coordinates>-6.247731,53.3570826080296,0 -6.246992519449403,53.357060953353965,0 -6.246261153103409,53.35699619793904,0 -6.2455439465670874,53.35688896560931,0 -6.244847808910393,53.35674028938642,0 -6.24417944605397,53.356551601528565,0 -6.243545296120797,53.35632471972064,0 -6.242951467378848,53.3560618295491,0 -6.242403679374478,53.35576546343083,0 -6.241907207825078,53.355438476199986,0 -6.2414668338026145,53.355084017588716,0 -6.241086797697784,53.35470550186795,0 -6.24077075840783,53.35430657494141,0 -6.2405217581400505,53.35389107921104,0 -6.240342193168431,53.35346301655244,0 -6.240233790822916,53.353026509758514,0 -6.240197592930337,53.35258576282249,0 -6.240233945863587,53.35214502044377,0 -6.240342497291648,53.35170852714661,0 -6.240522199658528,53.351280486405564,0 -6.240771320354263,53.350865020171256,0 -6.241087458476885,53.35046612918579,0 -6.241467568021014,53.350087654469874,0 -6.241907987267176,53.34973324035147,0 -6.242404474086752,53.34940629939166,0 -6.242952246820949,53.349109979544444,0 -6.243546030339205,53.34884713386577,0 -6.24418010683308,53.3486202930627,0 -6.244848370856836,53.34843164114591,0 -6.245544388085575,53.348282994419094,0 -6.246261457226634,53.34817578400692,0 -6.246992674490079,53.348111042088746,0 -6.247731,53.34808939197042,0 -6.248469325509921,53.348111042088746,0 -6.249200542773367,53.34817578400692,0 -6.249917611914425,53.348282994419094,0 -6.250613629143164,53.34843164114591,0 -6.25128189316692,53.3486202930627,0 -6.251915969660794,53.34884713386577,0 -6.2525097531790506,53.349109979544444,0 -6.253057525913249,53.34940629939166,0 -6.253554012732824,53.34973324035147,0 -6.2539944319789855,53.350087654469874,0 -6.254374541523115,53.35046612918579,0 -6.254690679645737,53.350865020171256,0 -6.254939800341472,53.351280486405564,0 -6.255119502708352,53.35170852714661,0 -6.255228054136413,53.35214502044377,0 -6.255264407069662,53.35258576282249,0 -6.255228209177084,53.353026509758514,0 -6.255119806831569,53.35346301655244,0 -6.25494024185995,53.35389107921104,0 -6.25469124159217,53.35430657494141,0 -6.2543752023022146,53.35470550186795,0 -6.253995166197386,53.355084017588716,0 -6.2535547921749215,53.355438476199986,0 -6.253058320625522,53.35576546343083,0 -6.2525105326211525,53.3560618295491,0 -6.2519167038792025,53.35632471972064,0 -6.251282553946031,53.356551601528565,0 -6.250614191089607,53.35674028938642,0 -6.249918053432912,53.35688896560931,0 -6.249200846896592,53.35699619793904,0 -6.248469480550598,53.357060953353965,0 -6.247731,53.3570826080296,0</coordinates>
            </LinearRing>
          </outerBoundaryIs>
        </Polygon>
      </Placemark>
      <Placemark>
        <name>Sandymount (DART) Circle</name>
        <Polygon>
          <outerBoundaryIs>
            <LinearRing>
              <coordinates>-6.2208429999999995,53.3323366080296,0 -6.220104947925418,53.332314953356004,0 -6.219374005925672,53.332250197947175,0 -6.218657215515965,53.33214296562731,0 -6.217961481755796,53.33199428941772,0 -6.217293506673494,53.331805601576065,0 -6.216659724655456,53.331578719786634,0 -6.216066240424859,53.331315829635145,0 -6.215518770209269,53.33101946353773,0 -6.2150225866652695,53.33069247632775,0 -6.2145824680915025,53.33033801773651,0 -6.214202652419526,53.329959502034214,0 -6.213886796425254,53.3295605751239,0 -6.213637940552861,53.3291450794068,0 -6.2134584796882955,53.32871701675807,0 -6.213350140161823,53.32828050997023,0 -6.213313963198476,53.32783976303626,0 -6.213350294972889,53.327399020655484,0 -6.213458783361127,53.32696252735224,0 -6.213638381417479,53.32653448660132,0 -6.213887357539482,53.326119020353694,0 -6.214203312220056,53.32572012935205,0 -6.214583201222575,53.32534165461765,0 -6.2150233649530655,53.32498724047918,0 -6.215519563744627,53.324660299498525,0 -6.2160670187126605,53.32436397963044,0 -6.216660457786535,53.32410113393173,0 -6.217294166474035,53.32387429311019,0 -6.217962042870035,53.32368564117721,0 -6.2186576563805955,53.323536994437085,0 -6.219374309598511,53.32342978401504,0 -6.220105102736489,53.3233650420908,0 -6.2208429999999995,53.32334339197041,0 -6.221580897263512,53.3233650420908,0 -6.22231169040149,53.32342978401504,0 -6.223028343619405,53.323536994437085,0 -6.223723957129965,53.32368564117721,0 -6.2243918335259645,53.32387429311019,0 -6.225025542213465,53.32410113393173,0 -6.225618981287341,53.32436397963044,0 -6.226166436255373,53.324660299498525,0 -6.226662635046935,53.32498724047918,0 -6.227102798777426,53.32534165461765,0 -6.227482687779945,53.32572012935205,0 -6.227798642460519,53.326119020353694,0 -6.22804761858252,53.32653448660132,0 -6.228227216638874,53.32696252735224,0 -6.228335705027112,53.327399020655484,0 -6.228372036801525,53.32783976303626,0 -6.228335859838178,53.32828050997023,0 -6.228227520311704,53.32871701675807,0 -6.22804805944714,53.3291450794068,0 -6.227799203574746,53.3295605751239,0 -6.227483347580476,53.329959502034214,0 -6.227103531908498,53.33033801773651,0 -6.226663413334731,53.33069247632775,0 -6.2261672297907324,53.33101946353773,0 -6.2256197595751415,53.331315829635145,0 -6.225026275344545,53.331578719786634,0 -6.224392493326508,53.331805601576065,0 -6.223724518244205,53.33199428941772,0 -6.223028784484035,53.33214296562731,0 -6.222311994074328,53.332250197947175,0 -6.2215810520745825,53.332314953356004,0 -6.2208429999999995,53.3323366080296,0</coordinates>
            </LinearRing>
          </outerBoundaryIs>
        </Polygon>
      </Placemark>
      <Placemark>
        <name>Lansdowne Road (DART) Circle</name>
        <Polygon>
          <outerBoundaryIs>
            <LinearRing>
              <coordinates>-6.229191,53.338459608029595,0 -6.228452841965033,53.338437953355495,0 -6.227721795026176,53.33837319794516,0 -6.227004901710042,53.33826596562286,0 -6.226309068067894,53.33811728940999,0 -6.225640997090619,53.33792860156432,0 -6.2250071240886555,53.33770171977031,0 -6.2244135546617905,53.33743882961386,0 -6.2238660058583175,53.33714246351129,0 -6.223369751091743,53.336815476296145,0 -6.222929569346544,53.33646101769997,0 -6.222549699162407,53.3360825019931,0 -6.222233797839849,53.33568357507877,0 -6.221984906259055,53.33526807935838,0 -6.221805419649232,53.334840016707226,0 -6.221697064587857,53.33440350991786,0 -6.22166088244879,53.33396276298339,0 -6.221697219455693,53.33352202060313,0 -6.221805723433419,53.33308552730139,0 -6.22198534728534,53.332657486552904,0 -6.22223435915984,53.33224202030857,0 -6.222550359204888,53.33184312931093,0 -6.222930302746455,53.3314646545811,0 -6.2233705296649395,53.33111024044761,0 -6.223866799684666,53.33078329947211,0 -6.224414333234991,53.330486979609184,0 -6.225007857488575,53.33022413391542,0 -6.225641657133111,53.32999729309845,0 -6.226309629387894,53.329808641169464,0 -6.227005342736336,53.32965999443264,0 -6.227722098810372,53.32955278401304,0 -6.228452996832873,53.32948804209031,0 -6.229191,53.32946639197041,0 -6.229929003167129,53.32948804209031,0 -6.230659901189629,53.32955278401304,0 -6.231376657263664,53.32965999443264,0 -6.232072370612107,53.329808641169464,0 -6.23274034286689,53.32999729309845,0 -6.233374142511427,53.33022413391542,0 -6.233967666765009,53.330486979609184,0 -6.234515200315334,53.33078329947211,0 -6.235011470335061,53.33111024044761,0 -6.235451697253546,53.3314646545811,0 -6.235831640795112,53.33184312931093,0 -6.236147640840162,53.33224202030857,0 -6.236396652714662,53.332657486552904,0 -6.236576276566582,53.33308552730139,0 -6.236684780544309,53.33352202060313,0 -6.236721117551212,53.33396276298339,0 -6.2366849354121445,53.33440350991786,0 -6.2365765803507704,53.334840016707226,0 -6.236397093740945,53.33526807935838,0 -6.236148202160151,53.33568357507877,0 -6.235832300837593,53.3360825019931,0 -6.235452430653458,53.33646101769997,0 -6.235012248908257,53.336815476296145,0 -6.234515994141684,53.33714246351129,0 -6.23396844533821,53.33743882961386,0 -6.2333748759113465,53.33770171977031,0 -6.232741002909382,53.33792860156432,0 -6.232072931932107,53.33811728940999,0 -6.23137709828996,53.33826596562286,0 -6.230660204973825,53.33837319794516,0 -6.2299291580349685,53.338437953355495,0 -6.229191,53.338459608029595,0</coordinates>
            </LinearRing>
          </outerBoundaryIs>
        </Polygon>
      </Placemark>
      <Placemark>
        <name>Kilbarrack (DART) Circle</name>
        <Polygon>
          <outerBoundaryIs>
            <LinearRing>
              <coordinates>-6.160890000000001,53.39196860802959,0 -6.160150914319585,53.39194695335106,0 -6.159418948676178,53.39188219792754,0 -6.158701154450905,53.391774965583856,0 -6.158004446377628,53.39162628934221,0 -6.157335535874046,53.39143760146148,0 -6.156700866340259,53.391210719627466,0 -6.156106551050487,53.39094782942761,0 -6.155558314238175,53.3906514632799,0 -6.155061435943434,53.39032447601962,0 -6.154620701154951,53.38997001738003,0 -6.154240353736432,53.38959150163318,0 -6.153924055581023,53.38919257468379,0 -6.15367485138606,53.388777078934645,0 -6.153495139385829,53.388349016262104,0 -6.153386648322095,53.387912509459596,0 -6.153350420871603,53.38747176252069,0 -6.153386803687232,53.387031020144875,0 -6.153495444145509,53.38659452685631,0 -6.153675293828541,53.38616648612921,0 -6.153924618703488,53.38575101991367,0 -6.154241015898402,53.38535212895108,0 -6.154621436909912,53.38497365426125,0 -6.155062217016738,53.38461924017115,0 -6.15555911061361,53.38429229924078,0 -6.156107332123794,53.38399597942299,0 -6.156701602095229,53.38373313377262,0 -6.157336198036025,53.38350629299564,0 -6.158005009500104,53.38331764110171,0 -6.158701596893397,53.383168994393664,0 -6.159419253435867,53.38306178399542,0 -6.160151069684728,53.38299704208585,0 -6.160890000000001,53.38297539197041,0 -6.161628930315273,53.38299704208585,0 -6.162360746564135,53.38306178399542,0 -6.163078403106605,53.383168994393664,0 -6.163774990499897,53.38331764110171,0 -6.1644438019639765,53.38350629299564,0 -6.165078397904773,53.38373313377262,0 -6.1656726678762075,53.38399597942299,0 -6.166220889386391,53.38429229924078,0 -6.166717782983263,53.38461924017115,0 -6.167158563090089,53.38497365426125,0 -6.1675389841016,53.38535212895108,0 -6.167855381296513,53.38575101991367,0 -6.1681047061714604,53.38616648612921,0 -6.168284555854492,53.38659452685631,0 -6.16839319631277,53.387031020144875,0 -6.168429579128398,53.38747176252069,0 -6.168393351677906,53.387912509459596,0 -6.168284860614173,53.388349016262104,0 -6.168105148613941,53.388777078934645,0 -6.167855944418978,53.38919257468379,0 -6.167539646263569,53.38959150163318,0 -6.167159298845051,53.38997001738003,0 -6.166718564056567,53.39032447601962,0 -6.166221685761826,53.3906514632799,0 -6.165673448949514,53.39094782942761,0 -6.165079133659742,53.391210719627466,0 -6.164444464125955,53.39143760146148,0 -6.163775553622373,53.39162628934221,0 -6.163078845549096,53.391774965583856,0 -6.162361051323823,53.39188219792754,0 -6.161629085680416,53.39194695335106,0 -6.160890000000001,53.39196860802959,0</coordinates>
            </LinearRing>
          </outerBoundaryIs>
        </Polygon>
      </Placemark>
      <Placemark>
        <name>Howth Junction and Donaghmede (DART) Circle</name>
        <Polygon>
          <outerBoundaryIs>
            <LinearRing>
              <coordinates>-6.155434,53.39599260802961,0 -6.154694844438164,53.39597095335073,0 -6.153962809586873,53.39590619792622,0 -6.15324494749428,53.39579896558094,0 -6.152548173548328,53.39565028933712,0 -6.151879199801522,53.395461601453746,0 -6.151244470263375,53.39523471961672,0 -6.150650098786238,53.39497182941359,0 -6.150101810144825,53.3946754632625,0 -6.149604884878448,53.394348475998804,0 -6.1491641084280975,53.39399401735596,0 -6.148783725058552,53.393615501606085,0 -6.148467397008928,53.39321657465406,0 -6.148218169264115,53.39280107890275,0 -6.148038440284778,53.3923730162286,0 -6.147929938975722,53.3919365094251,0 -6.14789370811184,53.39149576248585,0 -6.147930094378345,53.39105502011038,0 -6.148038745117989,53.3906185268228,0 -6.148218611813344,53.39019048609731,0 -6.148467960267258,53.38977501988394,0 -6.148784387380281,53.389376128923985,0 -6.149164844360575,53.38899765423717,0 -6.149605666140202,53.388643240150344,0 -6.150102606712403,53.38831629922336,0 -6.150650880047996,53.38801997940898,0 -6.151245206195862,53.38775713376189,0 -6.151879862123263,53.38753029298791,0 -6.1525487368066685,53.38734164109661,0 -6.153245390043521,53.38719299439074,0 -6.15396311442009,53.38708578399411,0 -6.154694999840792,53.38702104208553,0 -6.155434,53.38699939197041,0 -6.1561730001592085,53.38702104208553,0 -6.156904885579908,53.38708578399411,0 -6.157622609956479,53.38719299439074,0 -6.15831926319333,53.38734164109661,0 -6.1589881378767375,53.38753029298791,0 -6.159622793804139,53.38775713376189,0 -6.160217119952004,53.38801997940898,0 -6.160765393287597,53.38831629922336,0 -6.161262333859798,53.388643240150344,0 -6.161703155639425,53.38899765423717,0 -6.1620836126197185,53.389376128923985,0 -6.162400039732741,53.38977501988394,0 -6.162649388186654,53.39019048609731,0 -6.162829254882011,53.3906185268228,0 -6.162937905621655,53.39105502011038,0 -6.162974291888159,53.39149576248585,0 -6.1629380610242785,53.3919365094251,0 -6.162829559715222,53.3923730162286,0 -6.162649830735885,53.39280107890275,0 -6.162400602991071,53.39321657465406,0 -6.162084274941448,53.393615501606085,0 -6.161703891571902,53.39399401735596,0 -6.161263115121551,53.394348475998804,0 -6.160766189855173,53.3946754632625,0 -6.160217901213761,53.39497182941359,0 -6.159623529736623,53.39523471961672,0 -6.158988800198477,53.395461601453746,0 -6.158319826451672,53.39565028933712,0 -6.157623052505719,53.39579896558094,0 -6.156905190413127,53.39590619792622,0 -6.156173155561835,53.39597095335073,0 -6.155434,53.39599260802961,0</coordinates>
            </LinearRing>
          </outerBoundaryIs>
        </Polygon>
      </Placemark>
      <Placemark>
        <name>Bayside (DART) Circle</name>
        <Polygon>
          <outerBoundaryIs>
            <LinearRing>
              <coordinates>-6.136924999999999,53.39573860802959,0 -6.136185848849667,53.39571695335074,0 -6.135453818367358,53.395652197926296,0 -6.134735960559123,53.39554496558111,0 -6.134039190771606,53.395396289337434,0 -6.133370221017245,53.395207601454224,0 -6.132735495267078,53.39498071961738,0 -6.132141127336959,53.39471782941447,0 -6.131592841967436,53.39442146326359,0 -6.131095919666303,53.394094476000106,0 -6.130655145845998,53.39374001735747,0 -6.130274764745984,53.39336150160779,0 -6.129958438583535,53.392962574655925,0 -6.129709212325387,53.39254707890474,0 -6.129529484417914,53.3921190162307,0 -6.129420983755628,53.39168250942727,0 -6.129384753107228,53.39124176248804,0 -6.129421139155884,53.39080102011255,0 -6.129529789246481,53.39036452682491,0 -6.1297096548678764,53.38993648609932,0 -6.129959001833288,53.389521019885805,0 -6.130275427057628,53.38912212892569,0 -6.13065588176727,53.38874365423869,0 -6.131096700916159,53.388389240151646,0 -6.131593638522882,53.388062299224465,0 -6.132141908586819,53.387765979409856,0 -6.132736231188357,53.38750313376255,0 -6.133370883328899,53.38727629298839,0 -6.134039754021371,53.38708764109693,0 -6.134736403101623,53.38693899439091,0 -6.135454123195935,53.38683178399419,0 -6.136186004249928,53.386767042085545,0 -6.136924999999999,53.38674539197041,0 -6.137663995750072,53.386767042085545,0 -6.138395876804064,53.38683178399419,0 -6.139113596898376,53.38693899439091,0 -6.139810245978628,53.38708764109693,0 -6.1404791166711,53.38727629298839,0 -6.141113768811643,53.38750313376255,0 -6.1417080914131805,53.387765979409856,0 -6.142256361477116,53.388062299224465,0 -6.14275329908384,53.388389240151646,0 -6.14319411823273,53.38874365423869,0 -6.143574572942372,53.38912212892569,0 -6.143890998166711,53.389521019885805,0 -6.144140345132123,53.38993648609932,0 -6.144320210753518,53.39036452682491,0 -6.1444288608441155,53.39080102011255,0 -6.144465246892771,53.39124176248804,0 -6.144429016244372,53.39168250942727,0 -6.144320515582086,53.3921190162307,0 -6.144140787674613,53.39254707890474,0 -6.143891561416464,53.392962574655925,0 -6.143575235254016,53.39336150160779,0 -6.143194854154001,53.39374001735747,0 -6.142754080333696,53.394094476000106,0 -6.142257158032564,53.39442146326359,0 -6.141708872663041,53.39471782941447,0 -6.141114504732921,53.39498071961738,0 -6.140479778982755,53.395207601454224,0 -6.139810809228393,53.395396289337434,0 -6.1391140394408765,53.39554496558111,0 -6.138396181632642,53.395652197926296,0 -6.137664151150332,53.39571695335074,0 -6.136924999999999,53.39573860802959,0</coordinates>
            </LinearRing>
          </outerBoundaryIs>
        </Polygon>
      </Placemark>
      <Placemark>
        <name>Seapoint (DART) Circle</name>
        <Polygon>
          <outerBoundaryIs>
            <LinearRing>
              <coordinates>-6.16512,53.3036246080296,0 -6.164382444277541,53.30360295335839,0 -6.163651993845945,53.303538197956605,0 -6.162935685482666,53.303430965648204,0 -6.162240419601434,53.30328228945402,0 -6.1615728937216785,53.30309360163114,0 -6.160939537901287,53.30286671986311,0 -6.160346452757109,53.30260382973486,0 -6.159799350672171,53.30230746366162,0 -6.159303500757386,53.30198047647579,0 -6.15886367809874,53.301626017907815,0 -6.158484117779083,53.30124750222692,0 -6.158168474116968,53.30084857533537,0 -6.157919785514127,53.30043307963368,0 -6.157740445248594,53.30000501699639,0 -6.157632178492589,53.299568510215586,0 -6.1575960257740086,53.299127763284,0 -6.157632333037824,53.298687020900836,0 -6.157740748399979,53.29825052759053,0 -6.157920225621725,53.29782248682815,0 -6.158169034267689,53.29740702056514,0 -6.158484776446652,53.297008129544714,0 -6.158864409970931,53.29662965478889,0 -6.159304277708762,53.29627524062722,0 -6.1598001428449285,53.29594829962238,0 -6.16034722970849,53.295651979730145,0 -6.160940269773486,53.29538913400819,0 -6.161573552389258,53.295162293165234,0 -6.162240979752167,53.29497364121348,0 -6.1629361255902735,53.294824994457976,0 -6.163652296997339,53.29471778402448,0 -6.164382598822781,53.294653042093195,0 -6.16512,53.29463139197041,0 -6.16585740117722,53.294653042093195,0 -6.166587703002662,53.29471778402448,0 -6.167303874409727,53.294824994457976,0 -6.167999020247834,53.29497364121348,0 -6.168666447610743,53.295162293165234,0 -6.1692997302265145,53.29538913400819,0 -6.169892770291511,53.295651979730145,0 -6.170439857155073,53.29594829962238,0 -6.170935722291238,53.29627524062722,0 -6.171375590029069,53.29662965478889,0 -6.1717552235533475,53.297008129544714,0 -6.172070965732312,53.29740702056514,0 -6.172319774378276,53.29782248682815,0 -6.172499251600022,53.29825052759053,0 -6.172607666962175,53.298687020900836,0 -6.172643974225992,53.299127763284,0 -6.172607821507412,53.299568510215586,0 -6.172499554751408,53.30000501699639,0 -6.172320214485873,53.30043307963368,0 -6.172071525883034,53.30084857533537,0 -6.171755882220917,53.30124750222692,0 -6.17137632190126,53.301626017907815,0 -6.1709364992426154,53.30198047647579,0 -6.170440649327829,53.30230746366162,0 -6.169893547242892,53.30260382973486,0 -6.169300462098715,53.30286671986311,0 -6.168667106278323,53.30309360163114,0 -6.167999580398567,53.30328228945402,0 -6.1673043145173345,53.303430965648204,0 -6.166588006154056,53.303538197956605,0 -6.165857555722461,53.30360295335839,0 -6.16512,53.3036246080296,0</coordinates>
            </LinearRing>
          </outerBoundaryIs>
        </Polygon>
      </Placemark>
      <Placemark>
        <name>Blackrock (DART) Circle</name>
        <Polygon>
          <outerBoundaryIs>
            <LinearRing>
              <coordinates>-6.178846,53.30721260802961,0 -6.178108382297441,53.3071909533581,0 -6.17737787048313,53.30712619795544,0 -6.17666150192612,53.307018965645604,0 -6.175966177620272,53.30687028944949,0 -6.175298595648042,53.30668160162426,0 -6.174665186607826,53.30645471985357,0 -6.174072051629235,53.306191829722415,0 -6.17352490357537,53.30589546364615,0 -6.173029011999893,53.3055684764573,0 -6.172589152389958,53.30521401788642,0 -6.17220956018414,53.30483550220286,0 -6.171893890007842,53.304436575308955,0 -6.171645180517844,53.30402107960534,0 -6.171465825192956,53.30359301696664,0 -6.1713575493500095,53.303156510184955,0 -6.171321393603951,53.30271576325306,0 -6.1713577039284315,53.30227502087019,0 -6.171466128409439,53.301838527560776,0 -6.171645620719947,53.30141048679983,0 -6.171894450278848,53.30099502053873,0 -6.172210218993147,53.30059612952065,0 -6.172589884419307,53.30021765476751,0 -6.173029789118106,53.29986324060872,0 -6.173525695918231,53.29953629960691,0 -6.174072828747454,53.29923997971768,0 -6.174665918637183,53.29897713399863,0 -6.175299254457059,53.29875029315836,0 -6.175966737891288,53.29856164120895,0 -6.176661942128235,53.29841299445537,0 -6.177378173699619,53.2983057840233,0 -6.178108536875868,53.2982410420929,0 -6.178846,53.29821939197042,0 -6.179583463124131,53.2982410420929,0 -6.18031382630038,53.2983057840233,0 -6.181030057871765,53.29841299445537,0 -6.181725262108712,53.29856164120895,0 -6.182392745542941,53.29875029315836,0 -6.183026081362818,53.29897713399863,0 -6.1836191712525475,53.29923997971768,0 -6.184166304081769,53.29953629960691,0 -6.1846622108818945,53.29986324060872,0 -6.185102115580693,53.30021765476751,0 -6.185481781006853,53.30059612952065,0 -6.185797549721153,53.30099502053873,0 -6.186046379280053,53.30141048679983,0 -6.186225871590562,53.301838527560776,0 -6.186334296071569,53.30227502087019,0 -6.18637060639605,53.30271576325306,0 -6.18633445064999,53.303156510184955,0 -6.186226174807044,53.30359301696664,0 -6.186046819482156,53.30402107960534,0 -6.185798109992158,53.304436575308955,0 -6.18548243981586,53.30483550220286,0 -6.185102847610042,53.30521401788642,0 -6.184662988000108,53.3055684764573,0 -6.1841670964246305,53.30589546364615,0 -6.183619948370764,53.306191829722415,0 -6.183026813392174,53.30645471985357,0 -6.1823934043519575,53.30668160162426,0 -6.181725822379728,53.30687028944949,0 -6.181030498073879,53.307018965645604,0 -6.180314129516871,53.30712619795544,0 -6.1795836177025585,53.3071909533581,0 -6.178846,53.30721260802961,0</coordinates>
            </LinearRing>
          </outerBoundaryIs>
        </Polygon>
      </Placemark>
    </Folder>
  </Document>
</kml>