<?xml version="1.0" encoding="UTF-8"?>
<kml xmlns="http://www.opengis.net/kml/2.2">
  <Document>
    <name>Dublin Villages</name>
    <description>Dublin Villages</description>
    
    <!-- Style for the route -->
    <Style id="routeStyle">
      <LineStyle>
        <color>ff0000ff</color>
        <width>4</width>
      </LineStyle>
    </Style>
    
    <!-- Style for the points -->
    <Style id="pointStyle">
      <IconStyle>
        <scale>1.0</scale>
        <Icon>
          <href>http://maps.google.com/mapfiles/kml/paddle/red-blank.png</href>
        </Icon>
      </IconStyle>
      <LabelStyle>
        <scale>0.8</scale>
      </LabelStyle>
    </Style>

    <!-- Style for the circles -->
    <Style id="circleStyle">
      <LineStyle>
        <color>7f0000ff</color>
        <width>2</width>
      </LineStyle>
      <PolyStyle>
        <color>1f0000ff</color>
        <fill>1</fill>
        <outline>1</outline>
      </PolyStyle>
    </Style>

    <!-- Folder for points -->
    <Folder>
      <name>Dublin Villages Points</name>
      <description>Dublin Villages Points</description>
      <styleUrl>#pointStyle</styleUrl>
      <Placemark>
        <name>Rathmines</name>
        <description></description>
        <Point>
          <coordinates>-6.265480063026553,53.32352423360366,0</coordinates>
        </Point>
      </Placemark>
      <Placemark>
        <name>Liberties</name>
        <description></description>
        <Point>
          <coordinates>-6.277696417819648,53.34261331671519,0</coordinates>
        </Point>
      </Placemark>
      <Placemark>
        <name>Sandymount</name>
        <description></description>
        <Point>
          <coordinates>-6.21567335058748,53.33258229914048,0</coordinates>
        </Point>
      </Placemark>
      <Placemark>
        <name>Stoneybatter</name>
        <description></description>
        <Point>
          <coordinates>-6.283952270563642,53.3523705510358,0</coordinates>
        </Point>
      </Placemark>
      <Placemark>
        <name>Kilmainham</name>
        <description></description>
        <Point>
          <coordinates>-6.3077832095956525,53.340612480097455,0</coordinates>
        </Point>
      </Placemark>
      <Placemark>
        <name>Drumcondra</name>
        <description></description>
        <Point>
          <coordinates>-6.25858473976338,53.3631165720114,0</coordinates>
        </Point>
      </Placemark>
      <Placemark>
        <name>Donnybrook</name>
        <description></description>
        <Point>
          <coordinates>-6.238274459938508,53.32286264337584,0</coordinates>
        </Point>
      </Placemark>
      <Placemark>
        <name>UCD</name>
        <description></description>
        <Point>
          <coordinates>-6.22204646274071,53.3077382478846,0</coordinates>
        </Point>
      </Placemark>
      <Placemark>
        <name>DCU</name>
        <description></description>
        <Point>
          <coordinates>-6.258892378349267,53.385412447033374,0</coordinates>
        </Point>
      </Placemark>
      <Placemark>
        <name>Rathfarnham</name>
        <description></description>
        <Point>
          <coordinates>-6.285507356244741,53.29871237527471,0</coordinates>
        </Point>
      </Placemark>
      <Placemark>
        <name>Terenure</name>
        <description></description>
        <Point>
          <coordinates>-6.283480335527292,53.30989629484159,0</coordinates>
        </Point>
      </Placemark>
      <Placemark>
        <name>Ballsbridge</name>
        <description></description>
        <Point>
          <coordinates>-6.230542576001011,53.328836227732324,0</coordinates>
        </Point>
      </Placemark>
      <Placemark>
        <name>Baggot St</name>
        <description></description>
        <Point>
          <coordinates>-6.24511623530001,53.33404853409671,0</coordinates>
        </Point>
      </Placemark>
      <Placemark>
        <name>Stillorgan</name>
        <description></description>
        <Point>
          <coordinates>-6.200198192024133,53.28931632500561,0</coordinates>
        </Point>
      </Placemark>
    </Folder>
    <Folder>
      <name>Dublin Villages Circles</name>
      <description>Dublin Villages Circles</description>
      <styleUrl>#circleStyle</styleUrl>
      <Placemark>
        <name>Rathmines Circle</name>
        <Polygon>
          <outerBoundaryIs>
            <LinearRing>
              <coordinates>-6.265480063026553,53.32802084163326,0 -6.264742085614287,53.32799918696002,0 -6.264011217557242,53.32793443155225,0 -6.2632944996579605,53.327827199234115,0 -6.26259883627711,53.32767852302685,0 -6.261930928764787,53.32748983518801,0 -6.261297210856281,53.32726295340179,0 -6.26070378665709,53.32700006325379,0 -6.260156371816473,53.32670369716003,0 -6.25966023845767,53.32637670995367,0 -6.259220164396066,53.32602225136593,0 -6.258840387134708,53.32564373566685,0 -6.258524563079876,53.32524480875936,0 -6.258275732368511,53.32482931304459,0 -6.258096289644696,53.32440125039757,0 -6.257987961064502,53.323964743610794,0 -6.257951787748098,53.323523996677174,0 -6.2579881158355715,53.323083254296044,0 -6.25809659323907,53.32264676099173,0 -6.258276173119228,53.322218720239086,0 -6.258525124049135,53.32180325398916,0 -6.258841046764775,53.32140436298468,0 -6.259220897337725,53.32102588824707,0 -6.2596610165443884,53.32067147410511,0 -6.260157165146814,53.32034453312082,0 -6.260704564743814,53.3200482132491,0 -6.26129794379795,53.319785367546885,0 -6.261931588394862,53.319558526722126,0 -6.2625993972463805,53.31936987478631,0 -6.263294940408688,53.319221228043894,0 -6.264011521151625,53.319114017620116,0 -6.2647422403853605,53.31904927569483,0 -6.265480063026553,53.31902762557406,0 -6.266217885667745,53.31904927569483,0 -6.266948604901481,53.319114017620116,0 -6.267665185644417,53.319221228043894,0 -6.268360728806725,53.31936987478631,0 -6.269028537658243,53.319558526722126,0 -6.269662182255155,53.319785367546885,0 -6.270255561309292,53.3200482132491,0 -6.270802960906291,53.32034453312082,0 -6.2712991095087185,53.32067147410511,0 -6.27173922871538,53.32102588824707,0 -6.2721190792883315,53.32140436298468,0 -6.272435002003972,53.32180325398916,0 -6.272683952933877,53.322218720239086,0 -6.272863532814036,53.32264676099173,0 -6.272972010217534,53.323083254296044,0 -6.273008338305007,53.323523996677174,0 -6.272972164988603,53.323964743610794,0 -6.272863836408409,53.32440125039757,0 -6.272684393684596,53.32482931304459,0 -6.27243556297323,53.32524480875936,0 -6.272119738918398,53.32564373566685,0 -6.271739961657041,53.32602225136593,0 -6.271299887595437,53.32637670995367,0 -6.270803754236632,53.32670369716003,0 -6.270256339396015,53.32700006325379,0 -6.269662915196824,53.32726295340179,0 -6.26902919728832,53.32748983518801,0 -6.268361289775995,53.32767852302685,0 -6.267665626395145,53.327827199234115,0 -6.266948908495864,53.32793443155225,0 -6.266218040438819,53.32799918696002,0 -6.265480063026553,53.32802084163326,0</coordinates>
            </LinearRing>
          </outerBoundaryIs>
        </Polygon>
      </Placemark>
      <Placemark>
        <name>Liberties Circle</name>
        <Polygon>
          <outerBoundaryIs>
            <LinearRing>
              <coordinates>-6.277696417819648,53.34710992474478,0 -6.27695811002207,53.34708827006995,0 -6.276226914764056,53.3470235146575,0 -6.2755098760017205,53.34691628233175,0 -6.274813901188082,53.34676760611423,0 -6.274145694674481,53.3465789182629,0 -6.273511693077382,53.34635203646242,0 -6.2729180032355645,53.34608914629897,0 -6.272370343357314,53.3457927801891,0 -6.271873987925967,53.34546579296667,0 -6.271433716895338,53.34511133436348,0 -6.271053769664649,53.34473281865014,0 -6.270737804275867,53.34433389173016,0 -6.270488862225431,53.34391839600514,0 -6.270309339227701,53.343490333350516,0 -6.270200962209567,53.343053826559036,0 -6.2701647727552325,53.34261307962385,0 -6.270201117157652,53.34217233724431,0 -6.270309643169303,53.34173584394468,0 -6.270489303480246,53.341307803199655,0 -6.27073836588672,53.34089233695998,0 -6.271054430049151,53.340493445968,0 -6.271434450675282,53.34011497124463,0 -6.271874766902602,53.33976055711814,0 -6.272371137595006,53.339433616149925,0 -6.272918782212204,53.3391372962943,0 -6.273512426857335,53.33887445060754,0 -6.274146355058993,53.33864760979702,0 -6.274814462798946,53.33845895787369,0 -6.275510317256545,53.33831031114153,0 -6.2762272187056665,53.33820310072537,0 -6.27695826497016,53.33813835880476,0 -6.277696417819648,53.3381167086856,0 -6.278434570669136,53.33813835880476,0 -6.27916561693363,53.33820310072537,0 -6.279882518382751,53.33831031114153,0 -6.280578372840351,53.33845895787369,0 -6.281246480580304,53.33864760979702,0 -6.281880408781962,53.33887445060754,0 -6.282474053427093,53.3391372962943,0 -6.283021698044291,53.339433616149925,0 -6.283518068736694,53.33976055711814,0 -6.283958384964015,53.34011497124463,0 -6.2843384055901454,53.340493445968,0 -6.284654469752577,53.34089233695998,0 -6.284903532159051,53.341307803199655,0 -6.285083192469993,53.34173584394468,0 -6.285191718481645,53.34217233724431,0 -6.285228062884064,53.34261307962385,0 -6.28519187342973,53.343053826559036,0 -6.285083496411596,53.343490333350516,0 -6.284903973413866,53.34391839600514,0 -6.28465503136343,53.34433389173016,0 -6.284339065974648,53.34473281865014,0 -6.283959118743959,53.34511133436348,0 -6.28351884771333,53.34546579296667,0 -6.283022492281983,53.3457927801891,0 -6.282474832403732,53.34608914629897,0 -6.2818811425619145,53.34635203646242,0 -6.281247140964815,53.3465789182629,0 -6.280578934451214,53.34676760611423,0 -6.279882959637576,53.34691628233175,0 -6.279165920875241,53.3470235146575,0 -6.278434725617227,53.34708827006995,0 -6.277696417819648,53.34710992474478,0</coordinates>
            </LinearRing>
          </outerBoundaryIs>
        </Polygon>
      </Placemark>
      <Placemark>
        <name>Sandymount Circle</name>
        <Polygon>
          <outerBoundaryIs>
            <LinearRing>
              <coordinates>-6.21567335058748,53.33707890717008,0 -6.214935216449354,53.33705725249609,0 -6.214204193177017,53.3369924970861,0 -6.2134873230689776,53.33688526476435,0 -6.212791511952833,53.33673658855221,0 -6.212123462602388,53.33654790070746,0 -6.211489610119681,53.33632101891447,0 -6.2108960599068075,53.33605812875915,0 -6.210348528826961,53.33576176265775,0 -6.209852290122943,53.33543477544376,0 -6.209412122624555,53.335080316848696,0 -6.209032264734339,53.33470180114284,0 -6.208716373634498,53.33430287422943,0 -6.208467490106883,53.33388737850979,0 -6.208288009303288,53.33345931585916,0 -6.208179657745442,53.33302280907016,0 -6.208143476773635,53.3325820621358,0 -6.208179812600474,53.33214131975541,0 -6.2082883130623605,53.33170482645334,0 -6.208467931096706,53.331276785704304,0 -6.20871693490808,53.33086131945923,0 -6.209032924722251,53.330462428460685,0 -6.2094128559638335,53.330083953729826,0 -6.20985306863177,53.3297295395952,0 -6.21034932258768,53.329402598618536,0 -6.210896838415641,53.32910627875446,0 -6.211490343458968,53.32884343305958,0 -6.21212412259031,53.328616592241566,0 -6.212792073226426,53.32842794031169,0 -6.2134877640588115,53.32827929357413,0 -6.214204496936097,53.328172083153966,0 -6.214935371304391,53.328107341230904,0 -6.21567335058748,53.32808569111089,0 -6.216411329870567,53.328107341230904,0 -6.217142204238861,53.328172083153966,0 -6.217858937116149,53.32827929357413,0 -6.218554627948532,53.32842794031169,0 -6.219222578584649,53.328616592241566,0 -6.21985635771599,53.32884343305958,0 -6.220449862759318,53.32910627875446,0 -6.2209973785872785,53.329402598618536,0 -6.221493632543188,53.3297295395952,0 -6.221933845211125,53.330083953729826,0 -6.222313776452707,53.330462428460685,0 -6.222629766266879,53.33086131945923,0 -6.222878770078253,53.331276785704304,0 -6.223058388112598,53.33170482645334,0 -6.223166888574486,53.33214131975541,0 -6.223203224401324,53.3325820621358,0 -6.223167043429518,53.33302280907016,0 -6.22305869187167,53.33345931585916,0 -6.222879211068076,53.33388737850979,0 -6.222630327540461,53.33430287422943,0 -6.2223144364406195,53.33470180114284,0 -6.221934578550403,53.335080316848696,0 -6.221494411052015,53.33543477544376,0 -6.220998172347998,53.33576176265775,0 -6.220450641268151,53.33605812875915,0 -6.219857091055278,53.33632101891447,0 -6.219223238572573,53.33654790070746,0 -6.218555189222125,53.33673658855221,0 -6.217859378105981,53.33688526476435,0 -6.217142507997941,53.3369924970861,0 -6.2164114847256045,53.33705725249609,0 -6.21567335058748,53.33707890717008,0</coordinates>
            </LinearRing>
          </outerBoundaryIs>
        </Polygon>
      </Placemark>
      <Placemark>
        <name>Stoneybatter Circle</name>
        <Polygon>
          <outerBoundaryIs>
            <LinearRing>
              <coordinates>-6.283952270563642,53.356867159065395,0 -6.283213793746277,53.356845504389774,0 -6.282482431097533,53.3567807489749,0 -6.2817652281868455,53.35667351664526,0 -6.281069094049225,53.356524840422495,0 -6.280400734571405,53.35633615256478,0 -6.2797665878438105,53.35610927075701,0 -6.2791727621035225,53.355846380585646,0 -6.278624976867986,53.35555001446757,0 -6.278128507827925,53.3552230272369,0 -6.277688136031137,53.35486856862579,0 -6.277308101846899,53.354490052905184,0 -6.276992064153966,53.35409112597881,0 -6.276743065144274,53.35367563024853,0 -6.276563501079721,53.353247567590024,0 -6.276455099281535,53.35281106079614,0 -6.27641890157131,53.35237031386015,0 -6.276455254320204,53.35192957148142,0 -6.276563805199013,53.3514930781842,0 -6.276743506657054,53.35106503744307,0 -6.276992626093145,53.350649571208635,0 -6.277308762617471,53.35025068022304,0 -6.277688870240061,53.34987220550697,0 -6.278129287259964,53.34951779138838,0 -6.278625771570003,53.349190850428386,0 -6.279173541535564,53.348894530580985,0 -6.2797673220527415,53.34863168490214,0 -6.280401395341988,53.348404844098916,0 -6.281069655988415,53.34821619218197,0 -6.2817656696996345,53.34806754545504,0 -6.282482735216832,53.347960335042785,0 -6.283213948784951,53.347895593124576,0 -6.283952270563642,53.34787394300621,0 -6.284690592342332,53.347895593124576,0 -6.2854218059104525,53.347960335042785,0 -6.286138871427649,53.34806754545504,0 -6.286834885138869,53.34821619218197,0 -6.287503145785297,53.348404844098916,0 -6.288137219074542,53.34863168490214,0 -6.288730999591719,53.348894530580985,0 -6.2892787695572805,53.349190850428386,0 -6.289775253867321,53.34951779138838,0 -6.290215670887222,53.34987220550697,0 -6.290595778509812,53.35025068022304,0 -6.2909119150341395,53.350649571208635,0 -6.29116103447023,53.35106503744307,0 -6.291340735928272,53.3514930781842,0 -6.291449286807079,53.35192957148142,0 -6.291485639555975,53.35237031386015,0 -6.291449441845748,53.35281106079614,0 -6.291341040047564,53.353247567590024,0 -6.291161475983009,53.35367563024853,0 -6.290912476973319,53.35409112597881,0 -6.290596439280385,53.354490052905184,0 -6.290216405096146,53.35486856862579,0 -6.289776033299359,53.3552230272369,0 -6.289279564259297,53.35555001446757,0 -6.288731779023761,53.355846380585646,0 -6.288137953283473,53.35610927075701,0 -6.287503806555879,53.35633615256478,0 -6.286835447078059,53.356524840422495,0 -6.286139312940439,53.35667351664526,0 -6.285422110029751,53.3567807489749,0 -6.284690747381008,53.356845504389774,0 -6.283952270563642,53.356867159065395,0</coordinates>
            </LinearRing>
          </outerBoundaryIs>
        </Polygon>
      </Placemark>
      <Placemark>
        <name>Kilmainham Circle</name>
        <Polygon>
          <outerBoundaryIs>
            <LinearRing>
              <coordinates>-6.3077832095956525,53.34510908812705,0 -6.307044936445382,53.3450874334524,0 -6.306313775500736,53.345022678040436,0 -6.305596770387115,53.344915445715465,0 -6.304900828233245,53.344766769499024,0 -6.304232653075726,53.34457808164901,0 -6.303598681228878,53.34435119985003,0 -6.303005019244841,53.34408830968819,0 -6.302457385063539,53.343791943580015,0 -6.301961052920802,53.34346495635927,0 -6.301520802546194,53.343110497757706,0 -6.301140873140086,53.34273198204586,0 -6.300824922572907,53.3423330551272,0 -6.300575992198532,53.341917559403235,0 -6.300396477619076,53.34148949674941,0 -6.300288105680598,53.341052989958435,0 -6.300251917918637,53.340612243023415,0 -6.300288260610118,53.3401715006437,0 -6.300396781524258,53.33973500734359,0 -6.3005764334004715,53.33930696659777,0 -6.300825484116465,53.33889150035701,0 -6.301141533445456,53.33849260936371,0 -6.301521536238214,53.33811413463886,0 -6.301961831804097,53.337759720510746,0 -6.30245817920606,53.33743277954085,0 -6.303005798128139,53.33713645968353,0 -6.303599414920904,53.336873613995145,0 -6.304233313381107,53.33664677318314,0 -6.304901389776814,53.33645812125852,0 -6.305597211589067,53.336309474525265,0 -6.306314079405928,53.336202264108294,0 -6.307045091374905,53.3361375221872,0 -6.3077832095956525,53.33611587206786,0 -6.3085213278164005,53.3361375221872,0 -6.309252339785378,53.336202264108294,0 -6.309969207602238,53.336309474525265,0 -6.3106650294144915,53.33645812125852,0 -6.311333105810198,53.33664677318314,0 -6.311967004270401,53.336873613995145,0 -6.312560621063166,53.33713645968353,0 -6.313108239985245,53.33743277954085,0 -6.313604587387208,53.337759720510746,0 -6.314044882953091,53.33811413463886,0 -6.314424885745849,53.33849260936371,0 -6.31474093507484,53.33889150035701,0 -6.314989985790834,53.33930696659777,0 -6.315169637667047,53.33973500734359,0 -6.315278158581189,53.3401715006437,0 -6.3153145012726695,53.340612243023415,0 -6.315278313510707,53.341052989958435,0 -6.31516994157223,53.34148949674941,0 -6.314990426992774,53.341917559403235,0 -6.314741496618398,53.3423330551272,0 -6.31442554605122,53.34273198204586,0 -6.314045616645111,53.343110497757706,0 -6.313605366270503,53.34346495635927,0 -6.313109034127768,53.343791943580015,0 -6.312561399946465,53.34408830968819,0 -6.311967737962427,53.34435119985003,0 -6.311333766115579,53.34457808164901,0 -6.3106655909580605,53.344766769499024,0 -6.3099696488041905,53.344915445715465,0 -6.309252643690569,53.345022678040436,0 -6.308521482745923,53.3450874334524,0 -6.3077832095956525,53.34510908812705,0</coordinates>
            </LinearRing>
          </outerBoundaryIs>
        </Polygon>
      </Placemark>
      <Placemark>
        <name>Drumcondra Circle</name>
        <Polygon>
          <outerBoundaryIs>
            <LinearRing>
              <coordinates>-6.258584739763381,53.367613180041,0 -6.257846076683597,53.36759152536448,0 -6.257114529567681,53.36752676994697,0 -6.256397145762971,53.36741953761303,0 -6.255700836047865,53.36727086138448,0 -6.255032308001113,53.36708217351972,0 -6.254398001337473,53.36685529170392,0 -6.253804025834977,53.366592401523846,0 -6.253256102453782,53.366296035396694,0 -6.252759508215169,53.36596904815698,0 -6.252319025372526,53.36561458953716,0 -6.25193889536414,53.36523607380851,0 -6.251622777990927,53.3648371468751,0 -6.251373716211269,53.36442165113905,0 -6.251194106890454,53.36399358847625,0 -6.251085677784278,53.36355708167972,0 -6.2510494709759445,53.36311633474284,0 -6.251085832922796,53.362675592365,0 -6.251194411205602,53.36223909907043,0 -6.25137415800839,53.36181105833359,0 -6.251623340292004,53.361395592104934,0 -6.25193955656026,53.360996701126375,0 -6.252319760054292,53.36061822641834,0 -6.252760288149174,53.36026381230847,0 -6.253256897667599,53.35993687135754,0 -6.253804805768987,53.35964055151919,0 -6.254398736019247,53.35937770584906,0 -6.255032969197244,53.35915086505386,0 -6.255701398348953,53.35896221314397,0 -6.256397587560103,53.35881356642282,0 -6.257114833882838,53.35870635601484,0 -6.2578462318221195,53.35864161409928,0 -6.258584739763381,53.35861996398181,0 -6.259323247704642,53.35864161409928,0 -6.2600546456439226,53.35870635601484,0 -6.260771891966658,53.35881356642282,0 -6.261468081177808,53.35896221314397,0 -6.262136510329517,53.35915086505386,0 -6.262770743507514,53.35937770584906,0 -6.263364673757775,53.35964055151919,0 -6.263912581859161,53.35993687135754,0 -6.264409191377587,53.36026381230847,0 -6.264849719472469,53.36061822641834,0 -6.265229922966501,53.360996701126375,0 -6.265546139234758,53.361395592104934,0 -6.265795321518373,53.36181105833359,0 -6.2659750683211595,53.36223909907043,0 -6.266083646603964,53.362675592365,0 -6.266120008550817,53.36311633474284,0 -6.266083801742482,53.36355708167972,0 -6.265975372636308,53.36399358847625,0 -6.265795763315492,53.36442165113905,0 -6.2655467015358335,53.3648371468751,0 -6.26523058416262,53.36523607380851,0 -6.264850454154235,53.36561458953716,0 -6.264409971311593,53.36596904815698,0 -6.263913377072979,53.366296035396694,0 -6.263365453691783,53.366592401523846,0 -6.262771478189287,53.36685529170392,0 -6.262137171525647,53.36708217351972,0 -6.261468643478896,53.36727086138448,0 -6.260772333763789,53.36741953761303,0 -6.2600549499590805,53.36752676994697,0 -6.259323402843164,53.36759152536448,0 -6.258584739763381,53.367613180041,0</coordinates>
            </LinearRing>
          </outerBoundaryIs>
        </Polygon>
      </Placemark>
      <Placemark>
        <name>Donnybrook Circle</name>
        <Polygon>
          <outerBoundaryIs>
            <LinearRing>
              <coordinates>-6.238274459938508,53.327359251405426,0 -6.237536493969979,53.32733759673226,0 -6.236805637246376,53.327272841324636,0 -6.236088930461004,53.32716560900678,0 -6.235393277867423,53.32701693279986,0 -6.234725380711771,53.326828244961455,0 -6.234091672629543,53.32660136317572,0 -6.233498257631561,53.32633847302827,0 -6.232950851278449,53.32604210693506,0 -6.232454725611694,53.32571511972925,0 -6.2320146583726155,53.32536066114205,0 -6.231634886998581,53.324982145443464,0 -6.23131906783921,53.32458321853641,0 -6.231070240984359,53.32416772282199,0 -6.230890801041036,53.32373966017525,0 -6.230782474138614,53.323303153388615,0 -6.230746301381189,53.322862406455066,0 -6.230782628903554,53.32242166407387,0 -6.230891104623386,53.321985170769395,0 -6.231070681717619,53.321557130016494,0 -6.23131962878625,53.321141663766205,0 -6.2316355466025195,53.3207427727613,0 -6.232015391285246,53.320364298023186,0 -6.2324555036675955,53.3200098838807,0 -6.232951644577369,53.31968294289584,0 -6.233499035687467,53.31938662302357,0 -6.2340924055421825,53.31912377732082,0 -6.234726040315721,53.31889693649558,0 -6.235393838814474,53.31870828455933,0 -6.236089371194274,53.31855963781655,0 -6.2368059408287335,53.31845242739251,0 -6.237536648734923,53.318387685467044,0 -6.238274459938508,53.31836603534625,0 -6.239012271142093,53.318387685467044,0 -6.239742979048283,53.31845242739251,0 -6.240459548682742,53.31855963781655,0 -6.241155081062542,53.31870828455933,0 -6.241822879561296,53.31889693649558,0 -6.242456514334835,53.31912377732082,0 -6.243049884189549,53.31938662302357,0 -6.243597275299647,53.31968294289584,0 -6.244093416209421,53.3200098838807,0 -6.24453352859177,53.320364298023186,0 -6.244913373274496,53.3207427727613,0 -6.245229291090767,53.321141663766205,0 -6.245478238159397,53.321557130016494,0 -6.245657815253631,53.321985170769395,0 -6.245766290973462,53.32242166407387,0 -6.245802618495827,53.322862406455066,0 -6.2457664457384015,53.323303153388615,0 -6.24565811883598,53.32373966017525,0 -6.245478678892659,53.32416772282199,0 -6.245229852037807,53.32458321853641,0 -6.2449140328784365,53.324982145443464,0 -6.244534261504402,53.32536066114205,0 -6.244094194265322,53.32571511972925,0 -6.243598068598567,53.32604210693506,0 -6.243050662245454,53.32633847302827,0 -6.242457247247473,53.32660136317572,0 -6.241823539165245,53.326828244961455,0 -6.241155642009593,53.32701693279986,0 -6.2404599894160135,53.32716560900678,0 -6.23974328263064,53.327272841324636,0 -6.2390124259070365,53.32733759673226,0 -6.238274459938508,53.327359251405426,0</coordinates>
            </LinearRing>
          </outerBoundaryIs>
        </Polygon>
      </Placemark>
      <Placemark>
        <name>UCD Circle</name>
        <Polygon>
          <outerBoundaryIs>
            <LinearRing>
              <coordinates>-6.22204646274071,53.3122348559142,0 -6.221308758260106,53.312213201242265,0 -6.220578160504137,53.312148445838375,0 -6.219861707670169,53.312041213526534,0 -6.219166301564284,53.31189253732773,0 -6.218498641057245,53.31170384949922,0 -6.2178651575042005,53.31147696772478,0 -6.217271952752683,53.31121407758956,0 -6.216724740337935,53.31091771150908,0 -6.216228790433518,53.310590724316,0 -6.215788879088261,53.310236265741054,0 -6.215409242238777,53.30985775005376,0 -6.2150935349401,53.309458823156575,0 -6.21484479620609,53.30904332745026,0 -6.214665419796673,53.30861526480955,0 -6.214557131231144,53.308178758026635,0 -6.214520971246328,53.30773801109433,0 -6.214557285856032,53.307297268711885,0 -6.214665723104305,53.3068607754037,0 -6.214845236540522,53.30643273464476,0 -6.215094095379527,53.306017268386356,0 -6.215409901245828,53.305618377371545,0 -6.215789611337664,53.305239902622155,0 -6.216229567785341,53.30488548846743,0 -6.216725532918982,53.304558547469846,0 -6.21727273010451,53.304262227584864,0 -6.217865889753613,53.303999381869865,0 -6.218499300064306,53.303772541033325,0 -6.219166862003724,53.3035838890872,0 -6.21986214800461,53.30343524233631,0 -6.220578463811776,53.30332803190623,0 -6.221308912885,53.30326328997707,0 -6.22204646274071,53.303241639855,0 -6.2227840125964216,53.30326328997707,0 -6.223514461669646,53.30332803190623,0 -6.224230777476811,53.30343524233631,0 -6.224926063477698,53.3035838890872,0 -6.225593625417116,53.303772541033325,0 -6.226227035727809,53.303999381869865,0 -6.226820195376912,53.304262227584864,0 -6.2273673925624395,53.304558547469846,0 -6.227863357696082,53.30488548846743,0 -6.2283033141437585,53.305239902622155,0 -6.228683024235594,53.305618377371545,0 -6.228998830101895,53.306017268386356,0 -6.2292476889409,53.30643273464476,0 -6.229427202377116,53.3068607754037,0 -6.2295356396253885,53.307297268711885,0 -6.2295719542350945,53.30773801109433,0 -6.229535794250278,53.308178758026635,0 -6.229427505684749,53.30861526480955,0 -6.229248129275332,53.30904332745026,0 -6.228999390541321,53.309458823156575,0 -6.228683683242645,53.30985775005376,0 -6.228304046393162,53.310236265741054,0 -6.227864135047905,53.310590724316,0 -6.2273681851434874,53.31091771150908,0 -6.2268209727287385,53.31121407758956,0 -6.22622776797722,53.31147696772478,0 -6.225594284424177,53.31170384949922,0 -6.224926623917137,53.31189253732773,0 -6.224231217811253,53.312041213526534,0 -6.223514764977286,53.312148445838375,0 -6.222784167221316,53.312213201242265,0 -6.22204646274071,53.3122348559142,0</coordinates>
            </LinearRing>
          </outerBoundaryIs>
        </Polygon>
      </Placemark>
      <Placemark>
        <name>DCU Circle</name>
        <Polygon>
          <outerBoundaryIs>
            <LinearRing>
              <coordinates>-6.258892378349267,53.38990905506296,0 -6.258153328428852,53.389887400384595,0 -6.257421398200782,53.38982264496159,0 -6.256703638704844,53.38971541261874,0 -6.256006964340196,53.38956673637819,0 -6.255338086199689,53.38937804849881,0 -6.254703447371575,53.38915116666633,0 -6.254109160834227,53.38888827646816,0 -6.2535609505441085,53.38859191032219,0 -6.253064096285885,53.38826492306365,0 -6.252623382816779,53.38791046442574,0 -6.252243053795264,53.38753194868041,0 -6.251926770937444,53.38713302173238,0 -6.251677578793505,53.386717525984345,0 -6.251497875481889,53.386289463312636,0 -6.251389389660933,53.38585295651063,0 -6.251353163957157,53.38541220957189,0 -6.25138954500689,53.38497146719591,0 -6.251498180203945,53.38453497390683,0 -6.2516780211813625,53.38410693317891,0 -6.251927333990388,53.38369146696226,0 -6.252243715875484,53.38329257599831,0 -6.252624118480907,53.38291410130695,0 -6.2530648772627595,53.38255968721517,0 -6.253561746821227,53.382232746283066,0 -6.254109941811105,53.38193642646353,0 -6.25470418303571,53.3816735808115,0 -6.255338748279921,53.38144674003298,0 -6.256007527393152,53.381258088137685,0 -6.256704081092713,53.381109441428535,0 -6.257421702922845,53.38100223102948,0 -6.258153483774814,53.3809374891194,0 -6.258892378349267,53.38091583900379,0 -6.259631272923721,53.3809374891194,0 -6.260363053775688,53.38100223102948,0 -6.26108067560582,53.381109441428535,0 -6.261777229305381,53.381258088137685,0 -6.262446008418612,53.38144674003298,0 -6.263080573662823,53.3816735808115,0 -6.263674814887428,53.38193642646353,0 -6.264223009877306,53.382232746283066,0 -6.2647198794357735,53.38255968721517,0 -6.265160638217628,53.38291410130695,0 -6.265541040823049,53.38329257599831,0 -6.265857422708145,53.38369146696226,0 -6.2661067355171705,53.38410693317891,0 -6.266286576494588,53.38453497390683,0 -6.266395211691643,53.38497146719591,0 -6.266431592741377,53.38541220957189,0 -6.2663953670376005,53.38585295651063,0 -6.2662868812166455,53.386289463312636,0 -6.26610717790503,53.386717525984345,0 -6.26585798576109,53.38713302173238,0 -6.26554170290327,53.38753194868041,0 -6.265161373881755,53.38791046442574,0 -6.264720660412648,53.38826492306365,0 -6.264223806154424,53.38859191032219,0 -6.2636755958643064,53.38888827646816,0 -6.263081309326958,53.38915116666633,0 -6.262446670498844,53.38937804849881,0 -6.2617777923583375,53.38956673637819,0 -6.261081117993689,53.38971541261874,0 -6.260363358497753,53.38982264496159,0 -6.259631428269682,53.389887400384595,0 -6.258892378349267,53.38990905506296,0</coordinates>
            </LinearRing>
          </outerBoundaryIs>
        </Polygon>
      </Placemark>
      <Placemark>
        <name>Rathfarnham Circle</name>
        <Polygon>
          <outerBoundaryIs>
            <LinearRing>
              <coordinates>-6.285507356244741,53.30320898330431,0 -6.284769807701037,53.303187328633136,0 -6.284039364379008,53.303122573231455,0 -6.283323062987579,53.3030153409232,0 -6.282627803873296,53.30286666472925,0 -6.281960284490369,53.302677976906644,0 -6.281326934834087,53.30245109513892,0 -6.280733855461908,53.302188205011014,0 -6.280186758701257,53.30189183893812,0 -6.279690913611762,53.30156485175264,0 -6.279251095232945,53.301210393184995,0 -6.278871538606457,53.300831877504415,0 -6.278555898015307,53.300432950613136,0 -6.278307211831693,53.300017454911654,0 -6.278127873310386,53.29958939227455,0 -6.278019607606865,53.29915288549384,0 -6.277983455238938,53.29871213856229,0 -6.278019762148257,53.298271396179096,0 -6.278128176454232,53.29783490286869,0 -6.278307651928345,53.29740686210615,0 -6.2785564581520985,53.2969913958429,0 -6.278872197257645,53.2965925048222,0 -6.279251827086934,53.29621403006608,0 -6.279691690543814,53.29585961590406,0 -6.280187550854311,53.29553267489888,0 -6.280734632393966,53.29523635500629,0 -6.281327666688085,53.294973509284006,0 -6.281960943141568,53.29474666844074,0 -6.282628364010097,53.29455801648871,0 -6.283323503084243,53.29440936973298,0 -6.284039667522861,53.29430215929931,0 -6.284769962242433,53.294237417367924,0 -6.285507356244741,53.29421576724512,0 -6.28624475024705,53.294237417367924,0 -6.2869750449666215,53.29430215929931,0 -6.28769120940524,53.29440936973298,0 -6.288386348479387,53.29455801648871,0 -6.289053769347915,53.29474666844074,0 -6.289687045801399,53.294973509284006,0 -6.290280080095517,53.29523635500629,0 -6.290827161635173,53.29553267489888,0 -6.2913230219456695,53.29585961590406,0 -6.291762885402549,53.29621403006608,0 -6.292142515231839,53.2965925048222,0 -6.292458254337385,53.2969913958429,0 -6.292707060561138,53.29740686210615,0 -6.292886536035251,53.29783490286869,0 -6.292994950341226,53.298271396179096,0 -6.293031257250545,53.29871213856229,0 -6.2929951048826185,53.29915288549384,0 -6.292886839179097,53.29958939227455,0 -6.292707500657791,53.300017454911654,0 -6.292458814474176,53.300432950613136,0 -6.2921431738830265,53.300831877504415,0 -6.291763617256539,53.301210393184995,0 -6.291323798877723,53.30156485175264,0 -6.290827953788226,53.30189183893812,0 -6.290280857027575,53.302188205011014,0 -6.289687777655396,53.30245109513892,0 -6.2890544279991145,53.302677976906644,0 -6.288386908616188,53.30286666472925,0 -6.287691649501904,53.3030153409232,0 -6.2869753481104755,53.303122573231455,0 -6.286244904788446,53.303187328633136,0 -6.285507356244741,53.30320898330431,0</coordinates>
            </LinearRing>
          </outerBoundaryIs>
        </Polygon>
      </Placemark>
      <Placemark>
        <name>Terenure Circle</name>
        <Polygon>
          <outerBoundaryIs>
            <LinearRing>
              <coordinates>-6.283480335527293,53.31439290287119,0 -6.282742593750371,53.31437124819909,0 -6.282011959057557,53.31430649279466,0 -6.281295470002215,53.31419926048196,0 -6.280600028739515,53.314050584282015,0 -6.2799323344790166,53.31386189645208,0 -6.279298818901123,53.31363501467604,0 -6.278705584161914,53.313372124539065,0 -6.2781583440855195,53.31307575845677,0 -6.277662369111921,53.31274877126188,0 -6.2772224355313515,53.31239431268518,0 -6.276842779494479,53.31201579699626,0 -6.276527056240984,53.31161687009768,0 -6.276278304938199,53.311201374390215,0 -6.276098919466868,53.31077331174865,0 -6.275990625433303,53.31033680496519,0 -6.275954463626714,53.309896058032706,0 -6.275990780078165,53.30945531565045,0 -6.276099222813678,53.309018822342786,0 -6.276278745329508,53.308590781584705,0 -6.276527616752804,53.30817531532746,0 -6.276843438586654,53.30777642431408,0 -6.27722316787534,53.307397949566294,0 -6.277663146564154,53.30704353541331,0 -6.278159136768943,53.30671659441754,0 -6.278706361614152,53.306420274534354,0 -6.279299551245119,53.306157428821116,0 -6.279932993571202,53.3059305879862,0 -6.280600589251344,53.30574193604146,0 -6.281295910393535,53.305593289291735,0 -6.282012262404375,53.30548607886253,0 -6.282742748395238,53.30542133693389,0 -6.283480335527293,53.30539968681201,0 -6.284217922659346,53.30542133693389,0 -6.2849484086502105,53.30548607886253,0 -6.28566476066105,53.305593289291735,0 -6.28636008180324,53.30574193604146,0 -6.287027677483384,53.3059305879862,0 -6.287661119809466,53.306157428821116,0 -6.288254309440434,53.306420274534354,0 -6.288801534285642,53.30671659441754,0 -6.289297524490432,53.30704353541331,0 -6.2897375031792455,53.307397949566294,0 -6.290117232467931,53.30777642431408,0 -6.290433054301781,53.30817531532746,0 -6.290681925725076,53.308590781584705,0 -6.290861448240907,53.309018822342786,0 -6.29096989097642,53.30945531565045,0 -6.291006207427871,53.309896058032706,0 -6.290970045621283,53.31033680496519,0 -6.290861751587717,53.31077331174865,0 -6.290682366116386,53.311201374390215,0 -6.2904336148136,53.31161687009768,0 -6.290117891560105,53.31201579699626,0 -6.289738235523234,53.31239431268518,0 -6.289298301942663,53.31274877126188,0 -6.2888023269690665,53.31307575845677,0 -6.28825508689267,53.313372124539065,0 -6.287661852153462,53.31363501467604,0 -6.2870283365755695,53.31386189645208,0 -6.286360642315071,53.314050584282015,0 -6.28566520105237,53.31419926048196,0 -6.284948711997028,53.31430649279466,0 -6.284218077304214,53.31437124819909,0 -6.283480335527293,53.31439290287119,0</coordinates>
            </LinearRing>
          </outerBoundaryIs>
        </Polygon>
      </Placemark>
      <Placemark>
        <name>Ballsbridge Circle</name>
        <Polygon>
          <outerBoundaryIs>
            <LinearRing>
              <coordinates>-6.230542576001011,53.33333283576191,0 -6.2298045066890495,53.333311181088234,0 -6.229073547618064,53.33324642567916,0 -6.228356740467789,53.3331391933589,0 -6.227660990459061,53.33299051714879,0 -6.2269929997767965,53.33280182930649,0 -6.226359202957714,53.33257494751629,0 -6.2257657048675945,53.332312057364,0 -6.225218221867517,53.33201569126574,0 -6.224722026737202,53.331688704054926,0 -6.2242818978868595,53.3313342454629,0 -6.2239020733469745,53.33095572975984,0 -6.223586209978809,53.33055680284887,0 -6.223337348297459,53.33014130713125,0 -6.223157883244716,53.32971324448213,0 -6.223049541191063,53.32927673769404,0 -6.223013363385743,53.32883599075998,0 -6.223049696011365,53.32839524837929,0 -6.223158186935662,53.32795875507628,0 -6.223337789188376,53.32753071432575,0 -6.223586771126508,53.32711524807868,0 -6.223902733186864,53.32671635707768,0 -6.224282631061663,53.32633788234402,0 -6.224722805071424,53.32598346820637,0 -6.225219015450211,53.32565652722655,0 -6.225766483201822,53.3253602073593,0 -6.226359936132525,53.3250973616614,0 -6.226993659616697,53.3248705208406,0 -6.22766155160677,53.32468186890827,0 -6.228357181358717,53.32453322216869,0 -6.229073851309018,53.324426011747036,0 -6.229804661509355,53.32436126982305,0 -6.230542576001011,53.32433961970273,0 -6.231280490492668,53.32436126982305,0 -6.2320113006930065,53.324426011747036,0 -6.232727970643307,53.32453322216869,0 -6.233423600395253,53.32468186890827,0 -6.234091492385326,53.3248705208406,0 -6.2347252158694975,53.3250973616614,0 -6.235318668800201,53.3253602073593,0 -6.235866136551812,53.32565652722655,0 -6.2363623469305995,53.32598346820637,0 -6.23680252094036,53.32633788234402,0 -6.237182418815158,53.32671635707768,0 -6.237498380875516,53.32711524807868,0 -6.237747362813648,53.32753071432575,0 -6.237926965066362,53.32795875507628,0 -6.238035455990659,53.32839524837929,0 -6.238071788616281,53.32883599075998,0 -6.23803561081096,53.32927673769404,0 -6.237927268757306,53.32971324448213,0 -6.237747803704565,53.33014130713125,0 -6.2374989420232145,53.33055680284887,0 -6.237183078655048,53.33095572975984,0 -6.236803254115165,53.3313342454629,0 -6.236363125264821,53.331688704054926,0 -6.235866930134506,53.33201569126574,0 -6.2353194471344295,53.332312057364,0 -6.23472594904431,53.33257494751629,0 -6.234092152225227,53.33280182930649,0 -6.233424161542962,53.33299051714879,0 -6.232728411534234,53.3331391933589,0 -6.23201160438396,53.33324642567916,0 -6.231280645312974,53.333311181088234,0 -6.230542576001011,53.33333283576191,0</coordinates>
            </LinearRing>
          </outerBoundaryIs>
        </Polygon>
      </Placemark>
      <Placemark>
        <name>Baggot St Circle</name>
        <Polygon>
          <outerBoundaryIs>
            <LinearRing>
              <coordinates>-6.24511623530001,53.3385451421263,0 -6.244378075784574,53.33852348745219,0 -6.2436470273795175,53.33845873204183,0 -6.242930132625583,53.3383514997195,0 -6.242234297587895,53.338202823506585,0 -6.241566225270782,53.33801413566086,0 -6.240932350997599,53.337787253866786,0 -6.240338780380382,53.337524363710266,0 -6.239791230478885,53.337227997607634,0 -6.239294974717197,53.3369010103924,0 -6.23885479208937,53.336546551796154,0 -6.238474921143595,53.33616803608922,0 -6.238159019187715,53.33576910917484,0 -6.237910127108006,53.335353613454416,0 -6.237730640138472,53.334925550803206,0 -6.237622284860045,53.334489044013836,0 -6.237586102648663,53.33404829707936,0 -6.237622439728674,53.33360755469909,0 -6.237730943924215,53.33317106139737,0 -6.2379105681365505,53.33274302064893,0 -6.23815958051058,53.33232755440465,0 -6.238475581189458,53.331928663407055,0 -6.238855525493038,53.3315501886773,0 -6.239295753294381,53.33119577454386,0 -6.239792024309301,53.33086883356843,0 -6.24033955895757,53.33057251370558,0 -6.240933084401276,53.33030966801189,0 -6.241566885316655,53.330082827194985,0 -6.242234858910769,53.32989417526606,0 -6.242930573654137,53.329745528529294,0 -6.24364733116527,53.32963831810971,0 -6.244378230653207,53.329573576187,0 -6.24511623530001,53.32955192606712,0 -6.245854239946814,53.329573576187,0 -6.246585139434751,53.32963831810971,0 -6.247301896945883,53.329745528529294,0 -6.247997611689251,53.32989417526606,0 -6.248665585283365,53.330082827194985,0 -6.249299386198744,53.33030966801189,0 -6.24989291164245,53.33057251370558,0 -6.25044044629072,53.33086883356843,0 -6.25093671730564,53.33119577454386,0 -6.251376945106982,53.3315501886773,0 -6.251756889410562,53.331928663407055,0 -6.252072890089441,53.33232755440465,0 -6.25232190246347,53.33274302064893,0 -6.252501526675806,53.33317106139737,0 -6.252610030871346,53.33360755469909,0 -6.252646367951357,53.33404829707936,0 -6.252610185739975,53.334489044013836,0 -6.252501830461549,53.334925550803206,0 -6.252322343492013,53.335353613454416,0 -6.252073451412304,53.33576910917484,0 -6.251757549456425,53.33616803608922,0 -6.25137767851065,53.336546551796154,0 -6.250937495882823,53.3369010103924,0 -6.250441240121135,53.337227997607634,0 -6.249893690219638,53.337524363710266,0 -6.249300119602421,53.337787253866786,0 -6.248666245329237,53.33801413566086,0 -6.247998173012126,53.338202823506585,0 -6.247302337974438,53.3383514997195,0 -6.2465854432205035,53.33845873204183,0 -6.245854394815447,53.33852348745219,0 -6.24511623530001,53.3385451421263,0</coordinates>
            </LinearRing>
          </outerBoundaryIs>
        </Polygon>
      </Placemark>
      <Placemark>
        <name>Stillorgan Circle</name>
        <Polygon>
          <outerBoundaryIs>
            <LinearRing>
              <coordinates>-6.200198192024133,53.29381293303521,0 -6.199460805723305,53.2937912783648,0 -6.198730523080413,53.29372652296542,0 -6.198014379255754,53.293619290660935,0 -6.197319273077304,53.29347061447201,0 -6.1966519005254534,53.293281926655524,0 -6.196018690180625,53.29305504489482,0 -6.195425741258041,53.29279215477451,0 -6.1948787648284585,53.292495788709516,0 -6.19438302879253,53.29216880153194,0 -6.19394330713966,53.29181434297188,0 -6.193563833980336,53.29143582729832,0 -6.193248262794326,53.29103690041316,0 -6.192999631286217,53.29062140471673,0 -6.1928203321852004,53.29019334208335,0 -6.192712090268217,53.28975683530496,0 -6.192675945825208,53.28931608837418,0 -6.1927122447227525,53.2888753459902,0 -6.192820635158668,53.28843885267749,0 -6.19300007113552,53.28801081191119,0 -6.193248822616302,53.28759534564293,0 -6.1935644922613395,53.28719645461609,0 -6.193944038582324,53.28681797985297,0 -6.194383805287923,53.286463565683334,0 -6.194879556536297,53.28613662467026,0 -6.195426517753436,53.28584030476977,0 -6.196019421623297,53.28557745903989,0 -6.196652558806468,53.28535061818963,0 -6.197319832899292,53.28516196623147,0 -6.198014819105066,53.28501331947069,0 -6.19873082605389,53.2849061090333,0 -6.199460960177844,53.28484136709961,0 -6.200198192024133,53.28481971697601,0 -6.200935423870421,53.28484136709961,0 -6.201665557994376,53.2849061090333,0 -6.202381564943198,53.28501331947069,0 -6.203076551148974,53.28516196623147,0 -6.203743825241798,53.28535061818963,0 -6.204376962424969,53.28557745903989,0 -6.20496986629483,53.28584030476977,0 -6.2055168275119685,53.28613662467026,0 -6.206012578760342,53.286463565683334,0 -6.206452345465942,53.28681797985297,0 -6.206831891786926,53.28719645461609,0 -6.207147561431964,53.28759534564293,0 -6.207396312912746,53.28801081191119,0 -6.207575748889597,53.28843885267749,0 -6.207684139325513,53.2888753459902,0 -6.207720438223058,53.28931608837418,0 -6.207684293780047,53.28975683530496,0 -6.207576051863065,53.29019334208335,0 -6.2073967527620475,53.29062140471673,0 -6.207148121253939,53.29103690041316,0 -6.20683255006793,53.29143582729832,0 -6.2064530769086055,53.29181434297188,0 -6.206013355255734,53.29216880153194,0 -6.2055176192198065,53.292495788709516,0 -6.204970642790225,53.29279215477451,0 -6.204377693867641,53.29305504489482,0 -6.203744483522812,53.293281926655524,0 -6.203077110970961,53.29347061447201,0 -6.202382004792511,53.293619290660935,0 -6.201665860967852,53.29372652296542,0 -6.200935578324961,53.2937912783648,0 -6.200198192024133,53.29381293303521,0</coordinates>
            </LinearRing>
          </outerBoundaryIs>
        </Polygon>
      </Placemark>
    </Folder>
  </Document>
</kml>