<?xml version="1.0" encoding="UTF-8"?>
<kml xmlns="http://www.opengis.net/kml/2.2">
  <Document>
    <name>Luas Green Line</name>
    <description>Luas Green Line</description>
    
    <!-- Style for the route -->
    <Style id="routeStyle">
      <LineStyle>
        <color>ff00ff00</color>
        <width>4</width>
      </LineStyle>
    </Style>
    
    <!-- Style for the points -->
    <Style id="pointStyle">
      <IconStyle>
        <scale>1.0</scale>
        <Icon>
          <href>http://maps.google.com/mapfiles/kml/paddle/grn-blank.png</href>
        </Icon>
      </IconStyle>
      <LabelStyle>
        <scale>0.8</scale>
      </LabelStyle>
    </Style>

    <!-- Style for the circles -->
    <Style id="circleStyle">
      <LineStyle>
        <color>7f0000ff</color>
        <width>2</width>
      </LineStyle>
      <PolyStyle>
        <color>1f0000ff</color>
        <fill>1</fill>
        <outline>1</outline>
      </PolyStyle>
    </Style>

    <!-- Folder for points -->
    <Folder>
      <name>Luas Green Line Points</name>
      <description>Luas Green Line Points</description>
      <styleUrl>#pointStyle</styleUrl>
      <Placemark>
        <name>Dawson (Luas Green Line)</name>
        <description></description>
        <Point>
          <coordinates>-6.25801984,53.34217543,0</coordinates>
        </Point>
      </Placemark>
      <Placemark>
        <name>St. Stephen's Green (Luas Green Line)</name>
        <description></description>
        <Point>
          <coordinates>-6.261319,53.339197,0</coordinates>
        </Point>
      </Placemark>
      <Placemark>
        <name>Ranelagh (Luas Green Line)</name>
        <description></description>
        <Point>
          <coordinates>-6.256196436,53.32613194,0</coordinates>
        </Point>
      </Placemark>
      <Placemark>
        <name>Phibsborough (Luas Green Line)</name>
        <description></description>
        <Point>
          <coordinates>-6.27902033,53.36033055,0</coordinates>
        </Point>
      </Placemark>
      <Placemark>
        <name>Broombridge (Luas Green Line)</name>
        <description></description>
        <Point>
          <coordinates>-6.29752527,53.37215461,0</coordinates>
        </Point>
      </Placemark>
      <Placemark>
        <name>O'Connell Upper (Luas Green Line)</name>
        <description></description>
        <Point>
          <coordinates>-6.261151,53.351612,0</coordinates>
        </Point>
      </Placemark>
      <Placemark>
        <name>Dominick (Luas Green Line)</name>
        <description></description>
        <Point>
          <coordinates>-6.265573,53.351245,0</coordinates>
        </Point>
      </Placemark>
      <Placemark>
        <name>Kilmacud (Luas Green Line)</name>
        <description></description>
        <Point>
          <coordinates>-6.224107001,53.28291052,0</coordinates>
        </Point>
      </Placemark>
      <Placemark>
        <name>Beechwood (Luas Green Line)</name>
        <description></description>
        <Point>
          <coordinates>-6.25475,53.320929,0</coordinates>
        </Point>
      </Placemark>
      <Placemark>
        <name>Cowper (Luas Green Line)</name>
        <description></description>
        <Point>
          <coordinates>-6.253499,53.316398,0</coordinates>
        </Point>
      </Placemark>
      <Placemark>
        <name>Harcourt (Luas Green Line)</name>
        <description></description>
        <Point>
          <coordinates>-6.26283,53.333631,0</coordinates>
        </Point>
      </Placemark>
      <Placemark>
        <name>Dundrum (Luas Green Line)</name>
        <description></description>
        <Point>
          <coordinates>-6.245234,53.292375,0</coordinates>
        </Point>
      </Placemark>
      <Placemark>
        <name>Balally (Luas Green Line)</name>
        <description></description>
        <Point>
          <coordinates>-6.236791,53.286023,0</coordinates>
        </Point>
      </Placemark>
      <Placemark>
        <name>Broadstone - University (Luas Green Line)</name>
        <description></description>
        <Point>
          <coordinates>-6.273733,53.354033,0</coordinates>
        </Point>
      </Placemark>
      <Placemark>
        <name>Windy Arbour (Luas Green Line)</name>
        <description></description>
        <Point>
          <coordinates>-6.250841,53.301757,0</coordinates>
        </Point>
      </Placemark>
      <Placemark>
        <name>Stillorgan (Luas Green Line)</name>
        <description></description>
        <Point>
          <coordinates>-6.21036734,53.27936144,0</coordinates>
        </Point>
      </Placemark>
      <Placemark>
        <name>Charlemont (Luas Green Line)</name>
        <description></description>
        <Point>
          <coordinates>-6.258704,53.330585,0</coordinates>
        </Point>
      </Placemark>
      <Placemark>
        <name>Milltown (Luas Green Line)</name>
        <description></description>
        <Point>
          <coordinates>-6.251749984,53.30967244,0</coordinates>
        </Point>
      </Placemark>
      <Placemark>
        <name>Westmoreland (Luas Green Line)</name>
        <description></description>
        <Point>
          <coordinates>-6.259086,53.34637,0</coordinates>
        </Point>
      </Placemark>
      <Placemark>
        <name>O'Connell - GPO (Luas Green Line)</name>
        <description></description>
        <Point>
          <coordinates>-6.259968,53.348839,0</coordinates>
        </Point>
      </Placemark>
      <Placemark>
        <name>Grangegorman (Luas Green Line)</name>
        <description></description>
        <Point>
          <coordinates>-6.27747,53.357115,0</coordinates>
        </Point>
      </Placemark>
      <Placemark>
        <name>Cabra (Luas Green Line)</name>
        <description></description>
        <Point>
          <coordinates>-6.282029723,53.36432866,0</coordinates>
        </Point>
      </Placemark>
      <Placemark>
        <name>Sandyford (Luas Green Line)</name>
        <description></description>
        <Point>
          <coordinates>-6.204714,53.277533,0</coordinates>
        </Point>
      </Placemark>
    </Folder>
    <Folder>
      <name>Luas Green Line Circles</name>
      <description>Luas Green Line Circles</description>
      <styleUrl>#circleStyle</styleUrl>
      <Placemark>
        <name>Dawson (Luas Green Line) Circle</name>
        <Polygon>
          <outerBoundaryIs>
            <LinearRing>
              <coordinates>-6.258019839999999,53.34667203802959,0 -6.257281539785404,53.346650383354806,0 -6.256550352037284,53.34658562794245,0 -6.2558333206393755,53.34647839561688,0 -6.25513735297372,53.34632971939959,0 -6.254469153322776,53.34614103154854,0 -6.2538351582368765,53.3459141497484,0 -6.253241474492071,53.345651259585296,0 -6.252693820237907,53.34535489347581,0 -6.252197469903552,53.34502790625374,0 -6.251757203393743,53.344673447650905,0 -6.251377260064179,53.344294931937895,0 -6.251061297919284,53.34389600501821,0 -6.250812358424294,53.343480509293414,0 -6.250632837269003,53.343052446638964,0 -6.250524461362615,53.34261593984759,0 -6.250488272278675,53.34217519291244,0 -6.2505246163066355,53.34173445053286,0 -6.250633141202634,53.34129795723314,0 -6.2508127996675364,53.34086991648793,0 -6.251061859515407,53.34045445024802,0 -6.251377920431361,53.34005555925575,0 -6.251757937154443,53.339677084532056,0 -6.252198248859759,53.33932267040521,0 -6.252694614454769,53.338995729436625,0 -6.253242253448281,53.33869940958063,0 -6.253835891997586,53.33843656389351,0 -6.254469813689968,53.33820972308268,0 -6.255137914569856,53.33802107115906,0 -6.255833761882627,53.33787242442666,0 -6.256550655970923,53.337765214010325,0 -6.257281694729429,53.33770047208961,0 -6.258019839999999,53.33767882197039,0 -6.25875798527057,53.33770047208961,0 -6.259489024029079,53.337765214010325,0 -6.260205918117372,53.33787242442666,0 -6.260901765430145,53.33802107115906,0 -6.261569866310031,53.33820972308268,0 -6.262203788002415,53.33843656389351,0 -6.262797426551719,53.33869940958063,0 -6.26334506554523,53.338995729436625,0 -6.263841431140241,53.33932267040521,0 -6.264281742845556,53.339677084532056,0 -6.264661759568639,53.34005555925575,0 -6.264977820484592,53.34045445024802,0 -6.265226880332464,53.34086991648793,0 -6.2654065387973645,53.34129795723314,0 -6.265515063693364,53.34173445053286,0 -6.265551407721325,53.34217519291244,0 -6.265515218637386,53.34261593984759,0 -6.265406842730997,53.343052446638964,0 -6.265227321575706,53.343480509293414,0 -6.264978382080717,53.34389600501821,0 -6.264662419935822,53.344294931937895,0 -6.264282476606257,53.344673447650905,0 -6.263842210096448,53.34502790625374,0 -6.263345859762093,53.34535489347581,0 -6.26279820550793,53.345651259585296,0 -6.262204521763123,53.3459141497484,0 -6.261570526677224,53.34614103154854,0 -6.2609023270262805,53.34632971939959,0 -6.260206359360626,53.34647839561688,0 -6.259489327962718,53.34658562794245,0 -6.258758140214597,53.346650383354806,0 -6.258019839999999,53.34667203802959,0</coordinates>
            </LinearRing>
          </outerBoundaryIs>
        </Polygon>
      </Placemark>
      <Placemark>
        <name>St. Stephen's Green (Luas Green Line) Circle</name>
        <Polygon>
          <outerBoundaryIs>
            <LinearRing>
              <coordinates>-6.261319,53.3436936080296,0 -6.260580751358257,53.34367195335507,0 -6.259849614685917,53.34360719794345,0 -6.2591326333744455,53.34349996561906,0 -6.258436714323173,53.34335128940336,0 -6.257768561346062,53.343162601554276,0 -6.257134610543699,53.34293571975635,0 -6.256540968265469,53.34267282959568,0 -6.255993352261461,53.34237646348869,0 -6.255497036592432,53.342049476269125,0 -6.25505680082931,53.34169501766871,0 -6.254676884031806,53.34131650195793,0 -6.254360943949011,53.34091757504018,0 -6.254112021833949,53.34050207931699,0 -6.253932513209344,53.340074016663735,0 -6.253824144864072,53.339637509873086,0 -6.253787958299247,53.33919676293819,0 -6.253824299780457,53.338756020558364,0 -6.2539328170887645,53.3383195272579,0 -6.25411246299849,53.33789148651151,0 -6.254361505444967,53.337476020269996,0 -6.254677544281202,53.33707712927577,0 -6.255057534459135,53.33669865454985,0 -6.255497815409702,53.3363442404206,0 -6.255994146336665,53.3360172994495,0 -6.256541747082743,53.335720979590995,0 -6.257135344173531,53.33545813390147,0 -6.257769221595469,53.33523129308841,0 -6.25843727581914,53.33504264116285,0 -6.2591330745389975,53.33489399442884,0 -6.2598499185653464,53.33478678401131,0 -6.2605809062746465,53.334722042089865,0 -6.261319,53.33470039197042,0 -6.262057093725355,53.334722042089865,0 -6.262788081434654,53.33478678401131,0 -6.263504925461002,53.33489399442884,0 -6.264200724180862,53.33504264116285,0 -6.264868778404533,53.33523129308841,0 -6.265502655826469,53.33545813390147,0 -6.266096252917257,53.335720979590995,0 -6.266643853663335,53.3360172994495,0 -6.267140184590298,53.3363442404206,0 -6.267580465540865,53.33669865454985,0 -6.267960455718797,53.33707712927577,0 -6.268276494555033,53.337476020269996,0 -6.26852553700151,53.33789148651151,0 -6.268705182911235,53.3383195272579,0 -6.268813700219543,53.338756020558364,0 -6.268850041700753,53.33919676293819,0 -6.268813855135928,53.339637509873086,0 -6.268705486790656,53.340074016663735,0 -6.268525978166052,53.34050207931699,0 -6.26827705605099,53.34091757504018,0 -6.267961115968196,53.34131650195793,0 -6.26758119917069,53.34169501766871,0 -6.267140963407569,53.342049476269125,0 -6.26664464773854,53.34237646348869,0 -6.266097031734531,53.34267282959568,0 -6.265503389456301,53.34293571975635,0 -6.26486943865394,53.343162601554276,0 -6.264201285676829,53.34335128940336,0 -6.263505366625554,53.34349996561906,0 -6.262788385314084,53.34360719794345,0 -6.262057248641744,53.34367195335507,0 -6.261319,53.3436936080296,0</coordinates>
            </LinearRing>
          </outerBoundaryIs>
        </Polygon>
      </Placemark>
      <Placemark>
        <name>Ranelagh (Luas Green Line) Circle</name>
        <Polygon>
          <outerBoundaryIs>
            <LinearRing>
              <coordinates>-6.256196436,53.3306285480296,0 -6.255458413476987,53.330606893356155,0 -6.254727500743985,53.33054213794774,0 -6.254010739034124,53.33043490562856,0 -6.253315033130301,53.3302862294199,0 -6.2526470847924,53.33009754157935,0 -6.252013328149108,53.32987065979119,0 -6.251419867679122,53.329607769641086,0 -6.250872419381113,53.32931140354512,0 -6.250376255700565,53.32898441633655,0 -6.249936154744846,53.32862995774672,0 -6.249556354275908,53.3282514420457,0 -6.2492405109233635,53.32785251513649,0 -6.248991665009781,53.32743701942031,0 -6.248812211325379,53.327008956772275,0 -6.248703876131477,53.32657244998484,0 -6.248667700611599,53.32613170305101,0 -6.248704030926712,53.3256909606701,0 -6.248812514967155,53.32525446736641,0 -6.248992105829316,53.32482642661483,0 -6.24924107198021,53.3244109603663,0 -6.249557014008968,53.32401206936351,0 -6.249936887800947,53.32363359462785,0 -6.250377033908774,53.323279180488015,0 -6.250873212835324,53.32295223950591,0 -6.251420645887334,53.32265591963639,0 -6.252014061205217,53.32239307393629,0 -6.25264774452547,53.32216623311347,0 -6.25331559418716,53.32197758117936,0 -6.254011179853669,53.321828934438344,0 -6.2547278043857695,53.32172172401561,0 -6.255458568272227,53.32165698209094,0 -6.256196436,53.32163533197041,0 -6.256934303727773,53.32165698209094,0 -6.25766506761423,53.32172172401561,0 -6.25838169214633,53.321828934438344,0 -6.259077277812841,53.32197758117936,0 -6.25974512747453,53.32216623311347,0 -6.2603788107947835,53.32239307393629,0 -6.260972226112665,53.32265591963639,0 -6.261519659164676,53.32295223950591,0 -6.262015838091226,53.323279180488015,0 -6.262455984199052,53.32363359462785,0 -6.262835857991032,53.32401206936351,0 -6.26315180001979,53.3244109603663,0 -6.263400766170683,53.32482642661483,0 -6.263580357032844,53.32525446736641,0 -6.263688841073288,53.3256909606701,0 -6.2637251713884,53.32613170305101,0 -6.263688995868523,53.32657244998484,0 -6.263580660674621,53.327008956772275,0 -6.263401206990219,53.32743701942031,0 -6.263152361076636,53.32785251513649,0 -6.262836517724091,53.3282514420457,0 -6.262456717255152,53.32862995774672,0 -6.262016616299435,53.32898441633655,0 -6.261520452618886,53.32931140354512,0 -6.260973004320878,53.329607769641086,0 -6.260379543850891,53.32987065979119,0 -6.259745787207599,53.33009754157935,0 -6.259077838869699,53.3302862294199,0 -6.258382132965876,53.33043490562856,0 -6.257665371256015,53.33054213794774,0 -6.256934458523013,53.330606893356155,0 -6.256196436,53.3306285480296,0</coordinates>
            </LinearRing>
          </outerBoundaryIs>
        </Polygon>
      </Placemark>
      <Placemark>
        <name>Phibsborough (Luas Green Line) Circle</name>
        <Polygon>
          <outerBoundaryIs>
            <LinearRing>
              <coordinates>-6.27902033,53.3648271580296,0 -6.278281715222277,53.36480550335331,0 -6.277550215942874,53.3647407479365,0 -6.276832879048078,53.364633515603664,0 -6.276136614864186,53.364484839376615,0 -6.275468130531175,53.36429615151368,0 -6.274833865342569,53.36406926969998,0 -6.274239928676803,53.36380637952216,0 -6.2736920411199035,53.363510013397345,0 -6.273195479348107,53.36318302615998,0 -6.2727550253021676,53.36282856754241,0 -6.272374920143149,53.36245005181586,0 -6.272058823432835,53.362051124884275,0 -6.271809777930849,53.361635629149724,0 -6.271630180346005,53.36120756648802,0 -6.271521758321408,53.3607710596922,0 -6.271485553872419,53.360330312755536,0 -6.271521913434031,53.35988957037747,0 -6.271630484610359,53.35945307708221,0 -6.271810219654228,53.35902503634426,0 -6.272059385640056,53.3586095701141,0 -6.272375581228906,53.35821067913372,0 -6.272755759861304,53.35783220442361,0 -6.27319625915193,53.35747779031147,0 -6.273692836200988,53.35715084935819,0 -6.27424070848063,53.35685452951749,0 -6.274834599901715,53.3565916838451,0 -6.275468791616942,53.35636484304784,0 -6.27613717707142,53.35617619113611,0 -6.276833320771467,53.35602754441345,0 -6.277550520207236,53.35592033400437,0 -6.278281870334904,53.355855592088126,0 -6.27902033,53.35583394197042,0 -6.279758789665096,53.355855592088126,0 -6.280490139792765,53.35592033400437,0 -6.2812073392285335,53.35602754441345,0 -6.281903482928581,53.35617619113611,0 -6.282571868383059,53.35636484304784,0 -6.283206060098285,53.3565916838451,0 -6.28379995151937,53.35685452951749,0 -6.2843478237990125,53.35715084935819,0 -6.284844400848071,53.35747779031147,0 -6.285284900138697,53.35783220442361,0 -6.285665078771094,53.35821067913372,0 -6.285981274359944,53.3586095701141,0 -6.286230440345773,53.35902503634426,0 -6.2864101753896415,53.35945307708221,0 -6.286518746565969,53.35988957037747,0 -6.28655510612758,53.360330312755536,0 -6.286518901678592,53.3607710596922,0 -6.286410479653996,53.36120756648802,0 -6.286230882069152,53.361635629149724,0 -6.285981836567166,53.362051124884275,0 -6.285665739856851,53.36245005181586,0 -6.285285634697834,53.36282856754241,0 -6.284845180651893,53.36318302615998,0 -6.284348618880097,53.363510013397345,0 -6.283800731323198,53.36380637952216,0 -6.283206794657431,53.36406926969998,0 -6.282572529468826,53.36429615151368,0 -6.281904045135814,53.364484839376615,0 -6.281207780951923,53.364633515603664,0 -6.2804904440571265,53.3647407479365,0 -6.279758944777724,53.36480550335331,0 -6.27902033,53.3648271580296,0</coordinates>
            </LinearRing>
          </outerBoundaryIs>
        </Polygon>
      </Placemark>
      <Placemark>
        <name>Broombridge (Luas Green Line) Circle</name>
        <Polygon>
          <outerBoundaryIs>
            <LinearRing>
              <coordinates>-6.29752527,53.3766512180296,0 -6.29678645016964,53.37662956335233,0 -6.296054747813954,53.376564807932596,0 -6.295337211776484,53.37645757559505,0 -6.2946407543027885,53.37630889936164,0 -6.2939720843955556,53.37612021149094,0 -6.293337643136504,53.3758933296684,0 -6.29274354160047,53.375630439480986,0 -6.292195501961734,53.37533407334621,0 -6.291698802361321,53.37500708609885,0 -6.291258226067188,53.3746526274717,0 -6.2908780154172605,53.37427411173629,0 -6.2905618309885005,53.37387518479696,0 -6.290312716384301,53.373459689056055,0 -6.290133068977739,53.37303162638963,0 -6.290024616890326,53.3725951195909,0 -6.289988402425418,53.37215437265326,0 -6.290024772112887,53.371713630276176,0 -6.290133373457748,53.37127713698383,0 -6.290313158420761,53.37084909625061,0 -6.2905623935941986,53.37043363002681,0 -6.290878676971576,53.37003473905419,0 -6.2912589611469585,53.369656264352905,0 -6.291699582717845,53.369301850250366,0 -6.29219629760635,53.36897490930706,0 -6.292744321957,53.368678589476346,0 -6.2933383782162835,53.36841574381353,0 -6.293972745949881,53.3681889030251,0 -6.294641316908497,53.368000251121124,0 -6.295337653812955,53.36785160440483,0 -6.296055052293969,53.36774439400047,0 -6.296786605392206,53.367679652087126,0 -6.29752527,53.367658001970405,0 -6.298263934607794,53.367679652087126,0 -6.298995487706031,53.36774439400047,0 -6.299712886187047,53.36785160440483,0 -6.3004092230915045,53.368000251121124,0 -6.301077794050121,53.3681889030251,0 -6.301712161783717,53.36841574381353,0 -6.302306218043,53.368678589476346,0 -6.302854242393652,53.36897490930706,0 -6.303350957282156,53.369301850250366,0 -6.303791578853041,53.369656264352905,0 -6.304171863028426,53.37003473905419,0 -6.304488146405803,53.37043363002681,0 -6.30473738157924,53.37084909625061,0 -6.304917166542253,53.37127713698383,0 -6.305025767887114,53.371713630276176,0 -6.305062137574584,53.37215437265326,0 -6.3050259231096755,53.3725951195909,0 -6.304917471022262,53.37303162638963,0 -6.304737823615699,53.373459689056055,0 -6.3044887090115,53.37387518479696,0 -6.304172524582739,53.37427411173629,0 -6.303792313932814,53.3746526274717,0 -6.303351737638681,53.37500708609885,0 -6.302855038038268,53.37533407334621,0 -6.302306998399531,53.375630439480986,0 -6.3017128968634974,53.3758933296684,0 -6.301078455604445,53.37612021149094,0 -6.300409785697213,53.37630889936164,0 -6.299713328223516,53.37645757559505,0 -6.298995792186047,53.376564807932596,0 -6.298264089830361,53.37662956335233,0 -6.29752527,53.3766512180296,0</coordinates>
            </LinearRing>
          </outerBoundaryIs>
        </Polygon>
      </Placemark>
      <Placemark>
        <name>O'Connell Upper (Luas Green Line) Circle</name>
        <Polygon>
          <outerBoundaryIs>
            <LinearRing>
              <coordinates>-6.261151,53.35610860802961,0 -6.260412536326184,53.35608695335404,0 -6.2596811866943085,53.35602219793937,0 -6.258963996548352,53.355914965610005,0 -6.258267874800302,53.35576628938766,0 -6.257599527217497,53.355577601530435,0 -6.25696539177574,53.35535071972324,0 -6.256371576603377,53.35508782955249,0 -6.255823801116047,53.354791463435056,0 -6.255327340910583,53.354464476205024,0 -6.254886976949711,53.35411001759453,0 -6.254506949527274,53.353731501874485,0 -6.254190917456956,53.35333257494861,0 -6.253941922876609,53.35291707921874,0 -6.253762362005549,53.35248901656054,0 -6.253653962134344,53.35205250976684,0 -6.253617765066124,53.35161176283091,0 -6.253654117165969,53.351171020452114,0 -6.2537626661110215,53.35073452715471,0 -6.253942364369326,53.35030648641328,0 -6.254191479370601,53.34989102017844,0 -6.2545076102678205,53.34949212919234,0 -6.254887711125273,53.349113654475694,0 -6.255328120307204,53.3487592403565,0 -6.255824595781954,53.348432299395874,0 -6.256372356000003,53.34813597954783,0 -6.256966125951311,53.34787313386836,0 -6.257600187958055,53.347646293064585,0 -6.2582684367139585,53.347457641147145,0 -6.258964438041079,53.347308994419805,0 -6.25968149079979,53.347201784007225,0 -6.260412691357813,53.347137042088846,0 -6.261151,53.347115391970405,0 -6.2618893086421865,53.347137042088846,0 -6.26262050920021,53.347201784007225,0 -6.263337561958921,53.347308994419805,0 -6.264033563286041,53.347457641147145,0 -6.264701812041945,53.347646293064585,0 -6.26533587404869,53.34787313386836,0 -6.265929643999997,53.34813597954783,0 -6.266477404218047,53.348432299395874,0 -6.266973879692795,53.3487592403565,0 -6.267414288874727,53.349113654475694,0 -6.267794389732178,53.34949212919234,0 -6.268110520629399,53.34989102017844,0 -6.268359635630673,53.35030648641328,0 -6.268539333888977,53.35073452715471,0 -6.26864788283403,53.351171020452114,0 -6.268684234933876,53.35161176283091,0 -6.268648037865656,53.35205250976684,0 -6.268539637994451,53.35248901656054,0 -6.268360077123392,53.35291707921874,0 -6.268111082543044,53.35333257494861,0 -6.267795050472726,53.353731501874485,0 -6.2674150230502885,53.35411001759453,0 -6.266974659089417,53.354464476205024,0 -6.266478198883952,53.354791463435056,0 -6.265930423396623,53.35508782955249,0 -6.26533660822426,53.35535071972324,0 -6.264702472782502,53.355577601530435,0 -6.264034125199697,53.35576628938766,0 -6.263338003451649,53.355914965610005,0 -6.26262081330569,53.35602219793937,0 -6.261889463673817,53.35608695335404,0 -6.261151,53.35610860802961,0</coordinates>
            </LinearRing>
          </outerBoundaryIs>
        </Polygon>
      </Placemark>
      <Placemark>
        <name>Dominick (Luas Green Line) Circle</name>
        <Polygon>
          <outerBoundaryIs>
            <LinearRing>
              <coordinates>-6.265573,53.355741608029604,0 -6.264834542685046,53.355719953354075,0 -6.264103199350742,53.35565519793948,0 -6.263386015380371,53.35554796561028,0 -6.262689899626408,53.35539928938812,0 -6.262021557798421,53.35521060153114,0 -6.261387427816761,53.35498371972421,0 -6.260793617757168,53.354720829553756,0 -6.260245846986028,53.35442446343663,0 -6.259749391054749,53.35409747620691,0 -6.259309030884902,53.35374301759672,0 -6.258929006733829,53.353364501876946,0 -6.258612977383736,53.35296557495131,0 -6.25836398494631,53.35255007922165,0 -6.258184425620266,53.352122016563584,0 -6.258076026681335,53.351685509769986,0 -6.258039829923718,53.351244762834085,0 -6.258076181709553,53.35080402045525,0 -6.258184729719053,53.35036752715776,0 -6.2583644264293214,53.349939486416176,0 -6.258613539285029,53.34952402018115,0 -6.258929667459851,53.34912512919481,0 -6.259309765044322,53.348746654477885,0 -6.259750170434236,53.3483922403584,0 -6.260246641634464,53.34806529939745,0 -6.260794397136658,53.347768979549095,0 -6.26138816197619,53.34750613386934,0 -6.262022218524453,53.34727929306527,0 -6.262690461527711,53.34709064114761,0 -6.263386456863394,53.34694199442007,0 -6.264103503449537,53.34683478400734,0 -6.264834697713267,53.34677004208886,0 -6.265573,53.34674839197041,0 -6.266311302286734,53.34677004208886,0 -6.267042496550464,53.34683478400734,0 -6.267759543136607,53.34694199442007,0 -6.268455538472289,53.34709064114761,0 -6.269123781475547,53.34727929306527,0 -6.26975783802381,53.34750613386934,0 -6.270351602863342,53.347768979549095,0 -6.2708993583655355,53.34806529939745,0 -6.271395829565765,53.3483922403584,0 -6.2718362349556775,53.348746654477885,0 -6.272216332540149,53.34912512919481,0 -6.272532460714972,53.34952402018115,0 -6.272781573570679,53.349939486416176,0 -6.272961270280948,53.35036752715776,0 -6.273069818290447,53.35080402045525,0 -6.273106170076282,53.351244762834085,0 -6.273069973318666,53.351685509769986,0 -6.272961574379735,53.352122016563584,0 -6.27278201505369,53.35255007922165,0 -6.272533022616264,53.35296557495131,0 -6.272216993266171,53.353364501876946,0 -6.271836969115099,53.35374301759672,0 -6.271396608945252,53.35409747620691,0 -6.270900153013971,53.35442446343663,0 -6.270352382242833,53.354720829553756,0 -6.269758572183241,53.35498371972421,0 -6.269124442201581,53.35521060153114,0 -6.2684561003735935,53.35539928938812,0 -6.267759984619629,53.35554796561028,0 -6.267042800649259,53.35565519793948,0 -6.266311457314956,53.355719953354075,0 -6.265573,53.355741608029604,0</coordinates>
            </LinearRing>
          </outerBoundaryIs>
        </Polygon>
      </Placemark>
      <Placemark>
        <name>Kilmacud (Luas Green Line) Circle</name>
        <Polygon>
          <outerBoundaryIs>
            <LinearRing>
              <coordinates>-6.224107001000001,53.2874071280296,0 -6.223369725256799,53.287385473359734,0 -6.222639552105952,53.28732071796192,0 -6.221923515652466,53.287213485659976,0 -6.221228513689521,53.287064809474494,0 -6.22056124119319,53.2868761216622,0 -6.219928125779766,53.28664923990626,0 -6.219335265749823,53.28638634979112,0 -6.218788371317789,53.28608998373152,0 -6.218292709594551,53.28576299655932,0 -6.21785305385392,53.28540853800445,0 -6.217473637571867,53.28503002233565,0 -6.2171581136808065,53.28463109545468,0 -6.2169095194303905,53.284215599761666,0 -6.2167302471916575,53.28378753713085,0 -6.2166220214836105,53.28335103035402,0 -6.2165858824409055,53.28291028342377,0 -6.2166221758789675,53.282469541039255,0 -6.216730550049045,53.28203304772498,0 -6.2169099591111685,53.28160500695615,0 -6.217158673288292,53.28118954068443,0 -6.217474295600658,53.28079064965341,0 -6.217853785016339,53.28041217488551,0 -6.218293485792435,53.28005776071071,0 -6.218789162722293,53.27973081969225,0 -6.219336041947712,53.27943449978638,0 -6.219928856942191,53.27917165405131,0 -6.22056189922199,53.27894481319628,0 -6.221229073297017,53.27875616123393,0 -6.2219239553332555,53.27860751446975,0 -6.222639854963347,53.27850030402979,0 -6.223369879652161,53.27843556209453,0 -6.224107001000001,53.2784139119704,0 -6.224844122347839,53.27843556209453,0 -6.225574147036653,53.27850030402979,0 -6.226290046666746,53.27860751446975,0 -6.226984928702983,53.27875616123393,0 -6.22765210277801,53.27894481319628,0 -6.228285145057809,53.27917165405131,0 -6.228877960052288,53.27943449978638,0 -6.229424839277708,53.27973081969225,0 -6.2299205162075655,53.28005776071071,0 -6.230360216983661,53.28041217488551,0 -6.230739706399342,53.28079064965341,0 -6.231055328711708,53.28118954068443,0 -6.231304042888831,53.28160500695615,0 -6.231483451950956,53.28203304772498,0 -6.231591826121033,53.282469541039255,0 -6.231628119559095,53.28291028342377,0 -6.23159198051639,53.28335103035402,0 -6.231483754808343,53.28378753713085,0 -6.23130448256961,53.284215599761666,0 -6.231055888319193,53.28463109545468,0 -6.230740364428133,53.28503002233565,0 -6.23036094814608,53.28540853800445,0 -6.229921292405449,53.28576299655932,0 -6.229425630682211,53.28608998373152,0 -6.228878736250176,53.28638634979112,0 -6.2282858762202356,53.28664923990626,0 -6.22765276080681,53.2868761216622,0 -6.226985488310479,53.287064809474494,0 -6.226290486347535,53.287213485659976,0 -6.225574449894047,53.28732071796192,0 -6.224844276743201,53.287385473359734,0 -6.224107001000001,53.2874071280296,0</coordinates>
            </LinearRing>
          </outerBoundaryIs>
        </Polygon>
      </Placemark>
      <Placemark>
        <name>Beechwood (Luas Green Line) Circle</name>
        <Polygon>
          <outerBoundaryIs>
            <LinearRing>
              <coordinates>-6.25475,53.32542560802959,0 -6.254012067475721,53.32540395335658,0 -6.253281243874022,53.32533919794943,0 -6.252564569568979,53.32523196563235,0 -6.251868948501123,53.32508328942647,0 -6.251201081612778,53.32489460158933,0 -6.250567402247784,53.324667719805056,0 -6.249974014140279,53.32440482965915,0 -6.249426632591841,53.32410846356757,0 -6.248930529405051,53.3237814763634,0 -6.248490482104756,53.32342701777777,0 -6.248110727936382,53.32304850208063,0 -6.247794923083969,53.32264957517482,0 -6.247546107499753,53.32223407946144,0 -6.247366675682403,53.32180601681547,0 -6.24725835368326,53.321369510029314,0 -6.247222182559447,53.32092876309593,0 -6.247258508430284,53.32048802071457,0 -6.247366979229612,53.32005152740962,0 -6.2475465481819965,53.31962348665595,0 -6.247795483966076,53.31920802040462,0 -6.248111387463971,53.318809129398446,0 -6.2484912149325496,53.31843065465889,0 -6.248931307370888,53.31807624051483,0 -6.249427425798932,53.31774929952835,0 -6.249974792106121,53.31745297965446,0 -6.250568135075585,53.31719013395014,0 -6.251201741140376,53.31696329312345,0 -6.2518695093832415,53.31677464118594,0 -6.2525650102512325,53.31662599444213,0 -6.253281547421238,53.316518784017326,0 -6.25401222222275,53.31645404209138,0 -6.25475,53.316432391970416,0 -6.255487777777249,53.31645404209138,0 -6.256218452578762,53.316518784017326,0 -6.256934989748766,53.31662599444213,0 -6.257630490616757,53.31677464118594,0 -6.258298258859624,53.31696329312345,0 -6.258931864924415,53.31719013395014,0 -6.259525207893878,53.31745297965446,0 -6.260072574201067,53.31774929952835,0 -6.260568692629111,53.31807624051483,0 -6.261008785067449,53.31843065465889,0 -6.261388612536029,53.318809129398446,0 -6.261704516033922,53.31920802040462,0 -6.261953451818003,53.31962348665595,0 -6.2621330207703885,53.32005152740962,0 -6.262241491569714,53.32048802071457,0 -6.262277817440551,53.32092876309593,0 -6.262241646316739,53.321369510029314,0 -6.262133324317596,53.32180601681547,0 -6.261953892500246,53.32223407946144,0 -6.261705076916029,53.32264957517482,0 -6.261389272063617,53.32304850208063,0 -6.261009517895242,53.32342701777777,0 -6.260569470594948,53.3237814763634,0 -6.260073367408159,53.32410846356757,0 -6.25952598585972,53.32440482965915,0 -6.258932597752215,53.324667719805056,0 -6.258298918387222,53.32489460158933,0 -6.257631051498876,53.32508328942647,0 -6.256935430431019,53.32523196563235,0 -6.256218756125977,53.32533919794943,0 -6.255487932524278,53.32540395335658,0 -6.25475,53.32542560802959,0</coordinates>
            </LinearRing>
          </outerBoundaryIs>
        </Polygon>
      </Placemark>
      <Placemark>
        <name>Cowper (Luas Green Line) Circle</name>
        <Polygon>
          <outerBoundaryIs>
            <LinearRing>
              <coordinates>-6.253499,53.32089460802959,0 -6.252761145828625,53.320872953356954,0 -6.252030399824642,53.320808197950925,0 -6.251313801614242,53.320700965635645,0 -6.250618254404583,53.320552289432186,0 -6.249950458426225,53.32036360159802,0 -6.249316846339725,53.32013671981712,0 -6.2487235212310015,53.31987382967488,0 -6.248176197794745,53.319577463587116,0 -6.247680147273825,53.31925047638676,0 -6.247240146685949,53.318896017804796,0 -6.2468604328268516,53.31851750211104,0 -6.246544661492658,53.318118575208196,0 -6.246295872313192,53.31770307949724,0 -6.246116459533299,53.31727501685308,0 -6.246008149021519,53.31683851006803,0 -6.245971981724923,53.316397763135015,0 -6.246008303726575,53.3159570207533,0 -6.246116762998185,53.31552052744724,0 -6.246296312875921,53.31509248669174,0 -6.246545222222652,53.31467702043799,0 -6.246861092175573,53.31427812942884,0 -6.247240879314997,53.31389965468591,0 -6.247680925028676,53.31354524053818,0 -6.248176990786716,53.313218299547906,0 -6.248724298985858,53.31292197967019,0 -6.249317578968779,53.31265913396219,0 -6.249951117774958,53.312432293132126,0 -6.2506188151345885,53.312243641191664,0 -6.251314242176982,53.31209499444541,0 -6.2520307032895355,53.3119877840188,0 -6.252761300533686,53.311923042091756,0 -6.253499,53.31190139197041,0 -6.254236699466314,53.311923042091756,0 -6.254967296710463,53.3119877840188,0 -6.255683757823018,53.31209499444541,0 -6.256379184865411,53.312243641191664,0 -6.257046882225042,53.312432293132126,0 -6.25768042103122,53.31265913396219,0 -6.258273701014143,53.31292197967019,0 -6.258821009213284,53.313218299547906,0 -6.259317074971324,53.31354524053818,0 -6.259757120685002,53.31389965468591,0 -6.260136907824427,53.31427812942884,0 -6.260452777777347,53.31467702043799,0 -6.260701687124079,53.31509248669174,0 -6.260881237001814,53.31552052744724,0 -6.260989696273423,53.3159570207533,0 -6.261026018275077,53.316397763135015,0 -6.26098985097848,53.31683851006803,0 -6.2608815404667,53.31727501685308,0 -6.260702127686807,53.31770307949724,0 -6.260453338507342,53.318118575208196,0 -6.260137567173149,53.31851750211104,0 -6.25975785331405,53.318896017804796,0 -6.259317852726174,53.31925047638676,0 -6.258821802205254,53.319577463587116,0 -6.258274478768998,53.31987382967488,0 -6.257681153660275,53.32013671981712,0 -6.257047541573773,53.32036360159802,0 -6.256379745595416,53.320552289432186,0 -6.255684198385758,53.320700965635645,0 -6.254967600175356,53.320808197950925,0 -6.254236854171375,53.320872953356954,0 -6.253499,53.32089460802959,0</coordinates>
            </LinearRing>
          </outerBoundaryIs>
        </Polygon>
      </Placemark>
      <Placemark>
        <name>Harcourt (Luas Green Line) Circle</name>
        <Polygon>
          <outerBoundaryIs>
            <LinearRing>
              <coordinates>-6.262829999999999,53.338127608029595,0 -6.26209184771139,53.33810595335552,0 -6.2613608064635065,53.33804119794526,0 -6.2606439187281095,53.337933965623094,0 -6.2599480905026805,53.337785289410405,0 -6.2592800247259035,53.33759660156495,0 -6.258646156658106,53.33736971977118,0 -6.258052591851537,53.337106829615,0 -6.257505047309977,53.33681046351271,0 -6.25700879640589,53.33648347629785,0 -6.2565686180865505,53.336129017701936,0 -6.256188750858674,53.335750501995314,0 -6.255872851994323,53.3353515750812,0 -6.255623962350037,53.334936079361,0 -6.255444477136408,53.33450801670996,0 -6.25533612291751,53.3340715099207,0 -6.255299941059129,53.33363076298625,0 -6.255336277782267,53.333190020605954,0 -6.255444780914557,53.332753527304135,0 -6.255624403367554,53.33232548655552,0 -6.255873413303152,53.33191002031102,0 -6.256189410888033,53.33151112931314,0 -6.256569351471882,53.33113265458308,0 -6.2570095749636065,53.330778240449305,0 -6.257505841120546,53.33045129947352,0 -6.258053370409259,53.33015497961032,0 -6.258646890043445,53.329892133916296,0 -6.259280684755274,53.32966529309908,0 -6.259948651811522,53.32947664116987,0 -6.260644359745637,53.32932799443288,0 -6.261361110241663,53.32922078401314,0 -6.262092002576151,53.32915604209031,0 -6.262829999999999,53.32913439197039,0 -6.263567997423848,53.32915604209031,0 -6.264298889758337,53.32922078401314,0 -6.265015640254364,53.32932799443288,0 -6.265711348188479,53.32947664116987,0 -6.266379315244726,53.32966529309908,0 -6.267013109956555,53.329892133916296,0 -6.267606629590741,53.33015497961032,0 -6.2681541588794545,53.33045129947352,0 -6.268650425036394,53.330778240449305,0 -6.269090648528119,53.33113265458308,0 -6.269470589111967,53.33151112931314,0 -6.269786586696848,53.33191002031102,0 -6.270035596632447,53.33232548655552,0 -6.270215219085443,53.332753527304135,0 -6.270323722217733,53.333190020605954,0 -6.270360058940871,53.33363076298625,0 -6.2703238770824905,53.3340715099207,0 -6.270215522863591,53.33450801670996,0 -6.270036037649962,53.334936079361,0 -6.269787148005678,53.3353515750812,0 -6.2694712491413265,53.335750501995314,0 -6.26909138191345,53.336129017701936,0 -6.268651203594111,53.33648347629785,0 -6.268154952690023,53.33681046351271,0 -6.267607408148463,53.337106829615,0 -6.2670138433418945,53.33736971977118,0 -6.266379975274097,53.33759660156495,0 -6.26571190949732,53.337785289410405,0 -6.265016081271891,53.337933965623094,0 -6.264299193536494,53.33804119794526,0 -6.2635681522886095,53.33810595335552,0 -6.262829999999999,53.338127608029595,0</coordinates>
            </LinearRing>
          </outerBoundaryIs>
        </Polygon>
      </Placemark>
      <Placemark>
        <name>Dundrum (Luas Green Line) Circle</name>
        <Polygon>
          <outerBoundaryIs>
            <LinearRing>
              <coordinates>-6.245234,53.29687160802959,0 -6.244496560894629,53.296849953358944,0 -6.243766225956138,53.29678519795882,0 -6.24305003084885,53.2966779656531,0 -6.242354874894984,53.29652928946255,0 -6.241687454554607,53.29634060164407,0 -6.241054198868633,53.29611371988108,0 -6.240461207489139,53.295850829758294,0 -6.239914191895883,53.295554463690735,0 -6.239418420366723,53.29522747651057,0 -6.238978667232843,53.29487301794805,0 -6.238599166907792,53.2944945022722,0 -6.238283573132767,53.29409557538506,0 -6.238034923829638,53.29368007968698,0 -6.237855611898656,53.29325201705239,0 -6.237747362239962,53.292815510273236,0 -6.23771121521766,53.29237476334222,0 -6.237747516722765,53.29193402095849,0 -6.2378559149275725,53.29149752764652,0 -6.2380353637594395,53.29106948688146,0 -6.238284133057197,53.290654020614824,0 -6.2385998253092705,53.29025512958998,0 -6.238979398809371,53.289876654829136,0 -6.239419197004225,53.28952224066199,0 -6.239914983748613,53.28919529965148,0 -6.240461984126645,53.288898979753554,0 -6.24105493044517,53.288636134026156,0 -6.241688112956095,53.28840929317816,0 -6.242355434819426,53.288220641222004,0 -6.243050470778662,53.288071994462875,0 -6.243766528985064,53.28796478402669,0 -6.244496715377435,53.287900042093746,0 -6.245234,53.287878391970416,0 -6.245971284622565,53.287900042093746,0 -6.246701471014937,53.28796478402669,0 -6.247417529221338,53.288071994462875,0 -6.248112565180575,53.288220641222004,0 -6.248779887043905,53.28840929317816,0 -6.249413069554831,53.288636134026156,0 -6.250006015873355,53.288898979753554,0 -6.250553016251388,53.28919529965148,0 -6.251048802995776,53.28952224066199,0 -6.25148860119063,53.289876654829136,0 -6.25186817469073,53.29025512958998,0 -6.2521838669428025,53.290654020614824,0 -6.25243263624056,53.29106948688146,0 -6.252612085072428,53.29149752764652,0 -6.252720483277236,53.29193402095849,0 -6.25275678478234,53.29237476334222,0 -6.252720637760039,53.292815510273236,0 -6.252612388101345,53.29325201705239,0 -6.252433076170362,53.29368007968698,0 -6.252184426867233,53.29409557538506,0 -6.251868833092208,53.2944945022722,0 -6.251489332767158,53.29487301794805,0 -6.2510495796332775,53.29522747651057,0 -6.250553808104118,53.295554463690735,0 -6.250006792510862,53.295850829758294,0 -6.249413801131366,53.29611371988108,0 -6.248780545445394,53.29634060164407,0 -6.248113125105017,53.29652928946255,0 -6.24741796915115,53.2966779656531,0 -6.246701774043863,53.29678519795882,0 -6.245971439105371,53.296849953358944,0 -6.245234,53.29687160802959,0</coordinates>
            </LinearRing>
          </outerBoundaryIs>
        </Polygon>
      </Placemark>
      <Placemark>
        <name>Balally (Luas Green Line) Circle</name>
        <Polygon>
          <outerBoundaryIs>
            <LinearRing>
              <coordinates>-6.236791,53.2905196080296,0 -6.236053670543879,53.29049795335947,0 -6.2353234441978085,53.290433197960894,0 -6.234607355579496,53.29032596565771,0 -6.233912302984863,53.29017728947055,0 -6.233244981877916,53.289988601656226,0 -6.232611820343358,53.28976171989797,0 -6.232018917126133,53.289498829780314,0 -6.231471982856703,53.2892024637181,0 -6.230976285029653,53.28887547654329,0 -6.230536597266456,53.2885210179859,0 -6.230157153351352,53.288142502314784,0 -6.229841606482682,53.28774357543178,0 -6.229592994131122,53.28732807973711,0 -6.229413708841712,53.28690001710505,0 -6.229305475258773,53.28646351032746,0 -6.229269333592402,53.28602276339695,0 -6.229305629682879,53.2855820210127,0 -6.229414011755495,53.28514552769918,0 -6.229593433893772,53.284717486931584,0 -6.229842166194371,53.28430202066153,0 -6.230157811502673,53.28390312963255,0 -6.230537328565023,53.28352465486697,0 -6.230977061372074,53.28317024069469,0 -6.231472774408573,53.28284329967884,0 -6.2320196934685566,53.28254697977558,0 -6.232612551641933,53.28228413404304,0 -6.2332456400292475,53.282057293190334,0 -6.233912862696563,53.281868641230005,0 -6.234607795342157,53.28171999446748,0 -6.235323747111598,53.281612784028766,0 -6.236053824967989,53.28154804209427,0 -6.236791,53.281526391970395,0 -6.237528175032011,53.28154804209427,0 -6.238258252888403,53.281612784028766,0 -6.238974204657843,53.28171999446748,0 -6.239669137303438,53.281868641230005,0 -6.240336359970754,53.282057293190334,0 -6.240969448358068,53.28228413404304,0 -6.241562306531444,53.28254697977558,0 -6.242109225591429,53.28284329967884,0 -6.242604938627928,53.28317024069469,0 -6.243044671434978,53.28352465486697,0 -6.243424188497327,53.28390312963255,0 -6.24373983380563,53.28430202066153,0 -6.243988566106228,53.284717486931584,0 -6.244167988244506,53.28514552769918,0 -6.244276370317121,53.2855820210127,0 -6.244312666407598,53.28602276339695,0 -6.2442765247412275,53.28646351032746,0 -6.244168291158289,53.28690001710505,0 -6.243989005868879,53.28732807973711,0 -6.243740393517318,53.28774357543178,0 -6.243424846648648,53.288142502314784,0 -6.243045402733545,53.2885210179859,0 -6.242605714970348,53.28887547654329,0 -6.242110017143299,53.2892024637181,0 -6.241563082873867,53.289498829780314,0 -6.240970179656642,53.28976171989797,0 -6.2403370181220845,53.289988601656226,0 -6.239669697015137,53.29017728947055,0 -6.238974644420505,53.29032596565771,0 -6.238258555802193,53.290433197960894,0 -6.237528329456123,53.29049795335947,0 -6.236791,53.2905196080296,0</coordinates>
            </LinearRing>
          </outerBoundaryIs>
        </Polygon>
      </Placemark>
      <Placemark>
        <name>Broadstone - University (Luas Green Line) Circle</name>
        <Polygon>
          <outerBoundaryIs>
            <LinearRing>
              <coordinates>-6.273733,53.358529608029585,0 -6.272994494374994,53.35850795335382,0 -6.272263103196265,53.35844319793856,0 -6.271545872308221,53.35833596560824,0 -6.27084971101551,53.35818728938458,0 -6.270181325466552,53.35799860152578,0 -6.269547154002995,53.357771719716766,0 -6.268953305100247,53.35750882954405,0 -6.268405498498885,53.35721246342457,0 -6.267909010095417,53.35688547619251,0 -6.267468621124101,53.35653101758006,0 -6.267088572119546,53.356152501858205,0 -6.266772522103134,53.35575357493074,0 -6.266523513385341,53.35533807919957,0 -6.26634394232138,53.354910016540394,0 -6.266235536299697,53.354473509746114,0 -6.266199337182343,53.35403276280997,0 -6.266235691353809,53.35359202043138,0 -6.266344246470961,53.353155527134575,0 -6.266523954942092,53.352727486394116,0 -6.26677308409828,53.35231202016056,0 -6.267089232955928,53.351913129176054,0 -6.267469355406147,53.351534654461226,0 -6.267909789605083,53.35118024034399,0 -6.26840629328005,53.3508532993854,0 -6.268954084609917,53.3505569795394,0 -6.26954788828505,53.3502941338619,0 -6.270181986302944,53.35006729305992,0 -6.270850273010668,53.34987864114406,0 -6.271546313864984,53.34972999441803,0 -6.272263407345854,53.34962278400642,0 -6.272994649429109,53.34955804208863,0 -6.273733,53.3495363919704,0 -6.27447135057089,53.34955804208863,0 -6.275202592654146,53.34962278400642,0 -6.275919686135015,53.34972999441803,0 -6.276615726989332,53.34987864114406,0 -6.277284013697054,53.35006729305992,0 -6.277918111714949,53.3502941338619,0 -6.278511915390083,53.3505569795394,0 -6.279059706719949,53.3508532993854,0 -6.279556210394917,53.35118024034399,0 -6.279996644593851,53.351534654461226,0 -6.28037676704407,53.351913129176054,0 -6.280692915901719,53.35231202016056,0 -6.280942045057908,53.352727486394116,0 -6.281121753529039,53.353155527134575,0 -6.281230308646191,53.35359202043138,0 -6.281266662817656,53.35403276280997,0 -6.281230463700303,53.354473509746114,0 -6.281122057678618,53.354910016540394,0 -6.280942486614659,53.35533807919957,0 -6.280693477896865,53.35575357493074,0 -6.280377427880453,53.356152501858205,0 -6.279997378875899,53.35653101758006,0 -6.279556989904583,53.35688547619251,0 -6.279060501501115,53.35721246342457,0 -6.278512694899753,53.35750882954405,0 -6.277918845997004,53.357771719716766,0 -6.277284674533448,53.35799860152578,0 -6.27661628898449,53.35818728938458,0 -6.275920127691777,53.35833596560824,0 -6.2752028968037346,53.35844319793856,0 -6.274471505625006,53.35850795335382,0 -6.273733,53.358529608029585,0</coordinates>
            </LinearRing>
          </outerBoundaryIs>
        </Polygon>
      </Placemark>
      <Placemark>
        <name>Windy Arbour (Luas Green Line) Circle</name>
        <Polygon>
          <outerBoundaryIs>
            <LinearRing>
              <coordinates>-6.250841,53.3062536080296,0 -6.250103398864774,53.30623195335817,0 -6.249372903458115,53.306167197955745,0 -6.248656550990941,53.3060599656463,0 -6.247961242302042,53.3059112894507,0 -6.247293675323378,53.305722601626094,0 -6.246660280508866,53.30549571985611,0 -6.246067158851056,53.30523282972573,0 -6.245520023084724,53.30493646365027,0 -6.2450241426451845,53.30460947646224,0 -6.244584292912362,53.30425501789213,0 -6.244204709229741,53.303876502209285,0 -6.243889046140707,53.30347757531601,0 -6.2436403422338635,53.30306207961291,0 -6.243460990934353,53.30263401697458,0 -6.243352717520354,53.30219751019314,0 -6.2433165625835425,53.301756763261324,0 -6.243352872089905,53.301316020878375,0 -6.243461294133434,53.300879527568725,0 -6.243640782410704,53.300451486807404,0 -6.243889606379559,53.30003602054579,0 -6.24420536800094,53.299637129527085,0 -6.244585024899701,53.299258654773226,0 -6.245024919718802,53.298904240613666,0 -6.245520815382116,53.298577299611054,0 -6.2460679359246765,53.298280979721014,0 -6.246661012496213,53.29801813400119,0 -6.247294334094588,53.297791293160195,0 -6.247961802540906,53.297602641210155,0 -6.248656991167793,53.29745399445605,0 -6.2493732066572045,53.29734678402361,0 -6.25010355343433,53.297282042092974,0 -6.250841,53.29726039197041,0 -6.25157844656567,53.297282042092974,0 -6.252308793342796,53.29734678402361,0 -6.253025008832208,53.29745399445605,0 -6.253720197459095,53.297602641210155,0 -6.254387665905412,53.297791293160195,0 -6.255020987503787,53.29801813400119,0 -6.255614064075324,53.298280979721014,0 -6.256161184617885,53.298577299611054,0 -6.256657080281198,53.298904240613666,0 -6.2570969751003,53.299258654773226,0 -6.25747663199906,53.299637129527085,0 -6.257792393620441,53.30003602054579,0 -6.258041217589296,53.300451486807404,0 -6.258220705866565,53.300879527568725,0 -6.258329127910096,53.301316020878375,0 -6.258365437416458,53.301756763261324,0 -6.258329282479647,53.30219751019314,0 -6.258221009065648,53.30263401697458,0 -6.258041657766137,53.30306207961291,0 -6.257792953859294,53.30347757531601,0 -6.25747729077026,53.303876502209285,0 -6.257097707087639,53.30425501789213,0 -6.256657857354816,53.30460947646224,0 -6.256161976915276,53.30493646365027,0 -6.255614841148945,53.30523282972573,0 -6.255021719491134,53.30549571985611,0 -6.254388324676623,53.305722601626094,0 -6.253720757697957,53.3059112894507,0 -6.253025449009059,53.3060599656463,0 -6.252309096541886,53.306167197955745,0 -6.2515786011352255,53.30623195335817,0 -6.250841,53.3062536080296,0</coordinates>
            </LinearRing>
          </outerBoundaryIs>
        </Polygon>
      </Placemark>
      <Placemark>
        <name>Stillorgan (Luas Green Line) Circle</name>
        <Polygon>
          <outerBoundaryIs>
            <LinearRing>
              <coordinates>-6.21036734,53.28385804802959,0 -6.209630125492044,53.283836393360026,0 -6.20890001298624,53.28377163796308,0 -6.208184036003098,53.283664405662556,0 -6.207489091762648,53.283515729478964,0 -6.206821874684693,53.28332704166899,0 -6.20618881185152,53.28310015991568,0 -6.205596001057104,53.28283726980342,0 -6.205049152041565,53.2825409037468,0 -6.2045535314783615,53.28221391657759,0 -6.204113912244958,53.28185945802558,0 -6.203734527465878,53.28148094235942,0 -6.203419029770369,53.28108201548078,0 -6.203170456156104,53.280666519789676,0 -6.202991198795755,53.28023845716026,0 -6.202882982065454,53.2798019503843,0 -6.20284684601385,53.27936120345435,0 -6.202883136428038,53.27892046106954,0 -6.202991501588853,53.27848396775438,0 -6.20317089574355,53.27805592698414,0 -6.203419589259064,53.27764046071052,0 -6.2037351853549865,53.27724156967718,0 -6.204114643252171,53.276863094906645,0 -6.204554307511481,53.27650868072898,0 -6.205049943278075,53.27618173970754,0 -6.205596777090228,53.275885419798676,0 -6.206189542858741,53.275622574060755,0 -6.206822532573813,53.27539573320308,0 -6.207489651251354,53.275207081238406,0 -6.2081844755905555,53.275058434472314,0 -6.208900315779348,53.27495122403095,0 -6.209630279854633,53.27488648209483,0 -6.21036734,53.27486483197041,0 -6.211104400145368,53.27488648209483,0 -6.211834364220652,53.27495122403095,0 -6.212550204409445,53.275058434472314,0 -6.213245028748647,53.275207081238406,0 -6.213912147426188,53.27539573320308,0 -6.21454513714126,53.275622574060755,0 -6.215137902909773,53.275885419798676,0 -6.215684736721926,53.27618173970754,0 -6.21618037248852,53.27650868072898,0 -6.216620036747829,53.276863094906645,0 -6.216999494645013,53.27724156967718,0 -6.217315090740936,53.27764046071052,0 -6.21756378425645,53.27805592698414,0 -6.217743178411147,53.27848396775438,0 -6.217851543571963,53.27892046106954,0 -6.21788783398615,53.27936120345435,0 -6.217851697934546,53.2798019503843,0 -6.217743481204247,53.28023845716026,0 -6.2175642238438975,53.280666519789676,0 -6.217315650229632,53.28108201548078,0 -6.217000152534122,53.28148094235942,0 -6.2166207677550425,53.28185945802558,0 -6.216181148521639,53.28221391657759,0 -6.215685527958436,53.2825409037468,0 -6.215138678942898,53.28283726980342,0 -6.21454586814848,53.28310015991568,0 -6.213912805315307,53.28332704166899,0 -6.213245588237354,53.283515729478964,0 -6.212550643996902,53.283664405662556,0 -6.211834667013759,53.28377163796308,0 -6.211104554507956,53.283836393360026,0 -6.21036734,53.28385804802959,0</coordinates>
            </LinearRing>
          </outerBoundaryIs>
        </Polygon>
      </Placemark>
      <Placemark>
        <name>Charlemont (Luas Green Line) Circle</name>
        <Polygon>
          <outerBoundaryIs>
            <LinearRing>
              <coordinates>-6.258703999999999,53.3350816080296,0 -6.257965900427159,53.33505995335578,0 -6.257234911386955,53.33499519794628,0 -6.256518074847969,53.33488796562532,0 -6.255822296314274,53.334739289414266,0 -6.255154278245677,53.33455060157081,0 -6.254520455442792,53.33432371977932,0 -6.25392693302175,53.33406082962561,0 -6.2533794275780155,53.333764463525895,0 -6.252883212107478,53.33343747631358,0 -6.2524430652162115,53.333083017720135,0 -6.252063225108379,53.33270450201579,0 -6.251747348795055,53.33230557510367,0 -6.2514984769158595,53.3318900793851,0 -6.251319004510613,53.33146201673529,0 -6.251210658020398,53.33102550994677,0 -6.251174478736959,53.33058476301257,0 -6.251210812856911,53.33014402063202,0 -6.2513193082333585,53.32970752732944,0 -6.2514989178529445,53.32927948657962,0 -6.251747910001515,53.32886402033348,0 -6.252063885017365,53.328465129333615,0 -6.252443798467792,53.32808665460128,0 -6.252883990523205,53.32773224046503,0 -6.253380221243812,53.32740529948668,0 -6.253927711437481,53.32710897962092,0 -6.25452118869438,53.32684613392441,0 -6.255154938154673,53.326619293104926,0 -6.255822857520745,53.32643064117373,0 -6.256518515785065,53.32628199443511,0 -6.257235215109709,53.32617478401414,0 -6.257966055263676,53.32611004209059,0 -6.258703999999999,53.326088391970416,0 -6.259441944736324,53.32611004209059,0 -6.26017278489029,53.32617478401414,0 -6.2608894842149345,53.32628199443511,0 -6.261585142479254,53.32643064117373,0 -6.2622530618453265,53.326619293104926,0 -6.26288681130562,53.32684613392441,0 -6.263480288562518,53.32710897962092,0 -6.264027778756188,53.32740529948668,0 -6.264524009476794,53.32773224046503,0 -6.264964201532208,53.32808665460128,0 -6.265344114982635,53.328465129333615,0 -6.265660089998485,53.32886402033348,0 -6.265909082147055,53.32927948657962,0 -6.266088691766641,53.32970752732944,0 -6.266197187143089,53.33014402063202,0 -6.26623352126304,53.33058476301257,0 -6.266197341979602,53.33102550994677,0 -6.266088995489387,53.33146201673529,0 -6.26590952308414,53.3318900793851,0 -6.265660651204945,53.33230557510367,0 -6.265344774891621,53.33270450201579,0 -6.264964934783787,53.333083017720135,0 -6.264524787892522,53.33343747631358,0 -6.264028572421984,53.333764463525895,0 -6.263481066978249,53.33406082962561,0 -6.262887544557207,53.33432371977932,0 -6.2622537217543215,53.33455060157081,0 -6.261585703685726,53.334739289414266,0 -6.26088992515203,53.33488796562532,0 -6.260173088613045,53.33499519794628,0 -6.259442099572841,53.33505995335578,0 -6.258703999999999,53.3350816080296,0</coordinates>
            </LinearRing>
          </outerBoundaryIs>
        </Polygon>
      </Placemark>
      <Placemark>
        <name>Milltown (Luas Green Line) Circle</name>
        <Polygon>
          <outerBoundaryIs>
            <LinearRing>
              <coordinates>-6.251749983999999,53.3141690480296,0 -6.25101224609206,53.314147393357516,0 -6.2502816152309375,53.31408263795314,0 -6.249565129933067,53.31397540564053,0 -6.248869692317405,53.3138267294407,0 -6.248202001558365,53.31363804161093,0 -6.24756848930261,53.313411159835034,0 -6.246975257674214,53.31314826969826,0 -6.246428020467336,53.31285190361614,0 -6.245932048094322,53.31252491642144,0 -6.24549211682036,53.31217045784492,0 -6.245112462773918,53.311791942156184,0 -6.2447967411755165,53.311393015257735,0 -6.244547991176569,53.31097751955038,0 -6.2443686066452875,53.3105494569089,0 -6.244260313178955,53.310112950125514,0 -6.244224151561352,53.309672203193045,0 -6.244260467821746,53.30923146081077,0 -6.244368909988033,53.308794967503054,0 -6.244548431561978,53.30836692674489,0 -6.244797301679826,53.30795146048752,0 -6.245113121857261,53.307552569473984,0 -6.245492849154536,53.30717409472604,0 -6.245932825536138,53.30681968057288,0 -6.246428813140139,53.30649273957692,0 -6.246976035116035,53.30619641969354,0 -6.247569221636794,53.30593357398011,0 -6.248202660641719,53.30570673314502,0 -6.2488702528217255,53.305518081200155,0 -6.249565570318487,53.305369434450306,0 -6.250281918573691,53.30526222402101,0 -6.251012400734854,53.30519748209232,0 -6.251749983999999,53.305175831970416,0 -6.2524875672651445,53.30519748209232,0 -6.253218049426309,53.30526222402101,0 -6.253934397681513,53.305369434450306,0 -6.2546297151782735,53.305518081200155,0 -6.25529730735828,53.30570673314502,0 -6.255930746363205,53.30593357398011,0 -6.256523932883964,53.30619641969354,0 -6.25707115485986,53.30649273957692,0 -6.257567142463861,53.30681968057288,0 -6.258007118845463,53.30717409472604,0 -6.258386846142738,53.307552569473984,0 -6.258702666320174,53.30795146048752,0 -6.258951536438022,53.30836692674489,0 -6.259131058011967,53.308794967503054,0 -6.2592395001782535,53.30923146081077,0 -6.259275816438648,53.309672203193045,0 -6.259239654821044,53.310112950125514,0 -6.2591313613547115,53.3105494569089,0 -6.25895197682343,53.31097751955038,0 -6.258703226824483,53.311393015257735,0 -6.258387505226083,53.311791942156184,0 -6.258007851179639,53.31217045784492,0 -6.257567919905678,53.31252491642144,0 -6.257071947532663,53.31285190361614,0 -6.2565247103257855,53.31314826969826,0 -6.255931478697389,53.313411159835034,0 -6.255297966441635,53.31363804161093,0 -6.2546302756825956,53.3138267294407,0 -6.253934838066932,53.31397540564053,0 -6.253218352769063,53.31408263795314,0 -6.252487721907939,53.314147393357516,0 -6.251749983999999,53.3141690480296,0</coordinates>
            </LinearRing>
          </outerBoundaryIs>
        </Polygon>
      </Placemark>
      <Placemark>
        <name>Westmoreland (Luas Green Line) Circle</name>
        <Polygon>
          <outerBoundaryIs>
            <LinearRing>
              <coordinates>-6.259086,53.35086660802961,0 -6.258347627138934,53.350844953354475,0 -6.257616367444531,53.350780197941084,0 -6.256899265493948,53.35067296561383,0 -6.256203229349183,53.35052428939429,0 -6.255534963952622,53.350335601540515,0 -6.254900906488121,53.350108719737236,0 -6.254307164332733,53.349845829570725,0 -6.253759456198699,53.3495494634577,0 -6.2532630570341325,53.34922247623209,0 -6.252822747213975,53.34886801762586,0 -6.252442766510867,53.34848950190973,0 -6.25212677328889,53.34809057498728,0 -6.251877809312218,53.347675079260235,0 -6.251698270505978,53.34724701660411,0 -6.251589883948861,53.34681050981172,0 -6.251553691316453,53.346369762876215,0 -6.251590038931815,53.34592902049698,0 -6.251698574515976,53.345492527198296,0 -6.251878250666328,53.34506448645476,0 -6.252127335026124,53.344649020217105,0 -6.252443427043974,53.34425012922758,0 -6.252823481159043,53.34387165450702,0 -6.253263836186063,53.34351724038357,0 -6.253760250615121,53.343190299418524,0 -6.254307943484667,53.34289397956606,0 -6.2549016404331965,53.34263113388234,0 -6.25553562448574,53.342404293074644,0 -6.256203791086427,53.34221564115377,0 -6.25689970684807,53.34206699442362,0 -6.257616671454539,53.341959784008964,0 -6.258347782121891,53.34189504208927,0 -6.259086,53.34187339197041,0 -6.2598242178781085,53.34189504208927,0 -6.260555328545462,53.341959784008964,0 -6.261272293151931,53.34206699442362,0 -6.261968208913573,53.34221564115377,0 -6.26263637551426,53.342404293074644,0 -6.263270359566803,53.34263113388234,0 -6.263864056515334,53.34289397956606,0 -6.26441174938488,53.343190299418524,0 -6.264908163813937,53.34351724038357,0 -6.265348518840957,53.34387165450702,0 -6.265728572956026,53.34425012922758,0 -6.266044664973876,53.344649020217105,0 -6.266293749333672,53.34506448645476,0 -6.266473425484024,53.345492527198296,0 -6.266581961068185,53.34592902049698,0 -6.2666183086835465,53.346369762876215,0 -6.266582116051139,53.34681050981172,0 -6.266473729494023,53.34724701660411,0 -6.266294190687783,53.347675079260235,0 -6.26604522671111,53.34809057498728,0 -6.265729233489135,53.34848950190973,0 -6.265349252786025,53.34886801762586,0 -6.264908942965867,53.34922247623209,0 -6.264412543801302,53.3495494634577,0 -6.263864835667268,53.349845829570725,0 -6.263271093511879,53.350108719737236,0 -6.262637036047379,53.350335601540515,0 -6.2619687706508165,53.35052428939429,0 -6.2612727345060515,53.35067296561383,0 -6.2605556325554685,53.350780197941084,0 -6.259824372861066,53.350844953354475,0 -6.259086,53.35086660802961,0</coordinates>
            </LinearRing>
          </outerBoundaryIs>
        </Polygon>
      </Placemark>
      <Placemark>
        <name>O'Connell - GPO (Luas Green Line) Circle</name>
        <Polygon>
          <outerBoundaryIs>
            <LinearRing>
              <coordinates>-6.259968,53.35333560802959,0 -6.25922958436937,53.35331395335426,0 -6.258498282317627,53.35324919794026,0 -6.25778113883017,53.35314196561202,0 -6.257085062369313,53.35299328939115,0 -6.2564167582659636,53.35280460153575,0 -6.255782664076958,53.35257771973062,0 -6.25518888753318,53.35231482956212,0 -6.254641147678147,53.35201846344701,0 -6.254144719765497,53.35169147621933,0 -6.253704384446994,53.35133701761109,0 -6.2533243817407484,53.35095850189312,0 -6.25300837022259,53.35055957496905,0 -6.2527593918326785,53.35014407924068,0 -6.252579842634696,53.34971601658358,0 -6.2524714498071186,53.34927950979057,0 -6.2524352550856,53.34883876285487,0 -6.252471604812994,53.34839802047583,0 -6.252580146689658,53.34796152717775,0 -6.252759833252067,53.3475334864352,0 -6.2530089320429045,53.34711802019887,0 -6.253325042371551,53.34671912921097,0 -6.253705118500615,53.34634065449225,0 -6.2541454990326635,53.345986240370806,0 -6.254641942212064,53.345659299407835,0 -6.2551896668003515,53.34536297955744,0 -6.255783398130586,53.34510013387575,0 -6.256417418896778,53.34487329306988,0 -6.2570856241896395,53.34468464115064,0 -6.257781580249569,53.34453599442181,0 -6.258498586372598,53.34442878400814,0 -6.25922973937525,53.34436404208905,0 -6.259968,53.34434239197039,0 -6.260706260624751,53.34436404208905,0 -6.2614374136274025,53.34442878400814,0 -6.262154419750432,53.34453599442181,0 -6.262850375810361,53.34468464115064,0 -6.263518581103224,53.34487329306988,0 -6.264152601869415,53.34510013387575,0 -6.264746333199648,53.34536297955744,0 -6.265294057787936,53.345659299407835,0 -6.265790500967336,53.345986240370806,0 -6.266230881499387,53.34634065449225,0 -6.266610957628449,53.34671912921097,0 -6.266927067957097,53.34711802019887,0 -6.267176166747934,53.3475334864352,0 -6.267355853310342,53.34796152717775,0 -6.267464395187007,53.34839802047583,0 -6.2675007449144,53.34883876285487,0 -6.267464550192882,53.34927950979057,0 -6.267356157365305,53.34971601658358,0 -6.267176608167322,53.35014407924068,0 -6.2669276297774115,53.35055957496905,0 -6.266611618259252,53.35095850189312,0 -6.266231615553005,53.35133701761109,0 -6.265791280234503,53.35169147621933,0 -6.265294852321852,53.35201846344701,0 -6.26474711246682,53.35231482956212,0 -6.264153335923042,53.35257771973062,0 -6.263519241734036,53.35280460153575,0 -6.262850937630687,53.35299328939115,0 -6.2621548611698294,53.35314196561202,0 -6.261437717682372,53.35324919794026,0 -6.26070641563063,53.35331395335426,0 -6.259968,53.35333560802959,0</coordinates>
            </LinearRing>
          </outerBoundaryIs>
        </Polygon>
      </Placemark>
      <Placemark>
        <name>Grangegorman (Luas Green Line) Circle</name>
        <Polygon>
          <outerBoundaryIs>
            <LinearRing>
              <coordinates>-6.277470000000001,53.36161160802959,0 -6.276731440961164,53.36158995335359,0 -6.275999996883422,53.36152519793755,0 -6.275282714121024,53.361417965606,0 -6.274586502478562,53.36126928938069,0 -6.2739180685896745,53.36108060151986,0 -6.27328385126181,53.36085371970855,0 -6.27268995941227,53.36059082953334,0 -6.272142113195354,53.36029446341126,0 -6.271645588889128,53.359967476176585,0 -6.271205168073576,53.359613017561635,0 -6.2708250915898605,53.35923450183748,0 -6.270509018723809,53.35883557490799,0 -6.270259992005687,53.35842007917517,0 -6.270080407963745,53.357992016514764,0 -6.269971994111043,53.357555509719724,0 -6.269935792384655,53.35711476278333,0 -6.269972149193786,53.356674020405,0 -6.270080712169488,53.356237527108945,0 -6.270260433643976,53.355809486369715,0 -6.270509580822731,53.35539402013783,0 -6.270825752548269,53.35499512915534,0 -6.271205902491212,53.354616654442815,0 -6.2716463685427355,53.354262240328076,0 -6.272142908123279,53.35393529937208,0 -6.272690739065881,53.353638979528675,0 -6.273284585679454,53.35337613385367,0 -6.273918729548094,53.353149293054,0 -6.274587064577495,53.35296064114017,0 -6.275283155759323,53.352811994415795,0 -6.276000301089172,53.35270478400541,0 -6.276731596043911,53.35264004208838,0 -6.277470000000001,53.35261839197041,0 -6.27820840395609,53.35264004208838,0 -6.278939698910829,53.35270478400541,0 -6.279656844240678,53.352811994415795,0 -6.280352935422505,53.35296064114017,0 -6.281021270451908,53.353149293054,0 -6.281655414320548,53.35337613385367,0 -6.282249260934121,53.353638979528675,0 -6.282797091876722,53.35393529937208,0 -6.2832936314572665,53.354262240328076,0 -6.28373409750879,53.354616654442815,0 -6.284114247451732,53.35499512915534,0 -6.28443041917727,53.35539402013783,0 -6.284679566356026,53.355809486369715,0 -6.284859287830513,53.356237527108945,0 -6.284967850806216,53.356674020405,0 -6.285004207615346,53.35711476278333,0 -6.284968005888958,53.357555509719724,0 -6.284859592036256,53.357992016514764,0 -6.284680007994314,53.35842007917517,0 -6.284430981276192,53.35883557490799,0 -6.284114908410141,53.35923450183748,0 -6.283734831926426,53.359613017561635,0 -6.283294411110874,53.359967476176585,0 -6.282797886804648,53.36029446341126,0 -6.282250040587731,53.36059082953334,0 -6.281656148738192,53.36085371970855,0 -6.281021931410327,53.36108060151986,0 -6.280353497521439,53.36126928938069,0 -6.279657285878978,53.361417965606,0 -6.27894000311658,53.36152519793755,0 -6.278208559038838,53.36158995335359,0 -6.277470000000001,53.36161160802959,0</coordinates>
            </LinearRing>
          </outerBoundaryIs>
        </Polygon>
      </Placemark>
      <Placemark>
        <name>Cabra (Luas Green Line) Circle</name>
        <Polygon>
          <outerBoundaryIs>
            <LinearRing>
              <coordinates>-6.282029723000001,53.36882526802958,0 -6.281291038903382,53.36880361335296,0 -6.280559470973199,53.368738857935156,0 -6.279842066757398,53.368631625600734,0 -6.279145737231086,53.36848294937154,0 -6.2784771901639385,53.36829426150598,0 -6.277842865453988,53.36806737968928,0 -6.277248873053144,53.36780448950822,0 -6.276700934084348,53.36750812338005,0 -6.276204325719014,53.36718113613929,0 -6.275763830346564,53.36682667751849,0 -6.275383689525905,53.366448161788945,0 -6.275067563162006,53.366049234854735,0 -6.274818494299729,53.36563373911804,0 -6.274638879872444,53.36520567645474,0 -6.274530447684986,53.364769169657926,0 -6.274494239850073,53.36432842272094,0 -6.274530602834771,53.363887680343204,0 -6.274639184209695,53.36345118704893,0 -6.274818936128937,53.36302314631258,0 -6.275068125503922,53.36260768008459,0 -6.275384350770048,53.362208789106816,0 -6.27576456508169,53.36183031439968,0 -6.276205105709665,53.3614759002908,0 -6.276701729355921,53.36114895934089,0 -6.2772496530438,53.36085263950357,0 -6.277843600189122,53.36058979383442,0 -6.27847785140809,53.36036295304013,0 -6.279146299573014,53.36017430113102,0 -6.279842508586617,53.36002565441052,0 -6.280559775310459,53.35991844400303,0 -6.281291194053173,53.35985370208776,0 -6.282029723000001,53.3598320519704,0 -6.282768251946829,53.35985370208776,0 -6.283499670689541,53.35991844400303,0 -6.284216937413384,53.36002565441052,0 -6.284913146426987,53.36017430113102,0 -6.28558159459191,53.36036295304013,0 -6.286215845810879,53.36058979383442,0 -6.286809792956202,53.36085263950357,0 -6.28735771664408,53.36114895934089,0 -6.287854340290335,53.3614759002908,0 -6.28829488091831,53.36183031439968,0 -6.288675095229952,53.362208789106816,0 -6.288991320496078,53.36260768008459,0 -6.289240509871063,53.36302314631258,0 -6.289420261790305,53.36345118704893,0 -6.28952884316523,53.363887680343204,0 -6.289565206149928,53.36432842272094,0 -6.289528998315014,53.364769169657926,0 -6.289420566127557,53.36520567645474,0 -6.289240951700272,53.36563373911804,0 -6.288991882837996,53.366049234854735,0 -6.2886757564740945,53.366448161788945,0 -6.288295615653436,53.36682667751849,0 -6.2878551202809865,53.36718113613929,0 -6.287358511915652,53.36750812338005,0 -6.286810572946857,53.36780448950822,0 -6.286216580546012,53.36806737968928,0 -6.285582255836063,53.36829426150598,0 -6.284913708768915,53.36848294937154,0 -6.2842173792426035,53.368631625600734,0 -6.283499975026801,53.368738857935156,0 -6.282768407096618,53.36880361335296,0 -6.282029723000001,53.36882526802958,0</coordinates>
            </LinearRing>
          </outerBoundaryIs>
        </Polygon>
      </Placemark>
      <Placemark>
        <name>Sandyford (Luas Green Line) Circle</name>
        <Polygon>
          <outerBoundaryIs>
            <LinearRing>
              <coordinates>-6.204714,53.28202960802961,0 -6.203976817034576,53.28200795336018,0 -6.203246735767286,53.28194319796369,0 -6.202530789417566,53.28183596566389,0 -6.201835874910214,53.281687289481276,0 -6.201168686378497,53.281498601672496,0 -6.2005356506296305,53.28127171992057,0 -6.199942865196638,53.281008829809764,0 -6.199396039575327,53.28071246375469,0 -6.19890044021383,53.280385476587014,0 -6.198460839785452,53.28003101803648,0 -6.198081471233686,53.27965250237168,0 -6.197765987031613,53.27925357549423,0 -6.197517424047118,53.27883807980412,0 -6.197338174350687,53.278410017175425,0 -6.197229962244862,53.27797351039991,0 -6.197193827733988,53.2775327634701,0 -6.197230116590563,53.277092021085146,0 -6.197338477110674,53.27665552776954,0 -6.1975178635864925,53.27622748699857,0 -6.197766546459125,53.27581202072397,0 -6.1980821290508485,53.27541312968945,0 -6.198461570712722,53.27503465491755,0 -6.198901216162083,53.2746802407384,0 -6.199396830725308,53.27435329971542,0 -6.199943641144896,53.274056979805025,0 -6.200536381556909,53.27379413406562,0 -6.2011693441956695,53.27356729320658,0 -6.201836434337734,53.27337864124073,0 -6.202531228956951,53.27322999447365,0 -6.20324703852728,53.273122784031564,0 -6.203976971380282,53.27305804209499,0 -6.204714,53.273036391970415,0 -6.205451028619718,53.27305804209499,0 -6.206180961472721,53.273122784031564,0 -6.20689677104305,53.27322999447365,0 -6.207591565662266,53.27337864124073,0 -6.208258655804332,53.27356729320658,0 -6.208891618443092,53.27379413406562,0 -6.2094843588551045,53.274056979805025,0 -6.210031169274692,53.27435329971542,0 -6.210526783837918,53.2746802407384,0 -6.210966429287279,53.27503465491755,0 -6.2113458709491525,53.27541312968945,0 -6.211661453540876,53.27581202072397,0 -6.2119101364135085,53.27622748699857,0 -6.212089522889328,53.27665552776954,0 -6.212197883409437,53.277092021085146,0 -6.212234172266012,53.2775327634701,0 -6.21219803775514,53.27797351039991,0 -6.212089825649314,53.278410017175425,0 -6.211910575952883,53.27883807980412,0 -6.211662012968387,53.27925357549423,0 -6.211346528766314,53.27965250237168,0 -6.210967160214548,53.28003101803648,0 -6.21052755978617,53.280385476587014,0 -6.210031960424673,53.28071246375469,0 -6.209485134803362,53.281008829809764,0 -6.20889234937037,53.28127171992057,0 -6.208259313621503,53.281498601672496,0 -6.207592125089787,53.281687289481276,0 -6.206897210582434,53.28183596566389,0 -6.206181264232714,53.28194319796369,0 -6.205451182965425,53.28200795336018,0 -6.204714,53.28202960802961,0</coordinates>
            </LinearRing>
          </outerBoundaryIs>
        </Polygon>
      </Placemark>
    </Folder>
  </Document>
</kml>