<?xml version="1.0" encoding="UTF-8"?>
<kml xmlns="http://www.opengis.net/kml/2.2">
  <Document>
    <name>Luas Red Line</name>
    <description>Luas Red Line</description>
    
    <!-- Style for the route -->
    <Style id="routeStyle">
      <LineStyle>
        <color>ffff0000</color>
        <width>4</width>
      </LineStyle>
    </Style>
    
    <!-- Style for the points -->
    <Style id="pointStyle">
      <IconStyle>
        <scale>1.0</scale>
        <Icon>
          <href>http://maps.google.com/mapfiles/kml/paddle/red-blank.png</href>
        </Icon>
      </IconStyle>
      <LabelStyle>
        <scale>0.8</scale>
      </LabelStyle>
    </Style>

    <!-- Style for the circles -->
    <Style id="circleStyle">
      <LineStyle>
        <color>7f0000ff</color>
        <width>2</width>
      </LineStyle>
      <PolyStyle>
        <color>1f0000ff</color>
        <fill>1</fill>
        <outline>1</outline>
      </PolyStyle>
    </Style>

    <!-- Folder for points -->
    <Folder>
      <name>Luas Red Line Points</name>
      <description>Luas Red Line Points</description>
      <styleUrl>#pointStyle</styleUrl>
      <Placemark>
        <name>Bluebell (Luas Red Line)</name>
        <description></description>
        <Point>
          <coordinates>-6.333778,53.32924,0</coordinates>
        </Point>
      </Placemark>
      <Placemark>
        <name>Drimnagh (Luas Red Line)</name>
        <description></description>
        <Point>
          <coordinates>-6.318256,53.335305,0</coordinates>
        </Point>
      </Placemark>
      <Placemark>
        <name>Fatima (Luas Red Line)</name>
        <description></description>
        <Point>
          <coordinates>-6.292756,53.338362,0</coordinates>
        </Point>
      </Placemark>
      <Placemark>
        <name>James's (Luas Red Line)</name>
        <description></description>
        <Point>
          <coordinates>-6.293237662,53.34181261,0</coordinates>
        </Point>
      </Placemark>
      <Placemark>
        <name>Abbey Street (Luas Red Line)</name>
        <description></description>
        <Point>
          <coordinates>-6.25845,53.348504,0</coordinates>
        </Point>
      </Placemark>
      <Placemark>
        <name>Busáras (Luas Red Line)</name>
        <description></description>
        <Point>
          <coordinates>-6.251598,53.350045,0</coordinates>
        </Point>
      </Placemark>
      <Placemark>
        <name>The Point (Luas Red Line)</name>
        <description></description>
        <Point>
          <coordinates>-6.22918668,53.34827635,0</coordinates>
        </Point>
      </Placemark>
      <Placemark>
        <name>Goldenbridge (Luas Red Line)</name>
        <description></description>
        <Point>
          <coordinates>-6.313299,53.335879,0</coordinates>
        </Point>
      </Placemark>
      <Placemark>
        <name>Suir Road (Luas Red Line)</name>
        <description></description>
        <Point>
          <coordinates>-6.307231258,53.33659218,0</coordinates>
        </Point>
      </Placemark>
      <Placemark>
        <name>Kylemore (Luas Red Line)</name>
        <description></description>
        <Point>
          <coordinates>-6.343697,53.32652,0</coordinates>
        </Point>
      </Placemark>
      <Placemark>
        <name>Blackhorse (Luas Red Line)</name>
        <description></description>
        <Point>
          <coordinates>-6.327515,53.334196,0</coordinates>
        </Point>
      </Placemark>
      <Placemark>
        <name>Rialto (Luas Red Line)</name>
        <description></description>
        <Point>
          <coordinates>-6.297369,53.337846,0</coordinates>
        </Point>
      </Placemark>
      <Placemark>
        <name>Heuston (Luas Red Line)</name>
        <description></description>
        <Point>
          <coordinates>-6.291618,53.346697,0</coordinates>
        </Point>
      </Placemark>
      <Placemark>
        <name>Museum (Luas Red Line)</name>
        <description></description>
        <Point>
          <coordinates>-6.286936,53.347835,0</coordinates>
        </Point>
      </Placemark>
      <Placemark>
        <name>Smithfield (Luas Red Line)</name>
        <description></description>
        <Point>
          <coordinates>-6.278080805,53.3471135,0</coordinates>
        </Point>
      </Placemark>
      <Placemark>
        <name>Jervis (Luas Red Line)</name>
        <description></description>
        <Point>
          <coordinates>-6.265275464,53.34768301,0</coordinates>
        </Point>
      </Placemark>
      <Placemark>
        <name>George's Dock (Luas Red Line)</name>
        <description></description>
        <Point>
          <coordinates>-6.247569832,53.34942861,0</coordinates>
        </Point>
      </Placemark>
      <Placemark>
        <name>Mayor Square - NCI (Luas Red Line)</name>
        <description></description>
        <Point>
          <coordinates>-6.243269507,53.34916764,0</coordinates>
        </Point>
      </Placemark>
      <Placemark>
        <name>Four Courts (Luas Red Line)</name>
        <description></description>
        <Point>
          <coordinates>-6.273660411,53.34685189,0</coordinates>
        </Point>
      </Placemark>
      <Placemark>
        <name>Spencer Dock (Luas Red Line)</name>
        <description></description>
        <Point>
          <coordinates>-6.237126865,53.34878043,0</coordinates>
        </Point>
      </Placemark>
    </Folder>
    <Folder>
      <name>Luas Red Line Circles</name>
      <description>Luas Red Line Circles</description>
      <styleUrl>#circleStyle</styleUrl>
      <Placemark>
        <name>Bluebell (Luas Red Line) Circle</name>
        <Polygon>
          <outerBoundaryIs>
            <LinearRing>
              <coordinates>-6.333778,53.3337366080296,0 -6.333039923701415,53.33371495335588,0 -6.332308957711145,53.33365019794672,0 -6.331592143775615,53.33354296562631,0 -6.330896387181049,53.333394289415956,0 -6.330228390175837,53.33320560157338,0 -6.329594587357622,53.3329787197829,0 -6.329001083649987,53.33271582963027,0 -6.328453595468125,53.332419463531686,0 -6.327957395641666,53.33209247632052,0 -6.327517262626039,53.331738017728156,0 -6.327137434491833,53.33135950202482,0 -6.326821568134893,53.33096057511358,0 -6.326572704099067,53.33054507939574,0 -6.32639323734878,53.33011701674644,0 -6.326284894270815,53.329680509958266,0 -6.326248716124227,53.32923976302418,0 -6.326285049094859,53.328799020643515,0 -6.326393541047069,53.328362527340616,0 -6.326573145000643,53.32793448659024,0 -6.326822129296158,53.32751902034339,0 -6.327138094347675,53.32712012934264,0 -6.327517995818569,53.326741654609286,0 -6.327958173994706,53.326387240471966,0 -6.3284543890700045,53.32606029949249,0 -6.3290018620030315,53.32576397962559,0 -6.32959532055016,53.325501133928,0 -6.33022905003169,53.325274293107505,0 -6.3308969483423265,53.325085641175434,0 -6.331592584677201,53.32493699443608,0 -6.33230926140944,53.32482978401458,0 -6.333040078525464,53.3247650420907,0 -6.333778,53.3247433919704,0 -6.334515921474535,53.3247650420907,0 -6.335246738590559,53.32482978401458,0 -6.335963415322799,53.32493699443608,0 -6.336659051657674,53.325085641175434,0 -6.337326949968309,53.325274293107505,0 -6.33796067944984,53.325501133928,0 -6.338554137996969,53.32576397962559,0 -6.339101610929995,53.32606029949249,0 -6.339597826005293,53.326387240471966,0 -6.34003800418143,53.326741654609286,0 -6.340417905652324,53.32712012934264,0 -6.340733870703842,53.32751902034339,0 -6.340982854999357,53.32793448659024,0 -6.341162458952931,53.328362527340616,0 -6.341270950905141,53.328799020643515,0 -6.341307283875773,53.32923976302418,0 -6.341271105729184,53.329680509958266,0 -6.341162762651219,53.33011701674644,0 -6.340983295900933,53.33054507939574,0 -6.3407344318651075,53.33096057511358,0 -6.340418565508167,53.33135950202482,0 -6.34003873737396,53.331738017728156,0 -6.339598604358334,53.33209247632052,0 -6.339102404531875,53.332419463531686,0 -6.338554916350012,53.33271582963027,0 -6.337961412642377,53.3329787197829,0 -6.337327609824161,53.33320560157338,0 -6.336659612818949,53.333394289415956,0 -6.335963856224385,53.33354296562631,0 -6.335247042288854,53.33365019794672,0 -6.334516076298584,53.33371495335588,0 -6.333778,53.3337366080296,0</coordinates>
            </LinearRing>
          </outerBoundaryIs>
        </Polygon>
      </Placemark>
      <Placemark>
        <name>Drimnagh (Luas Red Line) Circle</name>
        <Polygon>
          <outerBoundaryIs>
            <LinearRing>
              <coordinates>-6.318256000000001,53.33980160802961,0 -6.317517818736121,53.33977995335539,0 -6.31678674879224,53.33971519794472,0 -6.31606983291669,53.33960796562189,0 -6.315373977378155,53.33945928940828,0 -6.314705885378535,53.33927060156174,0 -6.314071992430838,53.33904371976673,0 -6.313478404327027,53.338780829609206,0 -6.312930838295314,53.3384844635055,0 -6.312434567915142,53.33815747628921,0 -6.311994372321335,53.337803017691954,0 -6.311614490186903,53.337424501984074,0 -6.311298578927361,53.33702557506888,0 -6.3110496795184785,53.33661007934778,0 -6.310870187264712,53.336182016696064,0 -6.310761828797737,53.33574550990638,0 -6.310725645524035,53.3353047629718,0 -6.310761983678019,53.33486402059166,0 -6.310870491073314,53.33442752729024,0 -6.311050120580207,53.33399948654229,0 -6.311299140292461,53.33358402029868,0 -6.311615150282429,53.33318512930192,0 -6.311995105780188,53.33280665457308,0 -6.312435346550909,53.33245224044069,0 -6.312931632185459,53.3321252994663,0 -6.313479182962798,53.331828979604516,0 -6.314072725889698,53.33156613391185,0 -6.314706545474072,53.33133929309589,0 -6.315374538743266,53.33115064116777,0 -6.316070273978428,53.33100199443167,0 -6.31678705260085,53.3308947840126,0 -6.3175179736164075,53.3308300420902,0 -6.318256000000001,53.33080839197041,0 -6.318994026383593,53.3308300420902,0 -6.31972494739915,53.3308947840126,0 -6.320441726021572,53.33100199443167,0 -6.321137461256734,53.33115064116777,0 -6.321805454525929,53.33133929309589,0 -6.322439274110302,53.33156613391185,0 -6.323032817037202,53.331828979604516,0 -6.32358036781454,53.3321252994663,0 -6.324076653449091,53.33245224044069,0 -6.324516894219812,53.33280665457308,0 -6.324896849717571,53.33318512930192,0 -6.3252128597075385,53.33358402029868,0 -6.325461879419794,53.33399948654229,0 -6.325641508926687,53.33442752729024,0 -6.325750016321981,53.33486402059166,0 -6.325786354475965,53.3353047629718,0 -6.325750171202264,53.33574550990638,0 -6.325641812735288,53.336182016696064,0 -6.325462320481522,53.33661007934778,0 -6.325213421072639,53.33702557506888,0 -6.324897509813097,53.337424501984074,0 -6.324517627678665,53.337803017691954,0 -6.3240774320848585,53.33815747628921,0 -6.323581161704686,53.3384844635055,0 -6.323033595672974,53.338780829609206,0 -6.3224400075691625,53.33904371976673,0 -6.321806114621465,53.33927060156174,0 -6.321138022621844,53.33945928940828,0 -6.320442167083311,53.33960796562189,0 -6.3197252512077595,53.33971519794472,0 -6.318994181263879,53.33977995335539,0 -6.318256000000001,53.33980160802961,0</coordinates>
            </LinearRing>
          </outerBoundaryIs>
        </Polygon>
      </Placemark>
      <Placemark>
        <name>Fatima (Luas Red Line) Circle</name>
        <Polygon>
          <outerBoundaryIs>
            <LinearRing>
              <coordinates>-6.292756000000001,53.34285860802959,0 -6.292017765815006,53.342836953355125,0 -6.291286643460078,53.34277219794371,0 -6.290569676188687,53.34266496561965,0 -6.289873770764852,53.34251628940441,0 -6.28920563087121,53.34232760155587,0 -6.288571692482279,53.34210071975858,0 -6.287978061827836,53.34183782959856,0 -6.287430456545998,53.34154146349229,0 -6.2869341505942495,53.34121447627342,0 -6.286493923449948,53.340860017673684,0 -6.286114014089832,53.34048150196353,0 -6.28579808019142,53.340082575046324,0 -6.285549162948248,53.33966707932358,0 -6.285369657836207,53.33923901667065,0 -6.285261291610445,53.338802509880225,0 -6.285225105751771,53.33836176294539,0 -6.285261446519084,53.337921020565496,0 -6.285369961700433,53.33748452726482,0 -6.285549604090729,53.3370564865181,0 -6.2857986416593,53.33664102027614,0 -6.286114674306212,53.33624212928137,0 -6.286494657043089,53.33586365455483,0 -6.286934929372574,53.3355092404249,0 -6.287431250581495,53.33518229945309,0 -6.287978840606165,53.334885979593885,0 -6.288572426075425,53.334623133903676,0 -6.289206291087603,53.33439629309,0 -6.289874332232742,53.33420764116389,0 -6.290570117331178,53.33405899442944,0 -6.29128694732431,53.333951784011575,0 -6.292017920723648,53.33388704208993,0 -6.292756000000001,53.333865391970406,0 -6.293494079276352,53.33388704208993,0 -6.2942250526756895,53.333951784011575,0 -6.294941882668821,53.33405899442944,0 -6.295637667767258,53.33420764116389,0 -6.2963057089123975,53.33439629309,0 -6.296939573924575,53.334623133903676,0 -6.297533159393835,53.334885979593885,0 -6.298080749418506,53.33518229945309,0 -6.298577070627425,53.3355092404249,0 -6.299017342956912,53.33586365455483,0 -6.299397325693787,53.33624212928137,0 -6.2997133583407,53.33664102027614,0 -6.2999623959092705,53.3370564865181,0 -6.300142038299566,53.33748452726482,0 -6.3002505534809154,53.337921020565496,0 -6.300286894248227,53.33836176294539,0 -6.300250708389555,53.338802509880225,0 -6.3001423421637925,53.33923901667065,0 -6.299962837051751,53.33966707932358,0 -6.29971391980858,53.340082575046324,0 -6.2993979859101685,53.34048150196353,0 -6.299018076550052,53.340860017673684,0 -6.298577849405749,53.34121447627342,0 -6.298081543454001,53.34154146349229,0 -6.297533938172164,53.34183782959856,0 -6.296940307517721,53.34210071975858,0 -6.296306369128788,53.34232760155587,0 -6.295638229235148,53.34251628940441,0 -6.294942323811314,53.34266496561965,0 -6.294225356539923,53.34277219794371,0 -6.293494234184994,53.342836953355125,0 -6.292756000000001,53.34285860802959,0</coordinates>
            </LinearRing>
          </outerBoundaryIs>
        </Polygon>
      </Placemark>
      <Placemark>
        <name>James's (Luas Red Line) Circle</name>
        <Polygon>
          <outerBoundaryIs>
            <LinearRing>
              <coordinates>-6.293237661999999,53.346309218029596,0 -6.2924993680682855,53.34628756335485,0 -6.291768186542494,53.34622280794257,0 -6.2910511612463855,53.34611557561714,0 -6.290355199503197,53.34596689940004,0 -6.289687005538311,53.345778211549245,0 -6.289053015847272,53.34555132974936,0 -6.288459337154147,53.34528843958656,0 -6.287911687559824,53.34499207347738,0 -6.287415341448588,53.34466508625561,0 -6.286975078684505,53.34431062765308,0 -6.286595138587219,53.34393211194034,0 -6.286279179130048,53.34353318502089,0 -6.286030241752375,53.34311768929628,0 -6.285850722123642,53.342689626642,0 -6.285742347138388,53.34225311985071,0 -6.285706158361341,53.341812372915584,0 -6.285742502079042,53.34137163053597,0 -6.285851026050668,53.340935137236144,0 -6.28603068298603,53.34050709649081,0 -6.286279740713969,53.3400916302507,0 -6.286595798940051,53.33969273925818,0 -6.286975812429262,53.33931426453422,0 -6.287416120387867,53.338959850407086,0 -6.287912481759429,53.33863290943819,0 -6.288460116093431,53.33833658958189,0 -6.289053749592036,53.338073743894476,0 -6.289687665891154,53.337846903083374,0 -6.290355761087129,53.337658251159525,0 -6.29105160248005,53.33750960442693,0 -6.291768490469528,53.337402394010454,0 -6.292499523008945,53.33733765208964,0 -6.293237661999999,53.33731600197041,0 -6.2939758009910545,53.33733765208964,0 -6.294706833530472,53.337402394010454,0 -6.295423721519949,53.33750960442693,0 -6.296119562912871,53.337658251159525,0 -6.296787658108846,53.337846903083374,0 -6.297421574407965,53.338073743894476,0 -6.298015207906569,53.33833658958189,0 -6.29856284224057,53.33863290943819,0 -6.299059203612132,53.338959850407086,0 -6.299499511570739,53.33931426453422,0 -6.299879525059947,53.33969273925818,0 -6.3001955832860315,53.3400916302507,0 -6.3004446410139705,53.34050709649081,0 -6.300624297949332,53.340935137236144,0 -6.300732821920957,53.34137163053597,0 -6.300769165638659,53.341812372915584,0 -6.300732976861612,53.34225311985071,0 -6.3006246018763585,53.342689626642,0 -6.300445082247624,53.34311768929628,0 -6.300196144869952,53.34353318502089,0 -6.29988018541278,53.34393211194034,0 -6.299500245315494,53.34431062765308,0 -6.299059982551412,53.34466508625561,0 -6.298563636440176,53.34499207347738,0 -6.298015986845853,53.34528843958656,0 -6.297422308152728,53.34555132974936,0 -6.296788318461689,53.345778211549245,0 -6.296120124496803,53.34596689940004,0 -6.295424162753615,53.34611557561714,0 -6.2947071374575065,53.34622280794257,0 -6.293975955931713,53.34628756335485,0 -6.293237661999999,53.346309218029596,0</coordinates>
            </LinearRing>
          </outerBoundaryIs>
        </Polygon>
      </Placemark>
      <Placemark>
        <name>Abbey Street (Luas Red Line) Circle</name>
        <Polygon>
          <outerBoundaryIs>
            <LinearRing>
              <coordinates>-6.25845,53.353000608029596,0 -6.25771159017282,53.352978953354295,0 -6.256980293868594,53.352914197940386,0 -6.256263156017321,53.35280696561227,0 -6.255567085027001,53.352658289391584,0 -6.254898786175819,53.352469601536406,0 -6.254264696970003,53.35224271973153,0 -6.253670925092425,53.35197982956329,0 -6.253123189541651,53.35168346344847,0 -6.252626765529859,53.35135647622106,0 -6.252186433671257,53.3510020176131,0 -6.251806433950642,53.35062350189537,0 -6.251490424915113,53.350224574971534,0 -6.25124144848095,53.34980907924334,0 -6.251061900693035,53.34938101658638,0 -6.250953508716304,53.34894450979344,0 -6.25091731427826,53.348503762857774,0 -6.250953663719069,53.34806302047872,0 -6.251062204741895,53.347626527180545,0 -6.25124188989148,53.34719848643787,0 -6.2514909867241535,53.34678302020135,0 -6.251807094568188,53.346384129213234,0 -6.252187167710146,53.34600565449427,0 -6.25262754478139,53.34565124037255,0 -6.2531239840596236,53.3453242994093,0 -6.25367170434396,53.34502797955864,0 -6.2542654310089,53.34476513387665,0 -6.254899446793376,53.34453829307054,0 -6.255567646836053,53.34434964115107,0 -6.256263597427862,53.34420099442207,0 -6.256980597917462,53.344093784008244,0 -6.257711745175589,53.34402904208909,0 -6.25845,53.34400739197041,0 -6.2591882548244095,53.34402904208909,0 -6.259919402082537,53.344093784008244,0 -6.260636402572137,53.34420099442207,0 -6.261332353163946,53.34434964115107,0 -6.262000553206623,53.34453829307054,0 -6.262634568991099,53.34476513387665,0 -6.263228295656039,53.34502797955864,0 -6.263776015940376,53.3453242994093,0 -6.264272455218609,53.34565124037255,0 -6.264712832289852,53.34600565449427,0 -6.265092905431811,53.346384129213234,0 -6.265409013275846,53.34678302020135,0 -6.26565811010852,53.34719848643787,0 -6.265837795258104,53.347626527180545,0 -6.265946336280931,53.34806302047872,0 -6.26598268572174,53.348503762857774,0 -6.265946491283696,53.34894450979344,0 -6.265838099306965,53.34938101658638,0 -6.265658551519049,53.34980907924334,0 -6.265409575084886,53.350224574971534,0 -6.265093566049357,53.35062350189537,0 -6.2647135663287425,53.3510020176131,0 -6.26427323447014,53.35135647622106,0 -6.263776810458348,53.35168346344847,0 -6.263229074907573,53.35197982956329,0 -6.262635303029997,53.35224271973153,0 -6.262001213824179,53.352469601536406,0 -6.261332914972998,53.352658289391584,0 -6.260636843982678,53.35280696561227,0 -6.259919706131406,53.352914197940386,0 -6.259188409827179,53.352978953354295,0 -6.25845,53.353000608029596,0</coordinates>
            </LinearRing>
          </outerBoundaryIs>
        </Polygon>
      </Placemark>
      <Placemark>
        <name>Busáras (Luas Red Line) Circle</name>
        <Polygon>
          <outerBoundaryIs>
            <LinearRing>
              <coordinates>-6.251598,53.354541608029606,0 -6.250859563475983,53.35451995335417,0 -6.250128240732229,53.354455197939885,0 -6.249411076953568,53.35434796561116,0 -6.248714980797872,53.35419928938964,0 -6.248046657785844,53.354010601533446,0 -6.247412545656529,53.35378371972742,0 -6.246818752313655,53.353520829557944,0 -6.246270996962578,53.35322446344182,0 -6.245774555006181,53.35289747621312,0 -6.245334207231467,53.3525430176039,0 -6.244954193776455,53.35216450188502,0 -6.244638173320417,53.35176557496017,0 -6.244389187889485,53.35135007923115,0 -6.244209633615026,53.35092201657356,0 -6.244101237724261,53.350485509780256,0 -6.244065041982193,53.35004476284446,0 -6.244101392741335,53.349604020465534,0 -6.244209937691953,53.349167527167744,0 -6.244389629340762,53.34873948642568,0 -6.2446387351813195,53.34832402019,0 -6.244954854454984,53.34792512920287,0 -6.245334941338117,53.347546654485065,0 -6.245775334329646,53.3471922403646,0 -6.246271791553895,53.346865299402644,0 -6.246819531637125,53.346568979553275,0 -6.247413279763186,53.34630613387255,0 -6.248047318464383,53.34607929306758,0 -6.248715542658786,53.34589064114912,0 -6.249411518404856,53.34574199442094,0 -6.250128544809166,53.34563478400775,0 -6.250859718493061,53.34557004208898,0 -6.251598,53.345548391970425,0 -6.252336281506939,53.34557004208898,0 -6.253067455190835,53.34563478400775,0 -6.2537844815951456,53.34574199442094,0 -6.254480457341216,53.34589064114912,0 -6.255148681535617,53.34607929306758,0 -6.255782720236815,53.34630613387255,0 -6.256376468362876,53.346568979553275,0 -6.256924208446106,53.346865299402644,0 -6.257420665670354,53.3471922403646,0 -6.257861058661883,53.347546654485065,0 -6.258241145545016,53.34792512920287,0 -6.258557264818682,53.34832402019,0 -6.258806370659238,53.34873948642568,0 -6.258986062308047,53.349167527167744,0 -6.259094607258666,53.349604020465534,0 -6.259130958017809,53.35004476284446,0 -6.25909476227574,53.350485509780256,0 -6.258986366384976,53.35092201657356,0 -6.2588068121105165,53.35135007923115,0 -6.258557826679585,53.35176557496017,0 -6.258241806223545,53.35216450188502,0 -6.257861792768534,53.3525430176039,0 -6.2574214449938195,53.35289747621312,0 -6.2569250030374235,53.35322446344182,0 -6.256377247686345,53.353520829557944,0 -6.255783454343473,53.35378371972742,0 -6.255149342214156,53.354010601533446,0 -6.254481019202129,53.35419928938964,0 -6.2537849230464335,53.35434796561116,0 -6.253067759267771,53.354455197939885,0 -6.252336436524017,53.35451995335417,0 -6.251598,53.354541608029606,0</coordinates>
            </LinearRing>
          </outerBoundaryIs>
        </Polygon>
      </Placemark>
      <Placemark>
        <name>The Point (Luas Red Line) Circle</name>
        <Polygon>
          <outerBoundaryIs>
            <LinearRing>
              <coordinates>-6.229186680000001,53.352772958029604,0 -6.228448274116502,53.35275130335431,0 -6.227716981717947,53.35268654794046,0 -6.226999847696693,53.35257931561244,0 -6.226303780423825,53.352430639391876,0 -6.225635485141705,53.35224195153683,0 -6.22500139932217,53.35201506973214,0 -6.224407630615465,53.35175217956409,0 -6.223859897989609,53.351455813449455,0 -6.223363476628613,53.35112882622224,0 -6.222923147121152,53.350774367614456,0 -6.222543149429396,53.350395851896906,0 -6.222227142080914,53.34999692497321,0 -6.221978166975762,53.34958142924514,0 -6.221798620146045,53.34915336658827,0 -6.221690228747499,53.348716859795395,0 -6.2216540345020865,53.348276112859736,0 -6.221690383748149,53.34783537048066,0 -6.22179892419076,53.34739887718244,0 -6.221978608380274,53.34697083643967,0 -6.222227703882295,53.346555370203035,0 -6.222543810037933,53.346156479214756,0 -6.222923881150033,53.34577800449563,0 -6.223364255869518,53.34542359037373,0 -6.223860692496748,53.34509664941028,0 -6.224408409856374,53.344800329559426,0 -6.225002133351058,53.344537483877254,0 -6.225636145750253,53.344310643070976,0 -6.226304342225216,53.344121991151354,0 -6.227000289101214,53.34397334442223,0 -6.227717285762669,53.34386613400832,0 -6.228448429117158,53.34380139208911,0 -6.229186680000001,53.34377974197041,0 -6.2299249308828415,53.34380139208911,0 -6.230656074237332,53.34386613400832,0 -6.231373070898786,53.34397334442223,0 -6.232069017774784,53.344121991151354,0 -6.232737214249748,53.344310643070976,0 -6.233371226648942,53.344537483877254,0 -6.233964950143627,53.344800329559426,0 -6.234512667503251,53.34509664941028,0 -6.235009104130484,53.34542359037373,0 -6.235449478849968,53.34577800449563,0 -6.235829549962068,53.346156479214756,0 -6.2361456561177055,53.346555370203035,0 -6.236394751619726,53.34697083643967,0 -6.236574435809241,53.34739887718244,0 -6.23668297625185,53.34783537048066,0 -6.236719325497914,53.348276112859736,0 -6.236683131252502,53.348716859795395,0 -6.236574739853956,53.34915336658827,0 -6.236395193024237,53.34958142924514,0 -6.236146217919085,53.34999692497321,0 -6.235830210570605,53.350395851896906,0 -6.235450212878848,53.350774367614456,0 -6.235009883371387,53.35112882622224,0 -6.234513462010391,53.351455813449455,0 -6.233965729384535,53.35175217956409,0 -6.233371960677831,53.35201506973214,0 -6.2327378748582944,53.35224195153683,0 -6.232069579576176,53.352430639391876,0 -6.231373512303307,53.35257931561244,0 -6.230656378282053,53.35268654794046,0 -6.229925085883498,53.35275130335431,0 -6.229186680000001,53.352772958029604,0</coordinates>
            </LinearRing>
          </outerBoundaryIs>
        </Polygon>
      </Placemark>
      <Placemark>
        <name>Goldenbridge (Luas Red Line) Circle</name>
        <Polygon>
          <outerBoundaryIs>
            <LinearRing>
              <coordinates>-6.313298999999999,53.340375608029596,0 -6.312560808800084,53.34035395335534,0 -6.311829729015934,53.34028919794452,0 -6.311112803490721,53.34018196562146,0 -6.310416938586131,53.340033289407565,0 -6.309748837594321,53.339844601560635,0 -6.309114936114948,53.3396177197652,0 -6.308521340022178,53.339354829607196,0 -6.307973766621183,53.33905846350303,0 -6.307477489562383,53.33873147628625,0 -6.3070372880449135,53.33837701768852,0 -6.30665740079881,53.33799850198022,0 -6.306341485288779,53.337599575064644,0 -6.306092582531476,53.337184079343224,0 -6.305913087863544,53.3367560166913,0 -6.305804727939843,53.33631950990147,0 -6.305768544180808,53.335878762966836,0 -6.3058048828254485,53.335438020586736,0 -6.305913391682589,53.335001527285456,0 -6.306093023608365,53.33457348653774,0 -6.3063420466731746,53.33415802029444,0 -6.306658060917027,53.33375912929805,0 -6.307038021528978,53.33338065456966,0 -6.307478268224916,53.33302624043772,0 -6.307974560538619,53.33269929946382,0 -6.308522118684716,53.33240297960251,0 -6.309115669599021,53.3321401339103,0 -6.309749497712548,53.33191329309478,0 -6.310417499970539,53.33172464116703,0 -6.311113244567619,53.33157599443125,0 -6.311830032834988,53.331468784012394,0 -6.312560963685694,53.331404042090135,0 -6.313298999999999,53.33138239197041,0 -6.314037036314304,53.331404042090135,0 -6.314767967165012,53.331468784012394,0 -6.3154847554323785,53.33157599443125,0 -6.316180500029461,53.33172464116703,0 -6.316848502287452,53.33191329309478,0 -6.317482330400979,53.3321401339103,0 -6.318075881315283,53.33240297960251,0 -6.318623439461381,53.33269929946382,0 -6.319119731775084,53.33302624043772,0 -6.319559978471021,53.33338065456966,0 -6.319939939082973,53.33375912929805,0 -6.320255953326824,53.33415802029444,0 -6.320504976391635,53.33457348653774,0 -6.320684608317411,53.335001527285456,0 -6.32079311717455,53.335438020586736,0 -6.320829455819191,53.335878762966836,0 -6.320793272060157,53.33631950990147,0 -6.320684912136455,53.3367560166913,0 -6.320505417468524,53.337184079343224,0 -6.320256514711221,53.337599575064644,0 -6.31994059920119,53.33799850198022,0 -6.319560711955085,53.33837701768852,0 -6.319120510437616,53.33873147628625,0 -6.318624233378816,53.33905846350303,0 -6.31807665997782,53.339354829607196,0 -6.317483063885051,53.3396177197652,0 -6.316849162405679,53.339844601560635,0 -6.316181061413868,53.340033289407565,0 -6.315485196509278,53.34018196562146,0 -6.314768270984065,53.34028919794452,0 -6.3140371911999145,53.34035395335534,0 -6.313298999999999,53.340375608029596,0</coordinates>
            </LinearRing>
          </outerBoundaryIs>
        </Polygon>
      </Placemark>
      <Placemark>
        <name>Suir Road (Luas Red Line) Circle</name>
        <Polygon>
          <outerBoundaryIs>
            <LinearRing>
              <coordinates>-6.307231258000001,53.34108878802959,0 -6.306493054454345,53.341067133355274,0 -6.305761962443444,53.34100237794429,0 -6.305045024928316,53.34089514562094,0 -6.304349148386196,53.34074646940666,0 -6.303681036221396,53.34055778155927,0 -6.303047124141232,53.340330899763295,0 -6.302453518122008,53.34006800960472,0 -6.301905935564518,53.33977164349994,0 -6.301409650207376,53.339444656282566,0 -6.300969441329627,53.33909019768427,0 -6.30058954773216,53.338711681975425,0 -6.300273626940803,53.33831275505938,0 -6.300024720023015,53.33789725933759,0 -6.299845222355432,53.337469196685376,0 -6.299736860621716,53.337032689895366,0 -6.299700676259644,53.33659194296069,0 -6.299737015513938,53.33615120058063,0 -6.299845526187453,53.33571470727954,0 -6.300025161118743,53.3352866665321,0 -6.300274188349176,53.33487120028919,0 -6.300590207878569,53.33447230929327,0 -6.300970174845019,53.3340938345654,0 -6.301410428903165,53.33373942043403,0 -6.30190672951586,53.33341247946074,0 -6.3024542968178,53.33311615960004,0 -6.303047857656631,53.33285331390841,0 -6.303681696367816,53.33262647309339,0 -6.304349709794581,53.332437821166124,0 -6.305045466024053,53.33228917443073,0 -6.305762266275473,53.33218196401216,0 -6.306493209346569,53.332117222090076,0 -6.307231258000001,53.33209557197041,0 -6.307969306653431,53.332117222090076,0 -6.308700249724527,53.33218196401216,0 -6.309417049975947,53.33228917443073,0 -6.310112806205419,53.332437821166124,0 -6.310780819632184,53.33262647309339,0 -6.311414658343368,53.33285331390841,0 -6.312008219182199,53.33311615960004,0 -6.31255578648414,53.33341247946074,0 -6.313052087096835,53.33373942043403,0 -6.313492341154982,53.3340938345654,0 -6.3138723081214305,53.33447230929327,0 -6.314188327650824,53.33487120028919,0 -6.3144373548812585,53.3352866665321,0 -6.314616989812547,53.33571470727954,0 -6.314725500486063,53.33615120058063,0 -6.314761839740356,53.33659194296069,0 -6.314725655378283,53.337032689895366,0 -6.314617293644568,53.337469196685376,0 -6.314437795976985,53.33789725933759,0 -6.314188889059196,53.33831275505938,0 -6.313872968267841,53.338711681975425,0 -6.313493074670373,53.33909019768427,0 -6.313052865792622,53.339444656282566,0 -6.312556580435482,53.33977164349994,0 -6.312008997877992,53.34006800960472,0 -6.311415391858769,53.340330899763295,0 -6.310781479778605,53.34055778155927,0 -6.310113367613803,53.34074646940666,0 -6.3094174910716845,53.34089514562094,0 -6.308700553556556,53.34100237794429,0 -6.307969461545656,53.341067133355274,0 -6.307231258000001,53.34108878802959,0</coordinates>
            </LinearRing>
          </outerBoundaryIs>
        </Polygon>
      </Placemark>
      <Placemark>
        <name>Kylemore (Luas Red Line) Circle</name>
        <Polygon>
          <outerBoundaryIs>
            <LinearRing>
              <coordinates>-6.343697000000001,53.331016608029614,0 -6.3429589707633305,53.33099495335613,0 -6.3422280513813805,53.33093019794761,0 -6.34151128315136,53.33082296562828,0 -6.340815570919008,53.33067428941941,0 -6.340147616505195,53.330485601578616,0 -6.339513854097156,53.33025871979016,0 -6.338920388229129,53.329995829639735,0 -6.338372934951785,53.32969946354344,0 -6.337876766758571,53.329372476334555,0 -6.3374366618003055,53.3290180177444,0 -6.337056857877473,53.32863950204309,0 -6.336741011652925,53.328240575133634,0 -6.336492163476856,53.327825079417245,0 -6.336312708161232,53.32739701676905,0 -6.336204371983036,53.326960509981525,0 -6.336168196135226,53.32651976304766,0 -6.336204526781868,53.32607902066678,0 -6.336313011810065,53.32564252736321,0 -6.336492604306633,53.325214486611756,0 -6.336741572722808,53.324799020363436,0 -6.337057517625861,53.324400129360924,0 -6.337437394873438,53.32402165462554,0 -6.33787754498486,53.32366724048601,0 -6.338373728424432,53.323340299504245,0 -6.338921166455423,53.32304397963505,0 -6.339514587170296,53.32278113393526,0 -6.340148276253594,53.32255429311274,0 -6.340816131988902,53.32236564117888,0 -6.341511723981148,53.322216994438065,0 -6.342228355030219,53.32210978401549,0 -6.342959125562166,53.32204504209092,0 -6.343697000000001,53.32202339197041,0 -6.344434874437835,53.32204504209092,0 -6.345165644969781,53.32210978401549,0 -6.345882276018853,53.322216994438065,0 -6.3465778680110985,53.32236564117888,0 -6.347245723746406,53.32255429311274,0 -6.3478794128297045,53.32278113393526,0 -6.348472833544578,53.32304397963505,0 -6.349020271575569,53.323340299504245,0 -6.349516455015141,53.32366724048601,0 -6.349956605126562,53.32402165462554,0 -6.350336482374139,53.324400129360924,0 -6.3506524272771925,53.324799020363436,0 -6.350901395693367,53.325214486611756,0 -6.351080988189936,53.32564252736321,0 -6.351189473218132,53.32607902066678,0 -6.351225803864774,53.32651976304766,0 -6.351189628016964,53.326960509981525,0 -6.351081291838768,53.32739701676905,0 -6.350901836523145,53.327825079417245,0 -6.3506529883470755,53.328240575133634,0 -6.350337142122528,53.32863950204309,0 -6.349957338199695,53.3290180177444,0 -6.349517233241429,53.329372476334555,0 -6.349021065048215,53.32969946354344,0 -6.3484736117708715,53.329995829639735,0 -6.347880145902844,53.33025871979016,0 -6.347246383494805,53.330485601578616,0 -6.346578429080992,53.33067428941941,0 -6.3458827168486405,53.33082296562828,0 -6.34516594861862,53.33093019794761,0 -6.34443502923667,53.33099495335613,0 -6.343697000000001,53.331016608029614,0</coordinates>
            </LinearRing>
          </outerBoundaryIs>
        </Polygon>
      </Placemark>
      <Placemark>
        <name>Blackhorse (Luas Red Line) Circle</name>
        <Polygon>
          <outerBoundaryIs>
            <LinearRing>
              <coordinates>-6.327515000000001,53.338692608029596,0 -6.32677683793213,53.33867095335548,0 -6.326045786999239,53.33860619794508,0 -6.3253288897664355,53.33849896562269,0 -6.324633052322732,53.33835028940969,0 -6.323964977695648,53.338161601563876,0 -6.323331101230791,53.337934719769684,0 -6.3227375285613165,53.33767182961306,0 -6.322189976766751,53.337375463510284,0 -6.321693719289411,53.33704847629494,0 -6.321253535139874,53.33669401769856,0 -6.320873662880981,53.33631550199153,0 -6.320557759833207,53.33591657507705,0 -6.320308866893332,53.33550107935654,0 -6.320129379303631,53.33507301670528,0 -6.32002102365099,53.33463650991588,0 -6.319984841314934,53.33419576298138,0 -6.320021178520988,53.33375502060113,0 -6.320129683092058,53.33331852729945,0 -6.320309307925771,53.33289048655106,0 -6.320558321161028,53.33247502030686,0 -6.320874322932671,53.33207612930936,0 -6.321254268550019,53.33169765457971,0 -6.32169449787347,53.3313432404464,0 -6.322190770604175,53.331016299471095,0 -6.32273830714538,53.330719979608375,0 -6.323331834640944,53.330457133914805,0 -6.3239656377473485,53.330230293098,0 -6.324633613650564,53.33004164116918,0 -6.325329330798884,53.32989299443248,0 -6.326046090787674,53.329785784012955,0 -6.32677699280213,53.329721042090284,0 -6.327515000000001,53.329699391970415,0 -6.328253007197871,53.329721042090284,0 -6.328983909212327,53.329785784012955,0 -6.3297006692011175,53.32989299443248,0 -6.330396386349437,53.33004164116918,0 -6.3310643622526515,53.330230293098,0 -6.331698165359057,53.330457133914805,0 -6.332291692854621,53.330719979608375,0 -6.332839229395827,53.331016299471095,0 -6.333335502126531,53.3313432404464,0 -6.333775731449982,53.33169765457971,0 -6.334155677067331,53.33207612930936,0 -6.334471678838974,53.33247502030686,0 -6.334720692074231,53.33289048655106,0 -6.334900316907944,53.33331852729945,0 -6.335008821479013,53.33375502060113,0 -6.335045158685066,53.33419576298138,0 -6.33500897634901,53.33463650991588,0 -6.33490062069637,53.33507301670528,0 -6.334721133106668,53.33550107935654,0 -6.334472240166795,53.33591657507705,0 -6.334156337119021,53.33631550199153,0 -6.333776464860126,53.33669401769856,0 -6.33333628071059,53.33704847629494,0 -6.332840023233251,53.337375463510284,0 -6.3322924714386835,53.33767182961306,0 -6.3316988987692095,53.337934719769684,0 -6.331065022304353,53.338161601563876,0 -6.3303969476772695,53.33835028940969,0 -6.329701110233565,53.33849896562269,0 -6.328984213000761,53.33860619794508,0 -6.328253162067872,53.33867095335548,0 -6.327515000000001,53.338692608029596,0</coordinates>
            </LinearRing>
          </outerBoundaryIs>
        </Polygon>
      </Placemark>
      <Placemark>
        <name>Rialto (Luas Red Line) Circle</name>
        <Polygon>
          <outerBoundaryIs>
            <LinearRing>
              <coordinates>-6.297369,53.34234260802958,0 -6.296630774748396,53.342320953355156,0 -6.295899661240755,53.34225619794386,0 -6.2951827026452785,53.34214896562002,0 -6.2944868056423715,53.34200028940505,0 -6.293818673833518,53.341811601556856,0 -6.2931847431153285,53.341584719759936,0 -6.292591119643679,53.34132182960035,0 -6.292043520987488,53.34102546349451,0 -6.291547221040428,53.34069847627609,0 -6.291106999222032,53.340344017676756,0 -6.290727094457769,53.339965501966994,0 -6.290411164380929,53.33956657505013,0 -6.2901622501482874,53.33915107932765,0 -6.289982747206798,53.33872301667495,0 -6.289874382290763,53.33828650988464,0 -6.289838196868447,53.33784576294984,0 -6.289874537194615,53.33740502056989,0 -6.2899830510616335,53.3369685272691,0 -6.290162691277136,53.33654048652218,0 -6.290411725831458,53.33612502027993,0 -6.290727754653748,53.335726129284836,0 -6.2911077327925025,53.33534765455791,0 -6.2915479997946875,53.33499324042754,0 -6.2920443149984475,53.33466629945532,0 -6.2925918983979425,53.33436997959568,0 -6.2931854766858075,53.33410713390506,0 -6.293819334029508,53.333880293090985,0 -6.294487367092911,53.33369164116454,0 -6.295183143774138,53.33354299442981,0 -6.295899965095598,53.33343578401174,0 -6.296630929652252,53.33337104208997,0 -6.297369,53.333349391970394,0 -6.298107070347749,53.33337104208997,0 -6.298838034904402,53.33343578401174,0 -6.299554856225861,53.33354299442981,0 -6.300250632907089,53.33369164116454,0 -6.300918665970491,53.333880293090985,0 -6.301552523314192,53.33410713390506,0 -6.302146101602058,53.33436997959568,0 -6.302693685001552,53.33466629945532,0 -6.303190000205312,53.33499324042754,0 -6.303630267207497,53.33534765455791,0 -6.3040102453462525,53.335726129284836,0 -6.304326274168543,53.33612502027993,0 -6.304575308722864,53.33654048652218,0 -6.304754948938366,53.3369685272691,0 -6.304863462805385,53.33740502056989,0 -6.304899803131552,53.33784576294984,0 -6.304863617709237,53.33828650988464,0 -6.304755252793202,53.33872301667495,0 -6.304575749851712,53.33915107932765,0 -6.3043268356190705,53.33956657505013,0 -6.304010905542232,53.339965501966994,0 -6.303631000777968,53.340344017676756,0 -6.303190778959571,53.34069847627609,0 -6.302694479012511,53.34102546349451,0 -6.302146880356322,53.34132182960035,0 -6.301553256884671,53.341584719759936,0 -6.300919326166483,53.341811601556856,0 -6.300251194357628,53.34200028940505,0 -6.299555297354721,53.34214896562002,0 -6.298838338759245,53.34225619794386,0 -6.298107225251604,53.342320953355156,0 -6.297369,53.34234260802958,0</coordinates>
            </LinearRing>
          </outerBoundaryIs>
        </Polygon>
      </Placemark>
      <Placemark>
        <name>Heuston (Luas Red Line) Circle</name>
        <Polygon>
          <outerBoundaryIs>
            <LinearRing>
              <coordinates>-6.291618000000001,53.3511936080296,0 -6.290879621474799,53.351171953354445,0 -6.290148356170853,53.351107197940976,0 -6.289431248719384,53.35099996561359,0 -6.2887352072354075,53.35085128939387,0 -6.288066936712759,53.35066260153987,0 -6.287432874384692,53.350435719736346,0 -6.286839127675119,53.35017282956959,0 -6.286291415340154,53.349876463456276,0 -6.285795012368371,53.349549476230386,0 -6.28535469917137,53.3491950176239,0 -6.284974715554302,53.34881650190752,0 -6.284658719909294,53.348417574984865,0 -6.28440975402382,53.34800207925763,0 -6.284230213841362,53.34757401660139,0 -6.284121826453825,53.34713750980891,0 -6.284085633544749,53.346696762873385,0 -6.284121981439814,53.34625602049417,0 -6.284230517857315,53.34581952719556,0 -6.2844101953865765,53.34539148645217,0 -6.28465928165753,53.34497602021469,0 -6.2849753761003475,53.34457712922537,0 -6.285355433130813,53.34419865450505,0 -6.285795791535562,53.343844240381884,0 -6.286292209772134,53.3435172994171,0 -6.286839906842315,53.34322097956491,0 -6.287433608344143,53.34295813388146,0 -6.288067597258815,53.34273129307401,0 -6.2887357689836545,53.34254264115336,0 -6.28943169008215,53.34239399442337,0 -6.290148660186814,53.34228678400884,0 -6.290879776460792,53.34222204208924,0 -6.291618000000001,53.342200391970415,0 -6.292356223539207,53.34222204208924,0 -6.2930873398131855,53.34228678400884,0 -6.29380430991785,53.34239399442337,0 -6.294500231016347,53.34254264115336,0 -6.295168402741185,53.34273129307401,0 -6.295802391655856,53.34295813388146,0 -6.296396093157685,53.34322097956491,0 -6.296943790227865,53.3435172994171,0 -6.297440208464438,53.343844240381884,0 -6.297880566869186,53.34419865450505,0 -6.298260623899652,53.34457712922537,0 -6.29857671834247,53.34497602021469,0 -6.298825804613424,53.34539148645217,0 -6.299005482142684,53.34581952719556,0 -6.299114018560186,53.34625602049417,0 -6.299150366455251,53.346696762873385,0 -6.299114173546175,53.34713750980891,0 -6.299005786158637,53.34757401660139,0 -6.298826245976179,53.34800207925763,0 -6.298577280090707,53.348417574984865,0 -6.298261284445697,53.34881650190752,0 -6.29788130082863,53.3491950176239,0 -6.297440987631631,53.349549476230386,0 -6.296944584659846,53.349876463456276,0 -6.29639687232488,53.35017282956959,0 -6.295803125615308,53.350435719736346,0 -6.295169063287242,53.35066260153987,0 -6.294500792764594,53.35085128939387,0 -6.293804751280617,53.35099996561359,0 -6.293087643829147,53.351107197940976,0 -6.292356378525201,53.351171953354445,0 -6.291618000000001,53.3511936080296,0</coordinates>
            </LinearRing>
          </outerBoundaryIs>
        </Polygon>
      </Placemark>
      <Placemark>
        <name>Museum (Luas Red Line) Circle</name>
        <Polygon>
          <outerBoundaryIs>
            <LinearRing>
              <coordinates>-6.286936,53.352331608029594,0 -6.2861976017620504,53.35230995335434,0 -6.285466316935351,53.35224519794059,0 -6.284749190339287,53.35213796561276,0 -6.2840531302733815,53.351989289392435,0 -6.283384841910542,53.35180060153768,0 -6.282750762655931,53.3515737197333,0 -6.282157000096543,53.35131082956562,0 -6.281609273141179,53.351014463451364,0 -6.281112856919231,53.35068747622452,0 -6.28067253196989,53.350333017617096,0 -6.2802925382114445,53.349954501899866,0 -6.279976534133614,53.34955557497646,0 -6.279727561604993,53.34914007924863,0 -6.279548016632919,53.348712016591925,0 -6.279439626355289,53.34827550979917,0 -6.279403432483329,53.34783476286354,0 -6.279439781351843,53.34739402048443,0 -6.279548320669596,53.346957527186106,0 -6.279728002997836,53.34652948644317,0 -6.2799770959201435,53.346114020206294,0 -6.280293198802518,53.34571512921773,0 -6.280673265979365,53.34533665449826,0 -6.281113636139534,53.344982240376,0 -6.281610067627313,53.34465529941219,0 -6.282157779316852,53.34435897956096,0 -6.282751496665414,53.34409613387842,0 -6.283385502501626,53.34386929307182,0 -6.284053692059921,53.34368064115191,0 -6.284749631732141,53.34353199442254,0 -6.285466620972037,53.34342478400847,0 -6.286197756758607,53.343360042089145,0 -6.286936,53.34333839197041,0 -6.2876742432413915,53.343360042089145,0 -6.288405379027963,53.34342478400847,0 -6.28912236826786,53.34353199442254,0 -6.289818307940078,53.34368064115191,0 -6.290486497498373,53.34386929307182,0 -6.291120503334585,53.34409613387842,0 -6.291714220683147,53.34435897956096,0 -6.2922619323726865,53.34465529941219,0 -6.2927583638604645,53.344982240376,0 -6.293198734020635,53.34533665449826,0 -6.293578801197482,53.34571512921773,0 -6.293894904079856,53.346114020206294,0 -6.2941439970021635,53.34652948644317,0 -6.294323679330403,53.346957527186106,0 -6.294432218648156,53.34739402048443,0 -6.294468567516671,53.34783476286354,0 -6.29443237364471,53.34827550979917,0 -6.2943239833670805,53.348712016591925,0 -6.294144438395006,53.34914007924863,0 -6.293895465866384,53.34955557497646,0 -6.293579461788554,53.349954501899866,0 -6.293199468030109,53.350333017617096,0 -6.292759143080769,53.35068747622452,0 -6.292262726858821,53.351014463451364,0 -6.291714999903456,53.35131082956562,0 -6.2911212373440675,53.3515737197333,0 -6.290487158089457,53.35180060153768,0 -6.289818869726617,53.351989289392435,0 -6.289122809660711,53.35213796561276,0 -6.2884056830646475,53.35224519794059,0 -6.28767439823795,53.35230995335434,0 -6.286936,53.352331608029594,0</coordinates>
            </LinearRing>
          </outerBoundaryIs>
        </Polygon>
      </Placemark>
      <Placemark>
        <name>Smithfield (Luas Red Line) Circle</name>
        <Polygon>
          <outerBoundaryIs>
            <LinearRing>
              <coordinates>-6.278080804999999,53.35161010802959,0 -6.277342419260227,53.35158845335441,0 -6.276611146811247,53.351523697940834,0 -6.275894032353141,53.35141646561328,0 -6.2751979840684555,53.35126778939334,0 -6.274529707016564,53.351079101539064,0 -6.273895638493635,53.35085221973524,0 -6.273301885983267,53.35058932956813,0 -6.272754168297453,53.35029296345448,0 -6.2722577604763075,53.34996597622825,0 -6.271817442978126,53.349611517621405,0 -6.271437455649466,53.34923300190472,0 -6.27112145691817,53.34883407498179,0 -6.270872488601405,53.34841857925435,0 -6.270692946666018,53.34799051659793,0 -6.270584558220751,53.34755400980535,0 -6.270548364959272,53.34711326286978,0 -6.270584713210606,53.34667252049061,0 -6.270693250689557,53.3462360271921,0 -6.270872929975171,53.34580798644887,0 -6.271122018680421,53.34539252021162,0 -6.271438116211991,53.34499362922257,0 -6.271818176955881,53.34461515450258,0 -6.2722585396629364,53.344260740379724,0 -6.272754962749254,53.34393379941531,0 -6.2733026651699015,53.34363747956346,0 -6.273896372471397,53.34337463388036,0 -6.2745303675791,53.34314779307321,0 -6.275198545830716,53.34295914115283,0 -6.275894473726918,53.34281049442308,0 -6.2766114508347925,53.34270328400872,0 -6.2773425742500875,53.34263854208921,0 -6.278080804999999,53.34261689197041,0 -6.278819035749913,53.34263854208921,0 -6.279550159165208,53.34270328400872,0 -6.280267136273082,53.34281049442308,0 -6.280963064169284,53.34295914115283,0 -6.2816312424209,53.34314779307321,0 -6.282265237528604,53.34337463388036,0 -6.282858944830099,53.34363747956346,0 -6.283406647250747,53.34393379941531,0 -6.283903070337064,53.344260740379724,0 -6.2843434330441195,53.34461515450258,0 -6.284723493788009,53.34499362922257,0 -6.285039591319579,53.34539252021162,0 -6.285288680024829,53.34580798644887,0 -6.2854683593104435,53.3462360271921,0 -6.285576896789395,53.34667252049061,0 -6.285613245040728,53.34711326286978,0 -6.285577051779249,53.34755400980535,0 -6.285468663333982,53.34799051659793,0 -6.285289121398596,53.34841857925435,0 -6.28504015308183,53.34883407498179,0 -6.284724154350534,53.34923300190472,0 -6.2843441670218745,53.349611517621405,0 -6.283903849523694,53.34996597622825,0 -6.283407441702547,53.35029296345448,0 -6.282859724016733,53.35058932956813,0 -6.282265971506365,53.35085221973524,0 -6.281631902983436,53.351079101539064,0 -6.280963625931545,53.35126778939334,0 -6.2802675776468595,53.35141646561328,0 -6.2795504631887535,53.351523697940834,0 -6.278819190739773,53.35158845335441,0 -6.278080804999999,53.35161010802959,0</coordinates>
            </LinearRing>
          </outerBoundaryIs>
        </Polygon>
      </Placemark>
      <Placemark>
        <name>Jervis (Luas Red Line) Circle</name>
        <Polygon>
          <outerBoundaryIs>
            <LinearRing>
              <coordinates>-6.265275464,53.35217961802958,0 -6.264537068394941,53.35215796335435,0 -6.263805786175757,53.352093207940634,0 -6.263088662136698,53.351985975612855,0 -6.262392604552647,53.351837299392606,0 -6.261724318572593,53.35164861153797,0 -6.26109024157874,53.35142172973371,0 -6.260496481136299,53.35115883956614,0 -6.259948756133675,53.350862473452,0 -6.259452341681456,53.35053548622529,0 -6.259012018301791,53.35018102761799,0 -6.258632025897857,53.34980251190088,0 -6.25831602294634,53.34940358497757,0 -6.258067051304996,53.348988089249815,0 -6.2578875069726365,53.348560026593184,0 -6.257779117081014,53.34812351980046,0 -6.25774292333766,53.34768277286485,0 -6.257779272076157,53.347242030485724,0 -6.257887811006545,53.34680553718736,0 -6.25806749269382,53.34637749644436,0 -6.258316584727752,53.34596203020741,0 -6.258632686482916,53.34556313921873,0 -6.259012752304584,53.345184664499165,0 -6.259453120894666,53.34483025037677,0 -6.259949550612578,53.344503309412836,0 -6.260497260349513,53.34420698956148,0 -6.261090975581542,53.34394414387882,0 -6.2617249791576635,53.343717303072104,0 -6.262393166334073,53.34352865115209,0 -6.263089103525534,53.34338000442265,0 -6.263806090209674,53.343272794008506,0 -6.2645372233900884,53.343208052089146,0 -6.265275464,53.3431864019704,0 -6.266013704609914,53.343208052089146,0 -6.266744837790327,53.343272794008506,0 -6.267461824474468,53.34338000442265,0 -6.268157761665928,53.34352865115209,0 -6.268825948842337,53.343717303072104,0 -6.269459952418459,53.34394414387882,0 -6.270053667650488,53.34420698956148,0 -6.270601377387423,53.344503309412836,0 -6.271097807105335,53.34483025037677,0 -6.271538175695417,53.345184664499165,0 -6.271918241517084,53.34556313921873,0 -6.272234343272248,53.34596203020741,0 -6.272483435306181,53.34637749644436,0 -6.272663116993456,53.34680553718736,0 -6.272771655923844,53.347242030485724,0 -6.27280800466234,53.34768277286485,0 -6.272771810918986,53.34812351980046,0 -6.272663421027365,53.348560026593184,0 -6.272483876695006,53.348988089249815,0 -6.272234905053661,53.34940358497757,0 -6.2719189021021435,53.34980251190088,0 -6.271538909698209,53.35018102761799,0 -6.271098586318545,53.35053548622529,0 -6.270602171866326,53.350862473452,0 -6.2700544468637025,53.35115883956614,0 -6.26946068642126,53.35142172973371,0 -6.268826609427407,53.35164861153797,0 -6.268158323447353,53.351837299392606,0 -6.267462265863302,53.351985975612855,0 -6.266745141824244,53.352093207940634,0 -6.26601385960506,53.35215796335435,0 -6.265275464,53.35217961802958,0</coordinates>
            </LinearRing>
          </outerBoundaryIs>
        </Polygon>
      </Placemark>
      <Placemark>
        <name>George's Dock (Luas Red Line) Circle</name>
        <Polygon>
          <outerBoundaryIs>
            <LinearRing>
              <coordinates>-6.247569832000001,53.3539252180296,0 -6.246831406154841,53.353903563354216,0 -6.246100093987019,53.35383880794008,0 -6.245382940579431,53.353731575611604,0 -6.244686854490002,53.35358289939041,0 -6.244018541142424,53.35339421153463,0 -6.243384438182612,53.35316732972906,0 -6.242790653425956,53.35290443956007,0 -6.242242905995091,53.35260807344447,0 -6.2417464712166195,53.352281086216294,0 -6.241306129808423,53.35192662760757,0 -6.240926121847233,53.35154811188916,0 -6.24061010595945,53.35114918496471,0 -6.240361124127267,53.350733689236016,0 -6.2401815724474545,53.35030562657869,0 -6.240073178122322,53.34986911978553,0 -6.240036982901868,53.34942837284978,0 -6.2400733331336715,53.348987630470795,0 -6.240181876513156,53.34855113717286,0 -6.240361565562245,53.348123096430555,0 -6.240610667799607,53.347707630194535,0 -6.240926782501368,53.34730873920702,0 -6.241306863887967,53.34693026448875,0 -6.24174725051131,53.34657585036777,0 -6.242243700557069,53.34624890940531,0 -6.242791432720651,53.34595258955542,0 -6.2433851722621645,53.34568974387418,0 -6.244019201796569,53.34546290306876,0 -6.24468741633017,53.345274251149895,0 -6.2453833820144204,53.34512560442138,0 -6.246100398052729,53.345018394007944,0 -6.2468315611661955,53.34495365208901,0 -6.247569832000001,53.3449320019704,0 -6.248308102833805,53.34495365208901,0 -6.249039265947272,53.345018394007944,0 -6.249756281985579,53.34512560442138,0 -6.25045224766983,53.345274251149895,0 -6.251120462203431,53.34546290306876,0 -6.251754491737835,53.34568974387418,0 -6.252348231279349,53.34595258955542,0 -6.252895963442931,53.34624890940531,0 -6.25339241348869,53.34657585036777,0 -6.253832800112033,53.34693026448875,0 -6.254212881498633,53.34730873920702,0 -6.254528996200394,53.347707630194535,0 -6.254778098437755,53.348123096430555,0 -6.254957787486845,53.34855113717286,0 -6.255066330866328,53.348987630470795,0 -6.2551026810981325,53.34942837284978,0 -6.255066485877679,53.34986911978553,0 -6.254958091552546,53.35030562657869,0 -6.254778539872734,53.350733689236016,0 -6.25452955804055,53.35114918496471,0 -6.254213542152768,53.35154811188916,0 -6.253833534191577,53.35192662760757,0 -6.253393192783381,53.352281086216294,0 -6.25289675800491,53.35260807344447,0 -6.2523490105740445,53.35290443956007,0 -6.251755225817389,53.35316732972906,0 -6.251121122857577,53.35339421153463,0 -6.250452809509998,53.35358289939041,0 -6.249756723420568,53.353731575611604,0 -6.249039570012981,53.35383880794008,0 -6.248308257845159,53.353903563354216,0 -6.247569832000001,53.3539252180296,0</coordinates>
            </LinearRing>
          </outerBoundaryIs>
        </Polygon>
      </Placemark>
      <Placemark>
        <name>Mayor Square - NCI (Luas Red Line) Circle</name>
        <Polygon>
          <outerBoundaryIs>
            <LinearRing>
              <coordinates>-6.243269507000001,53.353664248029595,0 -6.242531085675986,53.353642593354245,0 -6.241799777985732,53.35357783794017,0 -6.241082628968982,53.35347060561179,0 -6.240386547141341,53.353321929390745,0 -6.239718237885434,53.353133241535126,0 -6.239084138807748,53.352906359729765,0 -6.238490357686268,53.35264346956098,0 -6.237942613608609,53.3523471034456,0 -6.23744618186908,53.352020116217645,0 -6.237005843156297,53.35166565760914,0 -6.2366258375210455,53.35128714189092,0 -6.236309823567342,53.35088821496663,0 -6.236060843258773,53.35047271923809,0 -6.235881292677466,53.350044656580856,0 -6.235772899015179,53.34960814978776,0 -6.235736704015564,53.34916740285204,0 -6.235773054024105,53.348726660473034,0 -6.235881596738413,53.34829016717502,0 -6.236061284686851,53.347862126432624,0 -6.236310385398715,53.34744666019647,0 -6.236626498164853,53.347047769208764,0 -6.237006577224367,53.346669294490304,0 -6.237446961151589,53.34631488036913,0 -6.237943408158167,53.34598793940644,0 -6.23849113696878,53.34569161955633,0 -6.239084872875826,53.345428773874886,0 -6.239718898529253,53.34520193306927,0 -6.240387108972728,53.34501328115024,0 -6.241083070397071,53.34486463442159,0 -6.241800082046688,53.34475742400804,0 -6.242531240684916,53.34469268208905,0 -6.243269507000001,53.34467103197041,0 -6.244007773315085,53.34469268208905,0 -6.244738931953312,53.34475742400804,0 -6.24545594360293,53.34486463442159,0 -6.246151905027273,53.34501328115024,0 -6.246820115470748,53.34520193306927,0 -6.247454141124176,53.345428773874886,0 -6.248047877031221,53.34569161955633,0 -6.2485956058418335,53.34598793940644,0 -6.249092052848413,53.34631488036913,0 -6.249532436775633,53.346669294490304,0 -6.249912515835148,53.347047769208764,0 -6.250228628601285,53.34744666019647,0 -6.25047772931315,53.347862126432624,0 -6.250657417261587,53.34829016717502,0 -6.250765959975895,53.348726660473034,0 -6.2508023099844365,53.34916740285204,0 -6.250766114984821,53.34960814978776,0 -6.250657721322535,53.350044656580856,0 -6.250478170741228,53.35047271923809,0 -6.250229190432659,53.35088821496663,0 -6.249913176478954,53.35128714189092,0 -6.249533170843703,53.35166565760914,0 -6.249092832130921,53.352020116217645,0 -6.248596400391391,53.3523471034456,0 -6.248048656313733,53.35264346956098,0 -6.247454875192252,53.352906359729765,0 -6.246820776114566,53.353133241535126,0 -6.246152466858659,53.353321929390745,0 -6.245456385031018,53.35347060561179,0 -6.244739236014269,53.35357783794017,0 -6.244007928324014,53.353642593354245,0 -6.243269507000001,53.353664248029595,0</coordinates>
            </LinearRing>
          </outerBoundaryIs>
        </Polygon>
      </Placemark>
      <Placemark>
        <name>Four Courts (Luas Red Line) Circle</name>
        <Polygon>
          <outerBoundaryIs>
            <LinearRing>
              <coordinates>-6.273660411,53.3513484980296,0 -6.272922029791831,53.351326843354435,0 -6.2721907618307755,53.35126208794092,0 -6.2714736517736664,53.35115485561349,0 -6.270777607760629,53.35100617939368,0 -6.270109334809874,53.35081749153957,0 -6.269475270178051,53.350590609735946,0 -6.268881521311267,53.350327719569044,0 -6.268333806986418,53.35003135345562,0 -6.267837402211245,53.349704366229595,0 -6.267397087414714,53.34934990762297,0 -6.2670171024173715,53.34897139190648,0 -6.266701105624629,53.348572464983725,0 -6.266452138835002,53.348156969256415,0 -6.266272598000663,53.3477289066001,0 -6.266164210219776,53.347292399807586,0 -6.266128017179646,53.34685165287204,0 -6.266164365207202,53.34641091049285,0 -6.266272902019437,53.34597441719428,0 -6.266452580201853,53.34554637645094,0 -6.266701667378077,53.345130910213534,0 -6.267017762969546,53.34473201922433,0 -6.267397821380967,53.34435354450413,0 -6.267838181385665,53.34399913038108,0 -6.26833460142577,53.34367218941643,0 -6.268882300485692,53.343375869564376,0 -6.269476004144311,53.343113023881045,0 -6.270109995362057,53.342886183073716,0 -6.270778169514087,53.34269753115316,0 -6.271474093140527,53.342548884423266,0 -6.272191065849559,53.34244167400879,0 -6.272922184779262,53.34237693208924,0 -6.273660411,53.34235528197041,0 -6.274398637220738,53.34237693208924,0 -6.2751297561504416,53.34244167400879,0 -6.275846728859472,53.342548884423266,0 -6.276542652485912,53.34269753115316,0 -6.277210826637941,53.342886183073716,0 -6.277844817855688,53.343113023881045,0 -6.278438521514309,53.343375869564376,0 -6.27898622057423,53.34367218941643,0 -6.279482640614336,53.34399913038108,0 -6.279923000619032,53.34435354450413,0 -6.280303059030453,53.34473201922433,0 -6.280619154621923,53.345130910213534,0 -6.280868241798147,53.34554637645094,0 -6.281047919980563,53.34597441719428,0 -6.281156456792798,53.34641091049285,0 -6.2811928048203525,53.34685165287204,0 -6.281156611780225,53.347292399807586,0 -6.2810482239993375,53.3477289066001,0 -6.280868683164997,53.348156969256415,0 -6.28061971637537,53.348572464983725,0 -6.280303719582628,53.34897139190648,0 -6.279923734585287,53.34934990762297,0 -6.279483419788755,53.349704366229595,0 -6.278987015013581,53.35003135345562,0 -6.278439300688733,53.350327719569044,0 -6.277845551821949,53.350590609735946,0 -6.277211487190126,53.35081749153957,0 -6.276543214239371,53.35100617939368,0 -6.275847170226333,53.35115485561349,0 -6.275130060169224,53.35126208794092,0 -6.27439879220817,53.351326843354435,0 -6.273660411,53.3513484980296,0</coordinates>
            </LinearRing>
          </outerBoundaryIs>
        </Polygon>
      </Placemark>
      <Placemark>
        <name>Spencer Dock (Luas Red Line) Circle</name>
        <Polygon>
          <outerBoundaryIs>
            <LinearRing>
              <coordinates>-6.237126864999999,53.3532770380296,0 -6.2363884503840294,53.35325538335427,0 -6.235657149337166,53.35319062794028,0 -6.234940006835124,53.353083395612074,0 -6.234243931330721,53.352934719391236,0 -6.233575628145647,53.35274603153587,0 -6.232941534827888,53.35251914973079,0 -6.232347759099936,53.35225625956234,0 -6.231800019997448,53.35195989344728,0 -6.231303592766812,53.35163290621965,0 -6.23086325805323,53.35127844761145,0 -6.230483255868983,53.35089993189351,0 -6.230167244784881,53.350501004969495,0 -6.229918266736906,53.350085509241154,0 -6.229738717785456,53.349657446584075,0 -6.229630325106638,53.34922093979108,0 -6.229594130434683,53.34878019285538,0 -6.229630480111971,53.34833945047635,0 -6.229739021839352,53.34790295717824,0 -6.229918708154746,53.34747491643567,0 -6.230167806603223,53.34705945019931,0 -6.230483916497469,53.34666055921137,0 -6.230863992104274,53.346282084492614,0 -6.231304372031246,53.34592767037112,0 -6.231800814528577,53.3456007294081,0 -6.2323485383643735,53.34530440955767,0 -6.232942268878939,53.34504156387591,0 -6.23357628877414,53.34481472307001,0 -6.234244493149076,53.34462607115072,0 -6.234940448252974,53.344477424421854,0 -6.235657453391069,53.344370214008165,0 -6.236388605389365,53.344305472089076,0 -6.237126864999999,53.344283821970414,0 -6.237865124610634,53.344305472089076,0 -6.23859627660893,53.344370214008165,0 -6.239313281747025,53.344477424421854,0 -6.2400092368509235,53.34462607115072,0 -6.240677441225857,53.34481472307001,0 -6.241311461121058,53.34504156387591,0 -6.241905191635626,53.34530440955767,0 -6.242452915471422,53.3456007294081,0 -6.242949357968753,53.34592767037112,0 -6.2433897378957255,53.346282084492614,0 -6.243769813502531,53.34666055921137,0 -6.244085923396774,53.34705945019931,0 -6.244335021845253,53.34747491643567,0 -6.244514708160647,53.34790295717824,0 -6.244623249888028,53.34833945047635,0 -6.244659599565316,53.34878019285538,0 -6.24462340489336,53.34922093979108,0 -6.244515012214543,53.349657446584075,0 -6.244335463263092,53.350085509241154,0 -6.244086485215118,53.350501004969495,0 -6.243770474131016,53.35089993189351,0 -6.2433904719467685,53.35127844761145,0 -6.242950137233187,53.35163290621965,0 -6.24245371000255,53.35195989344728,0 -6.2419059709000635,53.35225625956234,0 -6.24131219517211,53.35251914973079,0 -6.2406781018543525,53.35274603153587,0 -6.240009798669277,53.352934719391236,0 -6.239313723164875,53.353083395612074,0 -6.238596580662833,53.35319062794028,0 -6.23786527961597,53.35325538335427,0 -6.237126864999999,53.3532770380296,0</coordinates>
            </LinearRing>
          </outerBoundaryIs>
        </Polygon>
      </Placemark>
    </Folder>
  </Document>
</kml>